<?xml version="1.0" encoding="UTF-8"?>
<gpx xmlns="http://www.topografix.com/GPX/1/1" xmlns:gpxtpx="http://www.garmin.com/xmlschemas/TrackPointExtension/v1" xmlns:xsi="http://www.w3.org/2001/XMLSchema-instance" xsi:schemaLocation="http://www.topografix.com/GPX/1/1 http://www.topografix.com/GPX/1/1/gpx.xsd" version="1.1" creator="gpx.py -- https://github.com/tkrajina/gpxpy">
  <trk>
    <name>gpx from joyrun</name>
    <trkseg>
      <trkpt lat="34.082752" lon="110.123753">
        <time>2026-07-04T23:07:23Z</time>
      </trkpt>
      <trkpt lat="34.082811" lon="110.123726">
        <time>2026-07-04T23:07:28Z</time>
      </trkpt>
      <trkpt lat="34.08295" lon="110.123594">
        <time>2026-07-04T23:07:33Z</time>
      </trkpt>
      <trkpt lat="34.083034" lon="110.123369">
        <time>2026-07-04T23:07:38Z</time>
      </trkpt>
      <trkpt lat="34.083016" lon="110.123122">
        <time>2026-07-04T23:07:43Z</time>
      </trkpt>
      <trkpt lat="34.082906" lon="110.122925">
        <time>2026-07-04T23:07:48Z</time>
      </trkpt>
      <trkpt lat="34.082738" lon="110.122816">
        <time>2026-07-04T23:07:53Z</time>
      </trkpt>
      <trkpt lat="34.082559" lon="110.12281">
        <time>2026-07-04T23:07:58Z</time>
      </trkpt>
      <trkpt lat="34.082413" lon="110.122859">
        <time>2026-07-04T23:08:03Z</time>
      </trkpt>
      <trkpt lat="34.08227" lon="110.122907">
        <time>2026-07-04T23:08:08Z</time>
      </trkpt>
      <trkpt lat="34.082126" lon="110.122956">
        <time>2026-07-04T23:08:13Z</time>
      </trkpt>
      <trkpt lat="34.081972" lon="110.123009">
        <time>2026-07-04T23:08:18Z</time>
      </trkpt>
      <trkpt lat="34.081823" lon="110.123059">
        <time>2026-07-04T23:08:23Z</time>
      </trkpt>
      <trkpt lat="34.081663" lon="110.123142">
        <time>2026-07-04T23:08:28Z</time>
      </trkpt>
      <trkpt lat="34.081542" lon="110.123304">
        <time>2026-07-04T23:08:33Z</time>
      </trkpt>
      <trkpt lat="34.081492" lon="110.123517">
        <time>2026-07-04T23:08:38Z</time>
      </trkpt>
      <trkpt lat="34.081528" lon="110.123741">
        <time>2026-07-04T23:08:43Z</time>
      </trkpt>
      <trkpt lat="34.081644" lon="110.123921">
        <time>2026-07-04T23:08:48Z</time>
      </trkpt>
      <trkpt lat="34.081819" lon="110.124018">
        <time>2026-07-04T23:08:53Z</time>
      </trkpt>
      <trkpt lat="34.082002" lon="110.124008">
        <time>2026-07-04T23:08:58Z</time>
      </trkpt>
      <trkpt lat="34.082161" lon="110.123955">
        <time>2026-07-04T23:09:03Z</time>
      </trkpt>
      <trkpt lat="34.082331" lon="110.123897">
        <time>2026-07-04T23:09:08Z</time>
      </trkpt>
      <trkpt lat="34.082507" lon="110.123837">
        <time>2026-07-04T23:09:13Z</time>
      </trkpt>
      <trkpt lat="34.082689" lon="110.123775">
        <time>2026-07-04T23:09:18Z</time>
      </trkpt>
      <trkpt lat="34.082879" lon="110.123676">
        <time>2026-07-04T23:09:23Z</time>
      </trkpt>
      <trkpt lat="34.083003" lon="110.123491">
        <time>2026-07-04T23:09:28Z</time>
      </trkpt>
      <trkpt lat="34.083039" lon="110.123261">
        <time>2026-07-04T23:09:33Z</time>
      </trkpt>
      <trkpt lat="34.082981" lon="110.123033">
        <time>2026-07-04T23:09:38Z</time>
      </trkpt>
      <trkpt lat="34.082827" lon="110.122858">
        <time>2026-07-04T23:09:43Z</time>
      </trkpt>
      <trkpt lat="34.082621" lon="110.122801">
        <time>2026-07-04T23:09:48Z</time>
      </trkpt>
      <trkpt lat="34.082439" lon="110.12285">
        <time>2026-07-04T23:09:53Z</time>
      </trkpt>
      <trkpt lat="34.082273" lon="110.122906">
        <time>2026-07-04T23:09:58Z</time>
      </trkpt>
      <trkpt lat="34.082106" lon="110.122963">
        <time>2026-07-04T23:10:03Z</time>
      </trkpt>
      <trkpt lat="34.081941" lon="110.123019">
        <time>2026-07-04T23:10:08Z</time>
      </trkpt>
      <trkpt lat="34.081785" lon="110.123072">
        <time>2026-07-04T23:10:13Z</time>
      </trkpt>
      <trkpt lat="34.081619" lon="110.123186">
        <time>2026-07-04T23:10:18Z</time>
      </trkpt>
      <trkpt lat="34.081508" lon="110.123401">
        <time>2026-07-04T23:10:23Z</time>
      </trkpt>
      <trkpt lat="34.081504" lon="110.123662">
        <time>2026-07-04T23:10:28Z</time>
      </trkpt>
      <trkpt lat="34.081603" lon="110.123876">
        <time>2026-07-04T23:10:33Z</time>
      </trkpt>
      <trkpt lat="34.081774" lon="110.124004">
        <time>2026-07-04T23:10:38Z</time>
      </trkpt>
      <trkpt lat="34.081945" lon="110.124022">
        <time>2026-07-04T23:10:43Z</time>
      </trkpt>
      <trkpt lat="34.082026" lon="110.124001">
        <time>2026-07-04T23:10:48Z</time>
      </trkpt>
      <trkpt lat="34.082084" lon="110.123981">
        <time>2026-07-04T23:10:53Z</time>
      </trkpt>
      <trkpt lat="34.082144" lon="110.12396">
        <time>2026-07-04T23:10:58Z</time>
      </trkpt>
      <trkpt lat="34.082205" lon="110.12394">
        <time>2026-07-04T23:11:03Z</time>
      </trkpt>
      <trkpt lat="34.082263" lon="110.12392">
        <time>2026-07-04T23:11:08Z</time>
      </trkpt>
      <trkpt lat="34.082322" lon="110.1239">
        <time>2026-07-04T23:11:13Z</time>
      </trkpt>
      <trkpt lat="34.082385" lon="110.123879">
        <time>2026-07-04T23:11:18Z</time>
      </trkpt>
      <trkpt lat="34.082445" lon="110.123858">
        <time>2026-07-04T23:11:23Z</time>
      </trkpt>
      <trkpt lat="34.082506" lon="110.123837">
        <time>2026-07-04T23:11:28Z</time>
      </trkpt>
      <trkpt lat="34.082567" lon="110.123817">
        <time>2026-07-04T23:11:33Z</time>
      </trkpt>
      <trkpt lat="34.082626" lon="110.123797">
        <time>2026-07-04T23:11:38Z</time>
      </trkpt>
      <trkpt lat="34.082684" lon="110.123777">
        <time>2026-07-04T23:11:43Z</time>
      </trkpt>
      <trkpt lat="34.082737" lon="110.123759">
        <time>2026-07-04T23:11:48Z</time>
      </trkpt>
      <trkpt lat="34.082801" lon="110.123731">
        <time>2026-07-04T23:11:53Z</time>
      </trkpt>
      <trkpt lat="34.08286" lon="110.123692">
        <time>2026-07-04T23:11:58Z</time>
      </trkpt>
      <trkpt lat="34.082902" lon="110.123653">
        <time>2026-07-04T23:12:03Z</time>
      </trkpt>
      <trkpt lat="34.08294" lon="110.123608">
        <time>2026-07-04T23:12:08Z</time>
      </trkpt>
      <trkpt lat="34.082967" lon="110.123567">
        <time>2026-07-04T23:12:13Z</time>
      </trkpt>
      <trkpt lat="34.082994" lon="110.123513">
        <time>2026-07-04T23:12:18Z</time>
      </trkpt>
      <trkpt lat="34.083016" lon="110.123452">
        <time>2026-07-04T23:12:23Z</time>
      </trkpt>
      <trkpt lat="34.083032" lon="110.123382">
        <time>2026-07-04T23:12:28Z</time>
      </trkpt>
      <trkpt lat="34.083039" lon="110.123311">
        <time>2026-07-04T23:12:33Z</time>
      </trkpt>
      <trkpt lat="34.083037" lon="110.123237">
        <time>2026-07-04T23:12:38Z</time>
      </trkpt>
      <trkpt lat="34.083026" lon="110.123164">
        <time>2026-07-04T23:12:43Z</time>
      </trkpt>
      <trkpt lat="34.083004" lon="110.123088">
        <time>2026-07-04T23:12:48Z</time>
      </trkpt>
      <trkpt lat="34.082979" lon="110.123029">
        <time>2026-07-04T23:12:53Z</time>
      </trkpt>
      <trkpt lat="34.082945" lon="110.122974">
        <time>2026-07-04T23:12:58Z</time>
      </trkpt>
    </trkseg>
  </trk>
</gpx>