<?xml version="1.0" encoding="UTF-8"?>
<gpx xmlns="http://www.topografix.com/GPX/1/1" xmlns:gpxtpx="http://www.garmin.com/xmlschemas/TrackPointExtension/v1" xmlns:xsi="http://www.w3.org/2001/XMLSchema-instance" xsi:schemaLocation="http://www.topografix.com/GPX/1/1 http://www.topografix.com/GPX/1/1/gpx.xsd" version="1.1" creator="gpx.py -- https://github.com/tkrajina/gpxpy">
  <trk>
    <name>gpx from joyrun</name>
    <trkseg>
      <trkpt lat="34.079807" lon="110.125744">
        <time>2026-07-06T11:21:40Z</time>
      </trkpt>
      <trkpt lat="34.079779" lon="110.125698">
        <time>2026-07-06T11:21:45Z</time>
      </trkpt>
      <trkpt lat="34.079755" lon="110.125567">
        <time>2026-07-06T11:21:50Z</time>
      </trkpt>
      <trkpt lat="34.079735" lon="110.12539">
        <time>2026-07-06T11:21:55Z</time>
      </trkpt>
      <trkpt lat="34.079716" lon="110.125222">
        <time>2026-07-06T11:22:00Z</time>
      </trkpt>
      <trkpt lat="34.079723" lon="110.125063">
        <time>2026-07-06T11:22:05Z</time>
      </trkpt>
      <trkpt lat="34.079716" lon="110.124934">
        <time>2026-07-06T11:22:10Z</time>
      </trkpt>
      <trkpt lat="34.079719" lon="110.12478">
        <time>2026-07-06T11:22:15Z</time>
      </trkpt>
      <trkpt lat="34.079725" lon="110.124619">
        <time>2026-07-06T11:22:20Z</time>
      </trkpt>
      <trkpt lat="34.079733" lon="110.124464">
        <time>2026-07-06T11:22:25Z</time>
      </trkpt>
      <trkpt lat="34.079736" lon="110.124323">
        <time>2026-07-06T11:22:30Z</time>
      </trkpt>
      <trkpt lat="34.079738" lon="110.124187">
        <time>2026-07-06T11:22:35Z</time>
      </trkpt>
      <trkpt lat="34.079725" lon="110.124046">
        <time>2026-07-06T11:22:40Z</time>
      </trkpt>
      <trkpt lat="34.079706" lon="110.123892">
        <time>2026-07-06T11:22:45Z</time>
      </trkpt>
      <trkpt lat="34.079721" lon="110.123744">
        <time>2026-07-06T11:22:50Z</time>
      </trkpt>
      <trkpt lat="34.079727" lon="110.123591">
        <time>2026-07-06T11:22:55Z</time>
      </trkpt>
      <trkpt lat="34.079722" lon="110.123435">
        <time>2026-07-06T11:23:00Z</time>
      </trkpt>
      <trkpt lat="34.079714" lon="110.123269">
        <time>2026-07-06T11:23:05Z</time>
      </trkpt>
      <trkpt lat="34.079699" lon="110.123108">
        <time>2026-07-06T11:23:10Z</time>
      </trkpt>
      <trkpt lat="34.079696" lon="110.122944">
        <time>2026-07-06T11:23:15Z</time>
      </trkpt>
      <trkpt lat="34.079693" lon="110.122793">
        <time>2026-07-06T11:23:20Z</time>
      </trkpt>
      <trkpt lat="34.079702" lon="110.122637">
        <time>2026-07-06T11:23:25Z</time>
      </trkpt>
      <trkpt lat="34.079702" lon="110.122474">
        <time>2026-07-06T11:23:30Z</time>
      </trkpt>
      <trkpt lat="34.079704" lon="110.122314">
        <time>2026-07-06T11:23:35Z</time>
      </trkpt>
      <trkpt lat="34.079715" lon="110.122164">
        <time>2026-07-06T11:23:40Z</time>
      </trkpt>
      <trkpt lat="34.079724" lon="110.122003">
        <time>2026-07-06T11:23:45Z</time>
      </trkpt>
      <trkpt lat="34.079702" lon="110.121836">
        <time>2026-07-06T11:23:50Z</time>
      </trkpt>
      <trkpt lat="34.079682" lon="110.121682">
        <time>2026-07-06T11:23:55Z</time>
      </trkpt>
      <trkpt lat="34.079683" lon="110.121517">
        <time>2026-07-06T11:24:00Z</time>
      </trkpt>
      <trkpt lat="34.079685" lon="110.12138">
        <time>2026-07-06T11:24:05Z</time>
      </trkpt>
      <trkpt lat="34.079676" lon="110.121221">
        <time>2026-07-06T11:24:10Z</time>
      </trkpt>
      <trkpt lat="34.079691" lon="110.121058">
        <time>2026-07-06T11:24:15Z</time>
      </trkpt>
      <trkpt lat="34.079697" lon="110.1209">
        <time>2026-07-06T11:24:20Z</time>
      </trkpt>
      <trkpt lat="34.079692" lon="110.120729">
        <time>2026-07-06T11:24:25Z</time>
      </trkpt>
      <trkpt lat="34.079687" lon="110.120572">
        <time>2026-07-06T11:24:30Z</time>
      </trkpt>
      <trkpt lat="34.079677" lon="110.120418">
        <time>2026-07-06T11:24:35Z</time>
      </trkpt>
      <trkpt lat="34.079673" lon="110.120251">
        <time>2026-07-06T11:24:40Z</time>
      </trkpt>
      <trkpt lat="34.079673" lon="110.120083">
        <time>2026-07-06T11:24:45Z</time>
      </trkpt>
      <trkpt lat="34.079685" lon="110.119921">
        <time>2026-07-06T11:24:50Z</time>
      </trkpt>
      <trkpt lat="34.079687" lon="110.119773">
        <time>2026-07-06T11:24:55Z</time>
      </trkpt>
      <trkpt lat="34.079687" lon="110.119629">
        <time>2026-07-06T11:25:00Z</time>
      </trkpt>
      <trkpt lat="34.079676" lon="110.119483">
        <time>2026-07-06T11:25:05Z</time>
      </trkpt>
      <trkpt lat="34.07968" lon="110.119324">
        <time>2026-07-06T11:25:10Z</time>
      </trkpt>
      <trkpt lat="34.079686" lon="110.119168">
        <time>2026-07-06T11:25:15Z</time>
      </trkpt>
      <trkpt lat="34.079686" lon="110.119014">
        <time>2026-07-06T11:25:20Z</time>
      </trkpt>
      <trkpt lat="34.079682" lon="110.118849">
        <time>2026-07-06T11:25:25Z</time>
      </trkpt>
      <trkpt lat="34.079677" lon="110.118705">
        <time>2026-07-06T11:25:30Z</time>
      </trkpt>
      <trkpt lat="34.07968" lon="110.118569">
        <time>2026-07-06T11:25:35Z</time>
      </trkpt>
      <trkpt lat="34.079674" lon="110.118419">
        <time>2026-07-06T11:25:40Z</time>
      </trkpt>
      <trkpt lat="34.079665" lon="110.118288">
        <time>2026-07-06T11:25:45Z</time>
      </trkpt>
      <trkpt lat="34.079673" lon="110.118145">
        <time>2026-07-06T11:25:50Z</time>
      </trkpt>
      <trkpt lat="34.079687" lon="110.118028">
        <time>2026-07-06T11:25:55Z</time>
      </trkpt>
      <trkpt lat="34.079689" lon="110.117896">
        <time>2026-07-06T11:26:00Z</time>
      </trkpt>
      <trkpt lat="34.079689" lon="110.117754">
        <time>2026-07-06T11:26:05Z</time>
      </trkpt>
      <trkpt lat="34.07968" lon="110.117599">
        <time>2026-07-06T11:26:10Z</time>
      </trkpt>
      <trkpt lat="34.079666" lon="110.117437">
        <time>2026-07-06T11:26:15Z</time>
      </trkpt>
      <trkpt lat="34.079659" lon="110.117288">
        <time>2026-07-06T11:26:20Z</time>
      </trkpt>
      <trkpt lat="34.079666" lon="110.117139">
        <time>2026-07-06T11:26:25Z</time>
      </trkpt>
      <trkpt lat="34.07968" lon="110.116991">
        <time>2026-07-06T11:26:30Z</time>
      </trkpt>
      <trkpt lat="34.079681" lon="110.116855">
        <time>2026-07-06T11:26:35Z</time>
      </trkpt>
      <trkpt lat="34.079668" lon="110.116707">
        <time>2026-07-06T11:26:40Z</time>
      </trkpt>
      <trkpt lat="34.079641" lon="110.116556">
        <time>2026-07-06T11:26:45Z</time>
      </trkpt>
      <trkpt lat="34.079618" lon="110.116407">
        <time>2026-07-06T11:26:50Z</time>
      </trkpt>
      <trkpt lat="34.079612" lon="110.116281">
        <time>2026-07-06T11:26:55Z</time>
      </trkpt>
      <trkpt lat="34.079601" lon="110.116139">
        <time>2026-07-06T11:27:00Z</time>
      </trkpt>
      <trkpt lat="34.079569" lon="110.115989">
        <time>2026-07-06T11:27:05Z</time>
      </trkpt>
      <trkpt lat="34.079521" lon="110.11584">
        <time>2026-07-06T11:27:10Z</time>
      </trkpt>
      <trkpt lat="34.079476" lon="110.115685">
        <time>2026-07-06T11:27:15Z</time>
      </trkpt>
      <trkpt lat="34.079435" lon="110.115536">
        <time>2026-07-06T11:27:20Z</time>
      </trkpt>
      <trkpt lat="34.0794" lon="110.115405">
        <time>2026-07-06T11:27:25Z</time>
      </trkpt>
      <trkpt lat="34.079369" lon="110.115262">
        <time>2026-07-06T11:27:30Z</time>
      </trkpt>
      <trkpt lat="34.079333" lon="110.115127">
        <time>2026-07-06T11:27:35Z</time>
      </trkpt>
      <trkpt lat="34.079298" lon="110.114988">
        <time>2026-07-06T11:27:40Z</time>
      </trkpt>
      <trkpt lat="34.079234" lon="110.114848">
        <time>2026-07-06T11:27:45Z</time>
      </trkpt>
      <trkpt lat="34.079184" lon="110.11471">
        <time>2026-07-06T11:27:50Z</time>
      </trkpt>
      <trkpt lat="34.079136" lon="110.114571">
        <time>2026-07-06T11:27:55Z</time>
      </trkpt>
      <trkpt lat="34.079074" lon="110.114433">
        <time>2026-07-06T11:28:00Z</time>
      </trkpt>
      <trkpt lat="34.079045" lon="110.114303">
        <time>2026-07-06T11:28:05Z</time>
      </trkpt>
      <trkpt lat="34.079017" lon="110.114176">
        <time>2026-07-06T11:28:10Z</time>
      </trkpt>
      <trkpt lat="34.078972" lon="110.114056">
        <time>2026-07-06T11:28:15Z</time>
      </trkpt>
      <trkpt lat="34.078912" lon="110.113935">
        <time>2026-07-06T11:28:20Z</time>
      </trkpt>
      <trkpt lat="34.078861" lon="110.113818">
        <time>2026-07-06T11:28:25Z</time>
      </trkpt>
      <trkpt lat="34.078824" lon="110.113742">
        <time>2026-07-06T11:28:30Z</time>
      </trkpt>
      <trkpt lat="34.078798" lon="110.113675">
        <time>2026-07-06T11:28:35Z</time>
      </trkpt>
      <trkpt lat="34.078759" lon="110.113616">
        <time>2026-07-06T11:28:40Z</time>
      </trkpt>
      <trkpt lat="34.078721" lon="110.113561">
        <time>2026-07-06T11:28:45Z</time>
      </trkpt>
      <trkpt lat="34.078686" lon="110.113481">
        <time>2026-07-06T11:28:50Z</time>
      </trkpt>
      <trkpt lat="34.07867" lon="110.113403">
        <time>2026-07-06T11:28:55Z</time>
      </trkpt>
      <trkpt lat="34.078645" lon="110.113341">
        <time>2026-07-06T11:29:00Z</time>
      </trkpt>
      <trkpt lat="34.078609" lon="110.113291">
        <time>2026-07-06T11:29:05Z</time>
      </trkpt>
      <trkpt lat="34.078556" lon="110.113234">
        <time>2026-07-06T11:29:10Z</time>
      </trkpt>
      <trkpt lat="34.078473" lon="110.11311">
        <time>2026-07-06T11:29:15Z</time>
      </trkpt>
      <trkpt lat="34.078381" lon="110.11298">
        <time>2026-07-06T11:29:20Z</time>
      </trkpt>
      <trkpt lat="34.078313" lon="110.11286">
        <time>2026-07-06T11:29:25Z</time>
      </trkpt>
      <trkpt lat="34.07824" lon="110.112746">
        <time>2026-07-06T11:29:30Z</time>
      </trkpt>
      <trkpt lat="34.078158" lon="110.112623">
        <time>2026-07-06T11:29:35Z</time>
      </trkpt>
      <trkpt lat="34.078074" lon="110.112487">
        <time>2026-07-06T11:29:40Z</time>
      </trkpt>
      <trkpt lat="34.077983" lon="110.112367">
        <time>2026-07-06T11:29:45Z</time>
      </trkpt>
      <trkpt lat="34.077903" lon="110.11225">
        <time>2026-07-06T11:29:50Z</time>
      </trkpt>
      <trkpt lat="34.077859" lon="110.112121">
        <time>2026-07-06T11:29:55Z</time>
      </trkpt>
      <trkpt lat="34.077825" lon="110.111997">
        <time>2026-07-06T11:30:00Z</time>
      </trkpt>
      <trkpt lat="34.077758" lon="110.111882">
        <time>2026-07-06T11:30:05Z</time>
      </trkpt>
      <trkpt lat="34.077688" lon="110.111782">
        <time>2026-07-06T11:30:10Z</time>
      </trkpt>
      <trkpt lat="34.077614" lon="110.111676">
        <time>2026-07-06T11:30:15Z</time>
      </trkpt>
      <trkpt lat="34.077554" lon="110.111577">
        <time>2026-07-06T11:30:20Z</time>
      </trkpt>
      <trkpt lat="34.077534" lon="110.111503">
        <time>2026-07-06T11:30:25Z</time>
      </trkpt>
      <trkpt lat="34.0775" lon="110.111443">
        <time>2026-07-06T11:30:30Z</time>
      </trkpt>
      <trkpt lat="34.077457" lon="110.111384">
        <time>2026-07-06T11:30:35Z</time>
      </trkpt>
      <trkpt lat="34.077415" lon="110.111327">
        <time>2026-07-06T11:30:40Z</time>
      </trkpt>
      <trkpt lat="34.077375" lon="110.111267">
        <time>2026-07-06T11:30:45Z</time>
      </trkpt>
      <trkpt lat="34.077338" lon="110.111208">
        <time>2026-07-06T11:30:50Z</time>
      </trkpt>
      <trkpt lat="34.077302" lon="110.11115">
        <time>2026-07-06T11:30:55Z</time>
      </trkpt>
      <trkpt lat="34.077274" lon="110.111082">
        <time>2026-07-06T11:31:00Z</time>
      </trkpt>
      <trkpt lat="34.077235" lon="110.111017">
        <time>2026-07-06T11:31:05Z</time>
      </trkpt>
      <trkpt lat="34.0772" lon="110.110951">
        <time>2026-07-06T11:31:10Z</time>
      </trkpt>
      <trkpt lat="34.077158" lon="110.110899">
        <time>2026-07-06T11:31:15Z</time>
      </trkpt>
      <trkpt lat="34.077121" lon="110.110835">
        <time>2026-07-06T11:31:20Z</time>
      </trkpt>
      <trkpt lat="34.077097" lon="110.110779">
        <time>2026-07-06T11:31:25Z</time>
      </trkpt>
      <trkpt lat="34.077064" lon="110.110715">
        <time>2026-07-06T11:31:30Z</time>
      </trkpt>
      <trkpt lat="34.077031" lon="110.110651">
        <time>2026-07-06T11:31:35Z</time>
      </trkpt>
      <trkpt lat="34.077004" lon="110.110599">
        <time>2026-07-06T11:31:40Z</time>
      </trkpt>
      <trkpt lat="34.076997" lon="110.11056">
        <time>2026-07-06T11:31:45Z</time>
      </trkpt>
      <trkpt lat="34.077003" lon="110.110538">
        <time>2026-07-06T11:31:50Z</time>
      </trkpt>
      <trkpt lat="34.077011" lon="110.110521">
        <time>2026-07-06T11:31:55Z</time>
      </trkpt>
      <trkpt lat="34.077022" lon="110.110507">
        <time>2026-07-06T11:32:00Z</time>
      </trkpt>
      <trkpt lat="34.077035" lon="110.110486">
        <time>2026-07-06T11:32:05Z</time>
      </trkpt>
      <trkpt lat="34.077059" lon="110.110461">
        <time>2026-07-06T11:32:12Z</time>
      </trkpt>
    </trkseg>
  </trk>
</gpx>