<?xml version="1.0" encoding="UTF-8"?>
<gpx xmlns="http://www.topografix.com/GPX/1/1" xmlns:gpxtpx="http://www.garmin.com/xmlschemas/TrackPointExtension/v1" xmlns:xsi="http://www.w3.org/2001/XMLSchema-instance" xsi:schemaLocation="http://www.topografix.com/GPX/1/1 http://www.topografix.com/GPX/1/1/gpx.xsd" version="1.1" creator="gpx.py -- https://github.com/tkrajina/gpxpy">
  <trk>
    <name>gpx from joyrun</name>
    <trkseg>
      <trkpt lat="34.081982" lon="110.12391">
        <time>2026-07-17T13:44:51Z</time>
      </trkpt>
      <trkpt lat="34.082039" lon="110.123893">
        <time>2026-07-17T13:44:56Z</time>
      </trkpt>
      <trkpt lat="34.082162" lon="110.123853">
        <time>2026-07-17T13:45:01Z</time>
      </trkpt>
      <trkpt lat="34.082291" lon="110.123812">
        <time>2026-07-17T13:45:06Z</time>
      </trkpt>
      <trkpt lat="34.082421" lon="110.12377">
        <time>2026-07-17T13:45:11Z</time>
      </trkpt>
      <trkpt lat="34.082559" lon="110.123726">
        <time>2026-07-17T13:45:16Z</time>
      </trkpt>
      <trkpt lat="34.082704" lon="110.12368">
        <time>2026-07-17T13:45:21Z</time>
      </trkpt>
      <trkpt lat="34.082834" lon="110.123622">
        <time>2026-07-17T13:45:26Z</time>
      </trkpt>
      <trkpt lat="34.082935" lon="110.123506">
        <time>2026-07-17T13:45:31Z</time>
      </trkpt>
      <trkpt lat="34.082987" lon="110.12335">
        <time>2026-07-17T13:45:36Z</time>
      </trkpt>
      <trkpt lat="34.082986" lon="110.123213">
        <time>2026-07-17T13:45:41Z</time>
      </trkpt>
      <trkpt lat="34.082944" lon="110.12308">
        <time>2026-07-17T13:45:46Z</time>
      </trkpt>
      <trkpt lat="34.08286" lon="110.122969">
        <time>2026-07-17T13:45:51Z</time>
      </trkpt>
      <trkpt lat="34.08273" lon="110.122899">
        <time>2026-07-17T13:45:56Z</time>
      </trkpt>
      <trkpt lat="34.08259" lon="110.122901">
        <time>2026-07-17T13:46:01Z</time>
      </trkpt>
      <trkpt lat="34.082507" lon="110.122928">
        <time>2026-07-17T13:46:06Z</time>
      </trkpt>
      <trkpt lat="34.082461" lon="110.122943">
        <time>2026-07-17T13:46:11Z</time>
      </trkpt>
      <trkpt lat="34.08242" lon="110.122956">
        <time>2026-07-17T13:46:16Z</time>
      </trkpt>
      <trkpt lat="34.082377" lon="110.12297">
        <time>2026-07-17T13:46:21Z</time>
      </trkpt>
      <trkpt lat="34.082325" lon="110.122986">
        <time>2026-07-17T13:46:26Z</time>
      </trkpt>
      <trkpt lat="34.082226" lon="110.123018">
        <time>2026-07-17T13:46:31Z</time>
      </trkpt>
      <trkpt lat="34.082098" lon="110.123059">
        <time>2026-07-17T13:46:36Z</time>
      </trkpt>
      <trkpt lat="34.08196" lon="110.123103">
        <time>2026-07-17T13:46:41Z</time>
      </trkpt>
      <trkpt lat="34.081845" lon="110.12314">
        <time>2026-07-17T13:46:46Z</time>
      </trkpt>
      <trkpt lat="34.081724" lon="110.123208">
        <time>2026-07-17T13:46:51Z</time>
      </trkpt>
      <trkpt lat="34.081638" lon="110.123323">
        <time>2026-07-17T13:46:56Z</time>
      </trkpt>
      <trkpt lat="34.081595" lon="110.123476">
        <time>2026-07-17T13:47:01Z</time>
      </trkpt>
      <trkpt lat="34.081605" lon="110.12363">
        <time>2026-07-17T13:47:06Z</time>
      </trkpt>
      <trkpt lat="34.081669" lon="110.123776">
        <time>2026-07-17T13:47:11Z</time>
      </trkpt>
      <trkpt lat="34.081787" lon="110.123883">
        <time>2026-07-17T13:47:16Z</time>
      </trkpt>
      <trkpt lat="34.081919" lon="110.123917">
        <time>2026-07-17T13:47:21Z</time>
      </trkpt>
      <trkpt lat="34.08204" lon="110.123892">
        <time>2026-07-17T13:47:26Z</time>
      </trkpt>
      <trkpt lat="34.082171" lon="110.12385">
        <time>2026-07-17T13:47:31Z</time>
      </trkpt>
      <trkpt lat="34.082307" lon="110.123807">
        <time>2026-07-17T13:47:36Z</time>
      </trkpt>
      <trkpt lat="34.082445" lon="110.123762">
        <time>2026-07-17T13:47:41Z</time>
      </trkpt>
      <trkpt lat="34.082581" lon="110.123719">
        <time>2026-07-17T13:47:46Z</time>
      </trkpt>
      <trkpt lat="34.082714" lon="110.123677">
        <time>2026-07-17T13:47:51Z</time>
      </trkpt>
      <trkpt lat="34.08284" lon="110.123616">
        <time>2026-07-17T13:47:56Z</time>
      </trkpt>
      <trkpt lat="34.08294" lon="110.123497">
        <time>2026-07-17T13:48:01Z</time>
      </trkpt>
      <trkpt lat="34.082988" lon="110.123342">
        <time>2026-07-17T13:48:06Z</time>
      </trkpt>
      <trkpt lat="34.082982" lon="110.123192">
        <time>2026-07-17T13:48:11Z</time>
      </trkpt>
      <trkpt lat="34.082921" lon="110.123041">
        <time>2026-07-17T13:48:16Z</time>
      </trkpt>
      <trkpt lat="34.082814" lon="110.122934">
        <time>2026-07-17T13:48:21Z</time>
      </trkpt>
      <trkpt lat="34.082689" lon="110.122892">
        <time>2026-07-17T13:48:26Z</time>
      </trkpt>
      <trkpt lat="34.082569" lon="110.122908">
        <time>2026-07-17T13:48:31Z</time>
      </trkpt>
      <trkpt lat="34.082448" lon="110.122947">
        <time>2026-07-17T13:48:36Z</time>
      </trkpt>
      <trkpt lat="34.082344" lon="110.12298">
        <time>2026-07-17T13:48:41Z</time>
      </trkpt>
      <trkpt lat="34.082247" lon="110.123011">
        <time>2026-07-17T13:48:46Z</time>
      </trkpt>
      <trkpt lat="34.082139" lon="110.123046">
        <time>2026-07-17T13:48:51Z</time>
      </trkpt>
      <trkpt lat="34.08202" lon="110.123084">
        <time>2026-07-17T13:48:56Z</time>
      </trkpt>
      <trkpt lat="34.081906" lon="110.12312">
        <time>2026-07-17T13:49:01Z</time>
      </trkpt>
      <trkpt lat="34.081789" lon="110.123162">
        <time>2026-07-17T13:49:06Z</time>
      </trkpt>
      <trkpt lat="34.081681" lon="110.123254">
        <time>2026-07-17T13:49:11Z</time>
      </trkpt>
      <trkpt lat="34.081615" lon="110.123382">
        <time>2026-07-17T13:49:16Z</time>
      </trkpt>
      <trkpt lat="34.081593" lon="110.12352">
        <time>2026-07-17T13:49:21Z</time>
      </trkpt>
      <trkpt lat="34.081607" lon="110.123635">
        <time>2026-07-17T13:49:26Z</time>
      </trkpt>
      <trkpt lat="34.08163" lon="110.123704">
        <time>2026-07-17T13:49:31Z</time>
      </trkpt>
      <trkpt lat="34.081662" lon="110.123765">
        <time>2026-07-17T13:49:36Z</time>
      </trkpt>
      <trkpt lat="34.081704" lon="110.123819">
        <time>2026-07-17T13:49:41Z</time>
      </trkpt>
      <trkpt lat="34.081758" lon="110.123865">
        <time>2026-07-17T13:49:46Z</time>
      </trkpt>
      <trkpt lat="34.081815" lon="110.123896">
        <time>2026-07-17T13:49:51Z</time>
      </trkpt>
      <trkpt lat="34.081871" lon="110.123913">
        <time>2026-07-17T13:49:56Z</time>
      </trkpt>
      <trkpt lat="34.081929" lon="110.123917">
        <time>2026-07-17T13:50:01Z</time>
      </trkpt>
      <trkpt lat="34.08199" lon="110.123908">
        <time>2026-07-17T13:50:06Z</time>
      </trkpt>
      <trkpt lat="34.082054" lon="110.123887">
        <time>2026-07-17T13:50:11Z</time>
      </trkpt>
      <trkpt lat="34.082169" lon="110.12385">
        <time>2026-07-17T13:50:16Z</time>
      </trkpt>
      <trkpt lat="34.082301" lon="110.123808">
        <time>2026-07-17T13:50:21Z</time>
      </trkpt>
      <trkpt lat="34.082435" lon="110.123765">
        <time>2026-07-17T13:50:26Z</time>
      </trkpt>
      <trkpt lat="34.082529" lon="110.123736">
        <time>2026-07-17T13:50:31Z</time>
      </trkpt>
      <trkpt lat="34.08253" lon="110.123735">
        <time>2026-07-17T13:50:36Z</time>
      </trkpt>
      <trkpt lat="34.082573" lon="110.123721">
        <time>2026-07-17T13:50:41Z</time>
      </trkpt>
      <trkpt lat="34.082634" lon="110.123702">
        <time>2026-07-17T13:50:46Z</time>
      </trkpt>
      <trkpt lat="34.082699" lon="110.123681">
        <time>2026-07-17T13:50:51Z</time>
      </trkpt>
      <trkpt lat="34.082758" lon="110.123662">
        <time>2026-07-17T13:50:56Z</time>
      </trkpt>
      <trkpt lat="34.082816" lon="110.123634">
        <time>2026-07-17T13:51:01Z</time>
      </trkpt>
      <trkpt lat="34.082916" lon="110.123536">
        <time>2026-07-17T13:51:06Z</time>
      </trkpt>
      <trkpt lat="34.082983" lon="110.123375">
        <time>2026-07-17T13:51:11Z</time>
      </trkpt>
      <trkpt lat="34.082982" lon="110.123193">
        <time>2026-07-17T13:51:16Z</time>
      </trkpt>
      <trkpt lat="34.082913" lon="110.123029">
        <time>2026-07-17T13:51:21Z</time>
      </trkpt>
      <trkpt lat="34.082794" lon="110.122923">
        <time>2026-07-17T13:51:26Z</time>
      </trkpt>
      <trkpt lat="34.082652" lon="110.122891">
        <time>2026-07-17T13:51:31Z</time>
      </trkpt>
      <trkpt lat="34.082508" lon="110.122928">
        <time>2026-07-17T13:51:36Z</time>
      </trkpt>
      <trkpt lat="34.082362" lon="110.122974">
        <time>2026-07-17T13:51:41Z</time>
      </trkpt>
      <trkpt lat="34.082211" lon="110.123023">
        <time>2026-07-17T13:51:46Z</time>
      </trkpt>
      <trkpt lat="34.08207" lon="110.123068">
        <time>2026-07-17T13:51:51Z</time>
      </trkpt>
      <trkpt lat="34.081946" lon="110.123108">
        <time>2026-07-17T13:51:56Z</time>
      </trkpt>
      <trkpt lat="34.081832" lon="110.123144">
        <time>2026-07-17T13:52:01Z</time>
      </trkpt>
      <trkpt lat="34.081773" lon="110.123171">
        <time>2026-07-17T13:52:06Z</time>
      </trkpt>
      <trkpt lat="34.081723" lon="110.123209">
        <time>2026-07-17T13:52:11Z</time>
      </trkpt>
      <trkpt lat="34.081684" lon="110.12325">
        <time>2026-07-17T13:52:16Z</time>
      </trkpt>
      <trkpt lat="34.081651" lon="110.123299">
        <time>2026-07-17T13:52:21Z</time>
      </trkpt>
      <trkpt lat="34.081624" lon="110.123355">
        <time>2026-07-17T13:52:26Z</time>
      </trkpt>
      <trkpt lat="34.081606" lon="110.123415">
        <time>2026-07-17T13:52:31Z</time>
      </trkpt>
      <trkpt lat="34.081595" lon="110.123483">
        <time>2026-07-17T13:52:36Z</time>
      </trkpt>
      <trkpt lat="34.081594" lon="110.123549">
        <time>2026-07-17T13:52:41Z</time>
      </trkpt>
      <trkpt lat="34.081603" lon="110.123617">
        <time>2026-07-17T13:52:46Z</time>
      </trkpt>
      <trkpt lat="34.081622" lon="110.123684">
        <time>2026-07-17T13:52:51Z</time>
      </trkpt>
      <trkpt lat="34.081649" lon="110.123744">
        <time>2026-07-17T13:52:56Z</time>
      </trkpt>
      <trkpt lat="34.081687" lon="110.1238">
        <time>2026-07-17T13:53:01Z</time>
      </trkpt>
      <trkpt lat="34.08173" lon="110.123844">
        <time>2026-07-17T13:53:06Z</time>
      </trkpt>
      <trkpt lat="34.081809" lon="110.123894">
        <time>2026-07-17T13:53:11Z</time>
      </trkpt>
      <trkpt lat="34.081932" lon="110.123916">
        <time>2026-07-17T13:53:16Z</time>
      </trkpt>
      <trkpt lat="34.082059" lon="110.123886">
        <time>2026-07-17T13:53:21Z</time>
      </trkpt>
      <trkpt lat="34.082175" lon="110.123849">
        <time>2026-07-17T13:53:26Z</time>
      </trkpt>
      <trkpt lat="34.082303" lon="110.123808">
        <time>2026-07-17T13:53:31Z</time>
      </trkpt>
      <trkpt lat="34.082439" lon="110.123764">
        <time>2026-07-17T13:53:36Z</time>
      </trkpt>
      <trkpt lat="34.082573" lon="110.123721">
        <time>2026-07-17T13:53:41Z</time>
      </trkpt>
      <trkpt lat="34.082704" lon="110.123679">
        <time>2026-07-17T13:53:46Z</time>
      </trkpt>
      <trkpt lat="34.082836" lon="110.12362">
        <time>2026-07-17T13:53:51Z</time>
      </trkpt>
      <trkpt lat="34.082936" lon="110.123503">
        <time>2026-07-17T13:53:56Z</time>
      </trkpt>
      <trkpt lat="34.082985" lon="110.123361">
        <time>2026-07-17T13:54:01Z</time>
      </trkpt>
      <trkpt lat="34.082986" lon="110.123212">
        <time>2026-07-17T13:54:06Z</time>
      </trkpt>
      <trkpt lat="34.082933" lon="110.12306">
        <time>2026-07-17T13:54:11Z</time>
      </trkpt>
      <trkpt lat="34.082839" lon="110.122951">
        <time>2026-07-17T13:54:16Z</time>
      </trkpt>
      <trkpt lat="34.082724" lon="110.122897">
        <time>2026-07-17T13:54:21Z</time>
      </trkpt>
      <trkpt lat="34.082601" lon="110.122898">
        <time>2026-07-17T13:54:26Z</time>
      </trkpt>
      <trkpt lat="34.082476" lon="110.122938">
        <time>2026-07-17T13:54:31Z</time>
      </trkpt>
      <trkpt lat="34.082352" lon="110.122977">
        <time>2026-07-17T13:54:36Z</time>
      </trkpt>
      <trkpt lat="34.082231" lon="110.123016">
        <time>2026-07-17T13:54:41Z</time>
      </trkpt>
      <trkpt lat="34.082123" lon="110.123051">
        <time>2026-07-17T13:54:46Z</time>
      </trkpt>
      <trkpt lat="34.082031" lon="110.12308">
        <time>2026-07-17T13:54:51Z</time>
      </trkpt>
      <trkpt lat="34.08197" lon="110.123099">
        <time>2026-07-17T13:54:56Z</time>
      </trkpt>
      <trkpt lat="34.081915" lon="110.123117">
        <time>2026-07-17T13:55:01Z</time>
      </trkpt>
      <trkpt lat="34.081861" lon="110.123135">
        <time>2026-07-17T13:55:06Z</time>
      </trkpt>
      <trkpt lat="34.081813" lon="110.123151">
        <time>2026-07-17T13:55:13Z</time>
      </trkpt>
    </trkseg>
  </trk>
</gpx>