<?xml version="1.0" encoding="UTF-8"?>
<gpx xmlns="http://www.topografix.com/GPX/1/1" xmlns:gpxtpx="http://www.garmin.com/xmlschemas/TrackPointExtension/v1" xmlns:xsi="http://www.w3.org/2001/XMLSchema-instance" xsi:schemaLocation="http://www.topografix.com/GPX/1/1 http://www.topografix.com/GPX/1/1/gpx.xsd" version="1.1" creator="gpx.py -- https://github.com/tkrajina/gpxpy">
  <trk>
    <name>gpx from joyrun</name>
    <trkseg>
      <trkpt lat="34.080369" lon="110.128631">
        <time>2026-07-20T08:29:22Z</time>
      </trkpt>
      <trkpt lat="34.080406" lon="110.128677">
        <time>2026-07-20T08:29:27Z</time>
      </trkpt>
      <trkpt lat="34.080525" lon="110.128867">
        <time>2026-07-20T08:29:32Z</time>
      </trkpt>
      <trkpt lat="34.08065" lon="110.12908">
        <time>2026-07-20T08:29:37Z</time>
      </trkpt>
      <trkpt lat="34.080782" lon="110.12929">
        <time>2026-07-20T08:29:42Z</time>
      </trkpt>
      <trkpt lat="34.08091" lon="110.129481">
        <time>2026-07-20T08:29:47Z</time>
      </trkpt>
      <trkpt lat="34.081033" lon="110.129661">
        <time>2026-07-20T08:29:52Z</time>
      </trkpt>
      <trkpt lat="34.081146" lon="110.129837">
        <time>2026-07-20T08:29:57Z</time>
      </trkpt>
      <trkpt lat="34.08126" lon="110.130002">
        <time>2026-07-20T08:30:02Z</time>
      </trkpt>
      <trkpt lat="34.081384" lon="110.130171">
        <time>2026-07-20T08:30:07Z</time>
      </trkpt>
      <trkpt lat="34.081506" lon="110.130347">
        <time>2026-07-20T08:30:12Z</time>
      </trkpt>
      <trkpt lat="34.081632" lon="110.130536">
        <time>2026-07-20T08:30:17Z</time>
      </trkpt>
      <trkpt lat="34.081757" lon="110.130721">
        <time>2026-07-20T08:30:22Z</time>
      </trkpt>
      <trkpt lat="34.081869" lon="110.130904">
        <time>2026-07-20T08:30:27Z</time>
      </trkpt>
      <trkpt lat="34.081986" lon="110.131086">
        <time>2026-07-20T08:30:32Z</time>
      </trkpt>
      <trkpt lat="34.082108" lon="110.131261">
        <time>2026-07-20T08:30:37Z</time>
      </trkpt>
      <trkpt lat="34.082229" lon="110.131441">
        <time>2026-07-20T08:30:42Z</time>
      </trkpt>
      <trkpt lat="34.082347" lon="110.131615">
        <time>2026-07-20T08:30:47Z</time>
      </trkpt>
      <trkpt lat="34.082466" lon="110.131781">
        <time>2026-07-20T08:30:52Z</time>
      </trkpt>
      <trkpt lat="34.082576" lon="110.131941">
        <time>2026-07-20T08:30:57Z</time>
      </trkpt>
      <trkpt lat="34.082678" lon="110.132108">
        <time>2026-07-20T08:31:02Z</time>
      </trkpt>
      <trkpt lat="34.082787" lon="110.132277">
        <time>2026-07-20T08:31:07Z</time>
      </trkpt>
      <trkpt lat="34.082898" lon="110.132444">
        <time>2026-07-20T08:31:12Z</time>
      </trkpt>
      <trkpt lat="34.082955" lon="110.132543">
        <time>2026-07-20T08:31:17Z</time>
      </trkpt>
      <trkpt lat="34.082953" lon="110.132599">
        <time>2026-07-20T08:31:22Z</time>
      </trkpt>
      <trkpt lat="34.082963" lon="110.132632">
        <time>2026-07-20T08:31:27Z</time>
      </trkpt>
      <trkpt lat="34.083013" lon="110.132689">
        <time>2026-07-20T08:31:32Z</time>
      </trkpt>
      <trkpt lat="34.083063" lon="110.13275">
        <time>2026-07-20T08:31:37Z</time>
      </trkpt>
      <trkpt lat="34.08311" lon="110.132806">
        <time>2026-07-20T08:31:42Z</time>
      </trkpt>
      <trkpt lat="34.08317" lon="110.132877">
        <time>2026-07-20T08:31:47Z</time>
      </trkpt>
      <trkpt lat="34.083273" lon="110.133023">
        <time>2026-07-20T08:31:52Z</time>
      </trkpt>
      <trkpt lat="34.083376" lon="110.133178">
        <time>2026-07-20T08:31:57Z</time>
      </trkpt>
      <trkpt lat="34.083476" lon="110.133327">
        <time>2026-07-20T08:32:02Z</time>
      </trkpt>
      <trkpt lat="34.083583" lon="110.133473">
        <time>2026-07-20T08:32:07Z</time>
      </trkpt>
      <trkpt lat="34.083691" lon="110.133617">
        <time>2026-07-20T08:32:12Z</time>
      </trkpt>
      <trkpt lat="34.083791" lon="110.13376">
        <time>2026-07-20T08:32:17Z</time>
      </trkpt>
      <trkpt lat="34.083882" lon="110.133914">
        <time>2026-07-20T08:32:22Z</time>
      </trkpt>
      <trkpt lat="34.083981" lon="110.134071">
        <time>2026-07-20T08:32:27Z</time>
      </trkpt>
      <trkpt lat="34.084077" lon="110.134228">
        <time>2026-07-20T08:32:32Z</time>
      </trkpt>
      <trkpt lat="34.084174" lon="110.134378">
        <time>2026-07-20T08:32:37Z</time>
      </trkpt>
      <trkpt lat="34.08426" lon="110.134521">
        <time>2026-07-20T08:32:42Z</time>
      </trkpt>
      <trkpt lat="34.084355" lon="110.134666">
        <time>2026-07-20T08:32:47Z</time>
      </trkpt>
      <trkpt lat="34.084446" lon="110.134811">
        <time>2026-07-20T08:32:52Z</time>
      </trkpt>
      <trkpt lat="34.08454" lon="110.134966">
        <time>2026-07-20T08:32:57Z</time>
      </trkpt>
      <trkpt lat="34.08464" lon="110.135124">
        <time>2026-07-20T08:33:02Z</time>
      </trkpt>
      <trkpt lat="34.084734" lon="110.135284">
        <time>2026-07-20T08:33:07Z</time>
      </trkpt>
      <trkpt lat="34.084831" lon="110.135441">
        <time>2026-07-20T08:33:12Z</time>
      </trkpt>
      <trkpt lat="34.084923" lon="110.13559">
        <time>2026-07-20T08:33:17Z</time>
      </trkpt>
      <trkpt lat="34.085007" lon="110.135738">
        <time>2026-07-20T08:33:22Z</time>
      </trkpt>
      <trkpt lat="34.085084" lon="110.135891">
        <time>2026-07-20T08:33:27Z</time>
      </trkpt>
      <trkpt lat="34.085147" lon="110.135978">
        <time>2026-07-20T08:33:32Z</time>
      </trkpt>
      <trkpt lat="34.0852" lon="110.136031">
        <time>2026-07-20T08:33:37Z</time>
      </trkpt>
      <trkpt lat="34.085247" lon="110.136085">
        <time>2026-07-20T08:33:42Z</time>
      </trkpt>
      <trkpt lat="34.085286" lon="110.136154">
        <time>2026-07-20T08:33:47Z</time>
      </trkpt>
      <trkpt lat="34.08532" lon="110.136221">
        <time>2026-07-20T08:33:52Z</time>
      </trkpt>
      <trkpt lat="34.085365" lon="110.13629">
        <time>2026-07-20T08:33:57Z</time>
      </trkpt>
      <trkpt lat="34.085399" lon="110.136345">
        <time>2026-07-20T08:34:02Z</time>
      </trkpt>
      <trkpt lat="34.085432" lon="110.136406">
        <time>2026-07-20T08:34:07Z</time>
      </trkpt>
      <trkpt lat="34.085469" lon="110.136475">
        <time>2026-07-20T08:34:12Z</time>
      </trkpt>
      <trkpt lat="34.085505" lon="110.136545">
        <time>2026-07-20T08:34:17Z</time>
      </trkpt>
      <trkpt lat="34.085537" lon="110.136606">
        <time>2026-07-20T08:34:22Z</time>
      </trkpt>
      <trkpt lat="34.085573" lon="110.136672">
        <time>2026-07-20T08:34:27Z</time>
      </trkpt>
      <trkpt lat="34.085674" lon="110.136798">
        <time>2026-07-20T08:34:32Z</time>
      </trkpt>
      <trkpt lat="34.085785" lon="110.136976">
        <time>2026-07-20T08:34:37Z</time>
      </trkpt>
      <trkpt lat="34.08589" lon="110.137158">
        <time>2026-07-20T08:34:42Z</time>
      </trkpt>
      <trkpt lat="34.086001" lon="110.137334">
        <time>2026-07-20T08:34:47Z</time>
      </trkpt>
      <trkpt lat="34.086111" lon="110.13752">
        <time>2026-07-20T08:34:52Z</time>
      </trkpt>
      <trkpt lat="34.086219" lon="110.137703">
        <time>2026-07-20T08:34:57Z</time>
      </trkpt>
      <trkpt lat="34.086323" lon="110.137865">
        <time>2026-07-20T08:35:02Z</time>
      </trkpt>
      <trkpt lat="34.086421" lon="110.138014">
        <time>2026-07-20T08:35:07Z</time>
      </trkpt>
      <trkpt lat="34.086518" lon="110.138168">
        <time>2026-07-20T08:35:12Z</time>
      </trkpt>
      <trkpt lat="34.086618" lon="110.138324">
        <time>2026-07-20T08:35:17Z</time>
      </trkpt>
      <trkpt lat="34.08672" lon="110.138477">
        <time>2026-07-20T08:35:22Z</time>
      </trkpt>
      <trkpt lat="34.086812" lon="110.138624">
        <time>2026-07-20T08:35:27Z</time>
      </trkpt>
      <trkpt lat="34.086861" lon="110.1387">
        <time>2026-07-20T08:35:32Z</time>
      </trkpt>
      <trkpt lat="34.086899" lon="110.138752">
        <time>2026-07-20T08:35:37Z</time>
      </trkpt>
      <trkpt lat="34.086937" lon="110.138815">
        <time>2026-07-20T08:35:42Z</time>
      </trkpt>
      <trkpt lat="34.08697" lon="110.138882">
        <time>2026-07-20T08:35:47Z</time>
      </trkpt>
      <trkpt lat="34.087006" lon="110.13894">
        <time>2026-07-20T08:35:52Z</time>
      </trkpt>
      <trkpt lat="34.087041" lon="110.139001">
        <time>2026-07-20T08:35:57Z</time>
      </trkpt>
      <trkpt lat="34.087078" lon="110.139065">
        <time>2026-07-20T08:36:02Z</time>
      </trkpt>
      <trkpt lat="34.087119" lon="110.139127">
        <time>2026-07-20T08:36:07Z</time>
      </trkpt>
      <trkpt lat="34.087161" lon="110.139184">
        <time>2026-07-20T08:36:12Z</time>
      </trkpt>
      <trkpt lat="34.087202" lon="110.139244">
        <time>2026-07-20T08:36:17Z</time>
      </trkpt>
      <trkpt lat="34.087239" lon="110.139303">
        <time>2026-07-20T08:36:22Z</time>
      </trkpt>
      <trkpt lat="34.087297" lon="110.139391">
        <time>2026-07-20T08:36:27Z</time>
      </trkpt>
      <trkpt lat="34.087412" lon="110.139589">
        <time>2026-07-20T08:36:32Z</time>
      </trkpt>
      <trkpt lat="34.087544" lon="110.139795">
        <time>2026-07-20T08:36:37Z</time>
      </trkpt>
      <trkpt lat="34.087651" lon="110.139963">
        <time>2026-07-20T08:36:42Z</time>
      </trkpt>
      <trkpt lat="34.08774" lon="110.140103">
        <time>2026-07-20T08:36:47Z</time>
      </trkpt>
      <trkpt lat="34.087828" lon="110.140244">
        <time>2026-07-20T08:36:52Z</time>
      </trkpt>
      <trkpt lat="34.087912" lon="110.14039">
        <time>2026-07-20T08:36:57Z</time>
      </trkpt>
      <trkpt lat="34.087993" lon="110.140537">
        <time>2026-07-20T08:37:02Z</time>
      </trkpt>
      <trkpt lat="34.088079" lon="110.140684">
        <time>2026-07-20T08:37:07Z</time>
      </trkpt>
      <trkpt lat="34.088145" lon="110.140795">
        <time>2026-07-20T08:37:12Z</time>
      </trkpt>
      <trkpt lat="34.088181" lon="110.140858">
        <time>2026-07-20T08:37:17Z</time>
      </trkpt>
      <trkpt lat="34.088221" lon="110.140914">
        <time>2026-07-20T08:37:22Z</time>
      </trkpt>
      <trkpt lat="34.088255" lon="110.140962">
        <time>2026-07-20T08:37:27Z</time>
      </trkpt>
      <trkpt lat="34.088284" lon="110.141002">
        <time>2026-07-20T08:37:32Z</time>
      </trkpt>
      <trkpt lat="34.088312" lon="110.141071">
        <time>2026-07-20T08:37:37Z</time>
      </trkpt>
      <trkpt lat="34.088346" lon="110.141107">
        <time>2026-07-20T08:37:42Z</time>
      </trkpt>
      <trkpt lat="34.088371" lon="110.141091">
        <time>2026-07-20T08:37:47Z</time>
      </trkpt>
      <trkpt lat="34.088436" lon="110.141071">
        <time>2026-07-20T08:37:52Z</time>
      </trkpt>
      <trkpt lat="34.088502" lon="110.141092">
        <time>2026-07-20T08:37:57Z</time>
      </trkpt>
      <trkpt lat="34.088558" lon="110.141136">
        <time>2026-07-20T08:38:02Z</time>
      </trkpt>
    </trkseg>
  </trk>
</gpx>