<?xml version="1.0" encoding="UTF-8"?>
<gpx xmlns="http://www.topografix.com/GPX/1/1" xmlns:gpxtpx="http://www.garmin.com/xmlschemas/TrackPointExtension/v1" xmlns:xsi="http://www.w3.org/2001/XMLSchema-instance" xsi:schemaLocation="http://www.topografix.com/GPX/1/1 http://www.topografix.com/GPX/1/1/gpx.xsd" version="1.1" creator="gpx.py -- https://github.com/tkrajina/gpxpy">
  <trk>
    <name>gpx from joyrun</name>
    <trkseg>
      <trkpt lat="34.075032" lon="110.125803">
        <time>2026-07-19T11:17:12Z</time>
      </trkpt>
      <trkpt lat="34.075061" lon="110.125806">
        <time>2026-07-19T11:17:17Z</time>
      </trkpt>
      <trkpt lat="34.07513" lon="110.125846">
        <time>2026-07-19T11:17:22Z</time>
      </trkpt>
      <trkpt lat="34.075192" lon="110.125878">
        <time>2026-07-19T11:17:27Z</time>
      </trkpt>
      <trkpt lat="34.075249" lon="110.125903">
        <time>2026-07-19T11:17:32Z</time>
      </trkpt>
      <trkpt lat="34.075314" lon="110.125934">
        <time>2026-07-19T11:17:37Z</time>
      </trkpt>
      <trkpt lat="34.075382" lon="110.125965">
        <time>2026-07-19T11:17:42Z</time>
      </trkpt>
      <trkpt lat="34.075464" lon="110.125988">
        <time>2026-07-19T11:17:47Z</time>
      </trkpt>
      <trkpt lat="34.075533" lon="110.126014">
        <time>2026-07-19T11:17:52Z</time>
      </trkpt>
      <trkpt lat="34.075599" lon="110.126056">
        <time>2026-07-19T11:17:57Z</time>
      </trkpt>
      <trkpt lat="34.075665" lon="110.126088">
        <time>2026-07-19T11:18:02Z</time>
      </trkpt>
      <trkpt lat="34.075746" lon="110.126127">
        <time>2026-07-19T11:18:07Z</time>
      </trkpt>
      <trkpt lat="34.075815" lon="110.126147">
        <time>2026-07-19T11:18:12Z</time>
      </trkpt>
      <trkpt lat="34.07588" lon="110.126161">
        <time>2026-07-19T11:18:17Z</time>
      </trkpt>
      <trkpt lat="34.075945" lon="110.126187">
        <time>2026-07-19T11:18:22Z</time>
      </trkpt>
      <trkpt lat="34.076008" lon="110.126222">
        <time>2026-07-19T11:18:27Z</time>
      </trkpt>
      <trkpt lat="34.076067" lon="110.126281">
        <time>2026-07-19T11:18:32Z</time>
      </trkpt>
      <trkpt lat="34.076132" lon="110.126313">
        <time>2026-07-19T11:18:37Z</time>
      </trkpt>
      <trkpt lat="34.076205" lon="110.126337">
        <time>2026-07-19T11:18:42Z</time>
      </trkpt>
      <trkpt lat="34.076275" lon="110.126362">
        <time>2026-07-19T11:18:47Z</time>
      </trkpt>
      <trkpt lat="34.076342" lon="110.126389">
        <time>2026-07-19T11:18:52Z</time>
      </trkpt>
      <trkpt lat="34.076406" lon="110.126427">
        <time>2026-07-19T11:18:57Z</time>
      </trkpt>
      <trkpt lat="34.076474" lon="110.126464">
        <time>2026-07-19T11:19:02Z</time>
      </trkpt>
      <trkpt lat="34.076539" lon="110.126486">
        <time>2026-07-19T11:19:07Z</time>
      </trkpt>
      <trkpt lat="34.076604" lon="110.126509">
        <time>2026-07-19T11:19:12Z</time>
      </trkpt>
      <trkpt lat="34.07668" lon="110.126548">
        <time>2026-07-19T11:19:17Z</time>
      </trkpt>
      <trkpt lat="34.076753" lon="110.126585">
        <time>2026-07-19T11:19:22Z</time>
      </trkpt>
      <trkpt lat="34.076817" lon="110.126614">
        <time>2026-07-19T11:19:27Z</time>
      </trkpt>
      <trkpt lat="34.076879" lon="110.126634">
        <time>2026-07-19T11:19:32Z</time>
      </trkpt>
      <trkpt lat="34.076948" lon="110.126662">
        <time>2026-07-19T11:19:37Z</time>
      </trkpt>
      <trkpt lat="34.077018" lon="110.126687">
        <time>2026-07-19T11:19:42Z</time>
      </trkpt>
      <trkpt lat="34.077088" lon="110.126723">
        <time>2026-07-19T11:19:47Z</time>
      </trkpt>
      <trkpt lat="34.077155" lon="110.126757">
        <time>2026-07-19T11:19:52Z</time>
      </trkpt>
      <trkpt lat="34.077224" lon="110.126806">
        <time>2026-07-19T11:19:57Z</time>
      </trkpt>
      <trkpt lat="34.077291" lon="110.126856">
        <time>2026-07-19T11:20:02Z</time>
      </trkpt>
      <trkpt lat="34.077362" lon="110.126893">
        <time>2026-07-19T11:20:07Z</time>
      </trkpt>
      <trkpt lat="34.077435" lon="110.126912">
        <time>2026-07-19T11:20:12Z</time>
      </trkpt>
      <trkpt lat="34.077503" lon="110.126931">
        <time>2026-07-19T11:20:17Z</time>
      </trkpt>
      <trkpt lat="34.077572" lon="110.126951">
        <time>2026-07-19T11:20:22Z</time>
      </trkpt>
      <trkpt lat="34.077636" lon="110.126974">
        <time>2026-07-19T11:20:27Z</time>
      </trkpt>
      <trkpt lat="34.077703" lon="110.126998">
        <time>2026-07-19T11:20:32Z</time>
      </trkpt>
      <trkpt lat="34.077777" lon="110.127031">
        <time>2026-07-19T11:20:37Z</time>
      </trkpt>
      <trkpt lat="34.077845" lon="110.127067">
        <time>2026-07-19T11:20:42Z</time>
      </trkpt>
      <trkpt lat="34.077913" lon="110.127091">
        <time>2026-07-19T11:20:47Z</time>
      </trkpt>
      <trkpt lat="34.078003" lon="110.127102">
        <time>2026-07-19T11:20:52Z</time>
      </trkpt>
      <trkpt lat="34.078081" lon="110.127141">
        <time>2026-07-19T11:20:57Z</time>
      </trkpt>
      <trkpt lat="34.078142" lon="110.127183">
        <time>2026-07-19T11:21:02Z</time>
      </trkpt>
      <trkpt lat="34.078203" lon="110.12722">
        <time>2026-07-19T11:21:07Z</time>
      </trkpt>
      <trkpt lat="34.078268" lon="110.127241">
        <time>2026-07-19T11:21:12Z</time>
      </trkpt>
      <trkpt lat="34.07834" lon="110.127262">
        <time>2026-07-19T11:21:17Z</time>
      </trkpt>
      <trkpt lat="34.078405" lon="110.127288">
        <time>2026-07-19T11:21:22Z</time>
      </trkpt>
      <trkpt lat="34.078468" lon="110.127316">
        <time>2026-07-19T11:21:27Z</time>
      </trkpt>
      <trkpt lat="34.078535" lon="110.127342">
        <time>2026-07-19T11:21:32Z</time>
      </trkpt>
      <trkpt lat="34.078608" lon="110.127379">
        <time>2026-07-19T11:21:37Z</time>
      </trkpt>
      <trkpt lat="34.078676" lon="110.127407">
        <time>2026-07-19T11:21:42Z</time>
      </trkpt>
      <trkpt lat="34.078742" lon="110.127439">
        <time>2026-07-19T11:21:47Z</time>
      </trkpt>
      <trkpt lat="34.07879" lon="110.127471">
        <time>2026-07-19T11:21:52Z</time>
      </trkpt>
      <trkpt lat="34.078841" lon="110.127511">
        <time>2026-07-19T11:21:57Z</time>
      </trkpt>
      <trkpt lat="34.078907" lon="110.127545">
        <time>2026-07-19T11:22:02Z</time>
      </trkpt>
      <trkpt lat="34.078988" lon="110.127574">
        <time>2026-07-19T11:22:07Z</time>
      </trkpt>
      <trkpt lat="34.079062" lon="110.127604">
        <time>2026-07-19T11:22:12Z</time>
      </trkpt>
      <trkpt lat="34.079136" lon="110.127605">
        <time>2026-07-19T11:22:17Z</time>
      </trkpt>
      <trkpt lat="34.079199" lon="110.127551">
        <time>2026-07-19T11:22:22Z</time>
      </trkpt>
      <trkpt lat="34.079237" lon="110.127482">
        <time>2026-07-19T11:22:27Z</time>
      </trkpt>
      <trkpt lat="34.079275" lon="110.127415">
        <time>2026-07-19T11:22:32Z</time>
      </trkpt>
      <trkpt lat="34.079292" lon="110.127334">
        <time>2026-07-19T11:22:37Z</time>
      </trkpt>
      <trkpt lat="34.079289" lon="110.127254">
        <time>2026-07-19T11:22:42Z</time>
      </trkpt>
      <trkpt lat="34.079282" lon="110.12718">
        <time>2026-07-19T11:22:47Z</time>
      </trkpt>
      <trkpt lat="34.079255" lon="110.127093">
        <time>2026-07-19T11:22:52Z</time>
      </trkpt>
      <trkpt lat="34.079221" lon="110.127007">
        <time>2026-07-19T11:22:57Z</time>
      </trkpt>
      <trkpt lat="34.07919" lon="110.126928">
        <time>2026-07-19T11:23:02Z</time>
      </trkpt>
      <trkpt lat="34.079154" lon="110.126823">
        <time>2026-07-19T11:23:07Z</time>
      </trkpt>
      <trkpt lat="34.079125" lon="110.126733">
        <time>2026-07-19T11:23:12Z</time>
      </trkpt>
      <trkpt lat="34.079106" lon="110.126662">
        <time>2026-07-19T11:23:17Z</time>
      </trkpt>
      <trkpt lat="34.079084" lon="110.126592">
        <time>2026-07-19T11:23:22Z</time>
      </trkpt>
      <trkpt lat="34.079046" lon="110.126519">
        <time>2026-07-19T11:23:27Z</time>
      </trkpt>
      <trkpt lat="34.079018" lon="110.126439">
        <time>2026-07-19T11:23:32Z</time>
      </trkpt>
      <trkpt lat="34.078988" lon="110.126358">
        <time>2026-07-19T11:23:37Z</time>
      </trkpt>
      <trkpt lat="34.078957" lon="110.126276">
        <time>2026-07-19T11:23:42Z</time>
      </trkpt>
      <trkpt lat="34.078926" lon="110.126195">
        <time>2026-07-19T11:23:47Z</time>
      </trkpt>
      <trkpt lat="34.078899" lon="110.126111">
        <time>2026-07-19T11:23:52Z</time>
      </trkpt>
      <trkpt lat="34.078869" lon="110.126029">
        <time>2026-07-19T11:23:57Z</time>
      </trkpt>
      <trkpt lat="34.078838" lon="110.125948">
        <time>2026-07-19T11:24:02Z</time>
      </trkpt>
      <trkpt lat="34.078818" lon="110.125858">
        <time>2026-07-19T11:24:07Z</time>
      </trkpt>
      <trkpt lat="34.078783" lon="110.125761">
        <time>2026-07-19T11:24:12Z</time>
      </trkpt>
      <trkpt lat="34.078756" lon="110.125686">
        <time>2026-07-19T11:24:17Z</time>
      </trkpt>
      <trkpt lat="34.078742" lon="110.125615">
        <time>2026-07-19T11:24:22Z</time>
      </trkpt>
      <trkpt lat="34.078707" lon="110.125553">
        <time>2026-07-19T11:24:27Z</time>
      </trkpt>
      <trkpt lat="34.078664" lon="110.125497">
        <time>2026-07-19T11:24:32Z</time>
      </trkpt>
      <trkpt lat="34.078619" lon="110.12543">
        <time>2026-07-19T11:24:37Z</time>
      </trkpt>
      <trkpt lat="34.078592" lon="110.125359">
        <time>2026-07-19T11:24:42Z</time>
      </trkpt>
      <trkpt lat="34.078576" lon="110.125282">
        <time>2026-07-19T11:24:47Z</time>
      </trkpt>
      <trkpt lat="34.078553" lon="110.125202">
        <time>2026-07-19T11:24:52Z</time>
      </trkpt>
      <trkpt lat="34.078533" lon="110.125125">
        <time>2026-07-19T11:24:57Z</time>
      </trkpt>
      <trkpt lat="34.078492" lon="110.12504">
        <time>2026-07-19T11:25:02Z</time>
      </trkpt>
      <trkpt lat="34.078483" lon="110.124973">
        <time>2026-07-19T11:25:07Z</time>
      </trkpt>
      <trkpt lat="34.078471" lon="110.124888">
        <time>2026-07-19T11:25:12Z</time>
      </trkpt>
      <trkpt lat="34.078446" lon="110.124802">
        <time>2026-07-19T11:25:17Z</time>
      </trkpt>
      <trkpt lat="34.078421" lon="110.124733">
        <time>2026-07-19T11:25:22Z</time>
      </trkpt>
      <trkpt lat="34.078395" lon="110.124641">
        <time>2026-07-19T11:25:27Z</time>
      </trkpt>
      <trkpt lat="34.078364" lon="110.124549">
        <time>2026-07-19T11:25:32Z</time>
      </trkpt>
      <trkpt lat="34.07834" lon="110.124464">
        <time>2026-07-19T11:25:37Z</time>
      </trkpt>
      <trkpt lat="34.078315" lon="110.124379">
        <time>2026-07-19T11:25:42Z</time>
      </trkpt>
      <trkpt lat="34.07828" lon="110.124289">
        <time>2026-07-19T11:25:47Z</time>
      </trkpt>
      <trkpt lat="34.078252" lon="110.1242">
        <time>2026-07-19T11:25:52Z</time>
      </trkpt>
      <trkpt lat="34.078231" lon="110.124116">
        <time>2026-07-19T11:25:57Z</time>
      </trkpt>
      <trkpt lat="34.078207" lon="110.12404">
        <time>2026-07-19T11:26:02Z</time>
      </trkpt>
      <trkpt lat="34.078187" lon="110.123963">
        <time>2026-07-19T11:26:07Z</time>
      </trkpt>
      <trkpt lat="34.078163" lon="110.123889">
        <time>2026-07-19T11:26:12Z</time>
      </trkpt>
      <trkpt lat="34.078136" lon="110.123809">
        <time>2026-07-19T11:26:17Z</time>
      </trkpt>
      <trkpt lat="34.078113" lon="110.123723">
        <time>2026-07-19T11:26:22Z</time>
      </trkpt>
      <trkpt lat="34.078084" lon="110.123642">
        <time>2026-07-19T11:26:27Z</time>
      </trkpt>
      <trkpt lat="34.078054" lon="110.123556">
        <time>2026-07-19T11:26:32Z</time>
      </trkpt>
      <trkpt lat="34.078021" lon="110.123474">
        <time>2026-07-19T11:26:37Z</time>
      </trkpt>
      <trkpt lat="34.077981" lon="110.123392">
        <time>2026-07-19T11:26:42Z</time>
      </trkpt>
      <trkpt lat="34.077934" lon="110.123319">
        <time>2026-07-19T11:26:47Z</time>
      </trkpt>
      <trkpt lat="34.0779" lon="110.123233">
        <time>2026-07-19T11:26:52Z</time>
      </trkpt>
      <trkpt lat="34.07788" lon="110.123143">
        <time>2026-07-19T11:26:57Z</time>
      </trkpt>
      <trkpt lat="34.077852" lon="110.123068">
        <time>2026-07-19T11:27:02Z</time>
      </trkpt>
      <trkpt lat="34.077816" lon="110.122993">
        <time>2026-07-19T11:27:07Z</time>
      </trkpt>
      <trkpt lat="34.077795" lon="110.12291">
        <time>2026-07-19T11:27:12Z</time>
      </trkpt>
      <trkpt lat="34.077769" lon="110.12283">
        <time>2026-07-19T11:27:17Z</time>
      </trkpt>
      <trkpt lat="34.07776" lon="110.122756">
        <time>2026-07-19T11:27:22Z</time>
      </trkpt>
      <trkpt lat="34.077732" lon="110.122666">
        <time>2026-07-19T11:27:27Z</time>
      </trkpt>
      <trkpt lat="34.077697" lon="110.122579">
        <time>2026-07-19T11:27:32Z</time>
      </trkpt>
      <trkpt lat="34.077665" lon="110.122497">
        <time>2026-07-19T11:27:37Z</time>
      </trkpt>
      <trkpt lat="34.077627" lon="110.122412">
        <time>2026-07-19T11:27:42Z</time>
      </trkpt>
      <trkpt lat="34.077602" lon="110.122333">
        <time>2026-07-19T11:27:47Z</time>
      </trkpt>
      <trkpt lat="34.077583" lon="110.122246">
        <time>2026-07-19T11:27:52Z</time>
      </trkpt>
      <trkpt lat="34.07757" lon="110.122167">
        <time>2026-07-19T11:27:57Z</time>
      </trkpt>
      <trkpt lat="34.077567" lon="110.122083">
        <time>2026-07-19T11:28:02Z</time>
      </trkpt>
    </trkseg>
  </trk>
</gpx>