<?xml version="1.0" encoding="UTF-8"?>
<gpx xmlns="http://www.topografix.com/GPX/1/1" xmlns:gpxtpx="http://www.garmin.com/xmlschemas/TrackPointExtension/v1" xmlns:xsi="http://www.w3.org/2001/XMLSchema-instance" xsi:schemaLocation="http://www.topografix.com/GPX/1/1 http://www.topografix.com/GPX/1/1/gpx.xsd" version="1.1" creator="gpx.py -- https://github.com/tkrajina/gpxpy">
  <trk>
    <name>gpx from joyrun</name>
    <trkseg>
      <trkpt lat="34.077621" lon="110.122123">
        <time>2026-07-19T11:10:18Z</time>
      </trkpt>
      <trkpt lat="34.077575" lon="110.122131">
        <time>2026-07-19T11:10:23Z</time>
      </trkpt>
      <trkpt lat="34.077507" lon="110.122161">
        <time>2026-07-19T11:10:28Z</time>
      </trkpt>
      <trkpt lat="34.077433" lon="110.122198">
        <time>2026-07-19T11:10:33Z</time>
      </trkpt>
      <trkpt lat="34.077363" lon="110.122241">
        <time>2026-07-19T11:10:38Z</time>
      </trkpt>
      <trkpt lat="34.077293" lon="110.12227">
        <time>2026-07-19T11:10:43Z</time>
      </trkpt>
      <trkpt lat="34.077223" lon="110.122293">
        <time>2026-07-19T11:10:48Z</time>
      </trkpt>
      <trkpt lat="34.077153" lon="110.122308">
        <time>2026-07-19T11:10:53Z</time>
      </trkpt>
      <trkpt lat="34.077092" lon="110.122301">
        <time>2026-07-19T11:10:58Z</time>
      </trkpt>
      <trkpt lat="34.077037" lon="110.122249">
        <time>2026-07-19T11:11:03Z</time>
      </trkpt>
      <trkpt lat="34.077002" lon="110.122164">
        <time>2026-07-19T11:11:08Z</time>
      </trkpt>
      <trkpt lat="34.076978" lon="110.122068">
        <time>2026-07-19T11:11:13Z</time>
      </trkpt>
      <trkpt lat="34.076943" lon="110.121974">
        <time>2026-07-19T11:11:18Z</time>
      </trkpt>
      <trkpt lat="34.076913" lon="110.121886">
        <time>2026-07-19T11:11:23Z</time>
      </trkpt>
      <trkpt lat="34.076885" lon="110.121817">
        <time>2026-07-19T11:11:28Z</time>
      </trkpt>
      <trkpt lat="34.07682" lon="110.121817">
        <time>2026-07-19T11:11:33Z</time>
      </trkpt>
      <trkpt lat="34.076748" lon="110.121849">
        <time>2026-07-19T11:11:38Z</time>
      </trkpt>
      <trkpt lat="34.076676" lon="110.121882">
        <time>2026-07-19T11:11:43Z</time>
      </trkpt>
      <trkpt lat="34.076593" lon="110.121909">
        <time>2026-07-19T11:11:48Z</time>
      </trkpt>
      <trkpt lat="34.076506" lon="110.121932">
        <time>2026-07-19T11:11:53Z</time>
      </trkpt>
      <trkpt lat="34.076444" lon="110.121964">
        <time>2026-07-19T11:11:58Z</time>
      </trkpt>
      <trkpt lat="34.076405" lon="110.122031">
        <time>2026-07-19T11:12:03Z</time>
      </trkpt>
      <trkpt lat="34.076386" lon="110.122121">
        <time>2026-07-19T11:12:08Z</time>
      </trkpt>
      <trkpt lat="34.076363" lon="110.12221">
        <time>2026-07-19T11:12:13Z</time>
      </trkpt>
      <trkpt lat="34.076339" lon="110.122297">
        <time>2026-07-19T11:12:18Z</time>
      </trkpt>
      <trkpt lat="34.076317" lon="110.122385">
        <time>2026-07-19T11:12:23Z</time>
      </trkpt>
      <trkpt lat="34.076293" lon="110.122474">
        <time>2026-07-19T11:12:28Z</time>
      </trkpt>
      <trkpt lat="34.076284" lon="110.122563">
        <time>2026-07-19T11:12:33Z</time>
      </trkpt>
      <trkpt lat="34.076285" lon="110.122653">
        <time>2026-07-19T11:12:38Z</time>
      </trkpt>
      <trkpt lat="34.076287" lon="110.122736">
        <time>2026-07-19T11:12:43Z</time>
      </trkpt>
      <trkpt lat="34.076282" lon="110.122784">
        <time>2026-07-19T11:12:48Z</time>
      </trkpt>
      <trkpt lat="34.076282" lon="110.122784">
        <time>2026-07-19T11:12:53Z</time>
      </trkpt>
      <trkpt lat="34.076283" lon="110.122808">
        <time>2026-07-19T11:12:58Z</time>
      </trkpt>
      <trkpt lat="34.076291" lon="110.122878">
        <time>2026-07-19T11:13:03Z</time>
      </trkpt>
      <trkpt lat="34.076296" lon="110.122961">
        <time>2026-07-19T11:13:08Z</time>
      </trkpt>
      <trkpt lat="34.076307" lon="110.123047">
        <time>2026-07-19T11:13:13Z</time>
      </trkpt>
      <trkpt lat="34.076312" lon="110.123138">
        <time>2026-07-19T11:13:18Z</time>
      </trkpt>
      <trkpt lat="34.076324" lon="110.123227">
        <time>2026-07-19T11:13:23Z</time>
      </trkpt>
      <trkpt lat="34.076311" lon="110.123311">
        <time>2026-07-19T11:13:28Z</time>
      </trkpt>
      <trkpt lat="34.076273" lon="110.123393">
        <time>2026-07-19T11:13:33Z</time>
      </trkpt>
      <trkpt lat="34.076248" lon="110.123471">
        <time>2026-07-19T11:13:38Z</time>
      </trkpt>
      <trkpt lat="34.076233" lon="110.123557">
        <time>2026-07-19T11:13:43Z</time>
      </trkpt>
      <trkpt lat="34.07622" lon="110.12365">
        <time>2026-07-19T11:13:48Z</time>
      </trkpt>
      <trkpt lat="34.076217" lon="110.123742">
        <time>2026-07-19T11:13:53Z</time>
      </trkpt>
      <trkpt lat="34.076191" lon="110.123834">
        <time>2026-07-19T11:13:58Z</time>
      </trkpt>
      <trkpt lat="34.076161" lon="110.123925">
        <time>2026-07-19T11:14:03Z</time>
      </trkpt>
      <trkpt lat="34.076141" lon="110.124006">
        <time>2026-07-19T11:14:08Z</time>
      </trkpt>
      <trkpt lat="34.07608" lon="110.124043">
        <time>2026-07-19T11:14:13Z</time>
      </trkpt>
      <trkpt lat="34.076" lon="110.124046">
        <time>2026-07-19T11:14:18Z</time>
      </trkpt>
      <trkpt lat="34.075934" lon="110.124037">
        <time>2026-07-19T11:14:23Z</time>
      </trkpt>
      <trkpt lat="34.075861" lon="110.124048">
        <time>2026-07-19T11:14:28Z</time>
      </trkpt>
      <trkpt lat="34.07578" lon="110.124062">
        <time>2026-07-19T11:14:33Z</time>
      </trkpt>
      <trkpt lat="34.075706" lon="110.124088">
        <time>2026-07-19T11:14:38Z</time>
      </trkpt>
      <trkpt lat="34.075671" lon="110.124164">
        <time>2026-07-19T11:14:43Z</time>
      </trkpt>
      <trkpt lat="34.075653" lon="110.124253">
        <time>2026-07-19T11:14:48Z</time>
      </trkpt>
      <trkpt lat="34.075627" lon="110.124334">
        <time>2026-07-19T11:14:53Z</time>
      </trkpt>
      <trkpt lat="34.075595" lon="110.124424">
        <time>2026-07-19T11:14:58Z</time>
      </trkpt>
      <trkpt lat="34.075575" lon="110.124515">
        <time>2026-07-19T11:15:03Z</time>
      </trkpt>
      <trkpt lat="34.075556" lon="110.124603">
        <time>2026-07-19T11:15:08Z</time>
      </trkpt>
      <trkpt lat="34.075541" lon="110.124691">
        <time>2026-07-19T11:15:13Z</time>
      </trkpt>
      <trkpt lat="34.075524" lon="110.124782">
        <time>2026-07-19T11:15:18Z</time>
      </trkpt>
      <trkpt lat="34.075496" lon="110.124862">
        <time>2026-07-19T11:15:23Z</time>
      </trkpt>
      <trkpt lat="34.075467" lon="110.124935">
        <time>2026-07-19T11:15:28Z</time>
      </trkpt>
      <trkpt lat="34.075447" lon="110.125009">
        <time>2026-07-19T11:15:33Z</time>
      </trkpt>
      <trkpt lat="34.07543" lon="110.125081">
        <time>2026-07-19T11:15:38Z</time>
      </trkpt>
      <trkpt lat="34.075401" lon="110.125155">
        <time>2026-07-19T11:15:43Z</time>
      </trkpt>
      <trkpt lat="34.07538" lon="110.125223">
        <time>2026-07-19T11:15:48Z</time>
      </trkpt>
      <trkpt lat="34.075364" lon="110.125286">
        <time>2026-07-19T11:15:53Z</time>
      </trkpt>
      <trkpt lat="34.075356" lon="110.125366">
        <time>2026-07-19T11:15:58Z</time>
      </trkpt>
      <trkpt lat="34.075358" lon="110.125467">
        <time>2026-07-19T11:16:03Z</time>
      </trkpt>
      <trkpt lat="34.075363" lon="110.125573">
        <time>2026-07-19T11:16:08Z</time>
      </trkpt>
      <trkpt lat="34.075335" lon="110.125658">
        <time>2026-07-19T11:16:13Z</time>
      </trkpt>
      <trkpt lat="34.075307" lon="110.125741">
        <time>2026-07-19T11:16:18Z</time>
      </trkpt>
      <trkpt lat="34.075274" lon="110.125819">
        <time>2026-07-19T11:16:23Z</time>
      </trkpt>
      <trkpt lat="34.075211" lon="110.125865">
        <time>2026-07-19T11:16:28Z</time>
      </trkpt>
      <trkpt lat="34.075131" lon="110.125869">
        <time>2026-07-19T11:16:33Z</time>
      </trkpt>
      <trkpt lat="34.075057" lon="110.12586">
        <time>2026-07-19T11:16:42Z</time>
      </trkpt>
    </trkseg>
  </trk>
</gpx>