<?xml version="1.0" encoding="UTF-8"?>
<gpx xmlns="http://www.topografix.com/GPX/1/1" xmlns:gpxtpx="http://www.garmin.com/xmlschemas/TrackPointExtension/v1" xmlns:xsi="http://www.w3.org/2001/XMLSchema-instance" xsi:schemaLocation="http://www.topografix.com/GPX/1/1 http://www.topografix.com/GPX/1/1/gpx.xsd" version="1.1" creator="gpx.py -- https://github.com/tkrajina/gpxpy">
  <trk>
    <name>gpx from joyrun</name>
    <trkseg>
      <trkpt lat="34.07767" lon="110.122046">
        <time>2026-07-19T11:07:27Z</time>
      </trkpt>
      <trkpt lat="34.077654" lon="110.122071">
        <time>2026-07-19T11:07:32Z</time>
      </trkpt>
      <trkpt lat="34.077614" lon="110.122124">
        <time>2026-07-19T11:07:37Z</time>
      </trkpt>
      <trkpt lat="34.07752" lon="110.1222">
        <time>2026-07-19T11:07:42Z</time>
      </trkpt>
      <trkpt lat="34.077386" lon="110.122241">
        <time>2026-07-19T11:07:47Z</time>
      </trkpt>
      <trkpt lat="34.077321" lon="110.122201">
        <time>2026-07-19T11:07:52Z</time>
      </trkpt>
      <trkpt lat="34.077292" lon="110.122222">
        <time>2026-07-19T11:07:57Z</time>
      </trkpt>
      <trkpt lat="34.077241" lon="110.122271">
        <time>2026-07-19T11:08:02Z</time>
      </trkpt>
      <trkpt lat="34.077195" lon="110.122327">
        <time>2026-07-19T11:08:07Z</time>
      </trkpt>
      <trkpt lat="34.077144" lon="110.122375">
        <time>2026-07-19T11:08:12Z</time>
      </trkpt>
      <trkpt lat="34.077085" lon="110.122419">
        <time>2026-07-19T11:08:17Z</time>
      </trkpt>
      <trkpt lat="34.077023" lon="110.122471">
        <time>2026-07-19T11:08:22Z</time>
      </trkpt>
      <trkpt lat="34.076955" lon="110.122511">
        <time>2026-07-19T11:08:27Z</time>
      </trkpt>
      <trkpt lat="34.076891" lon="110.122553">
        <time>2026-07-19T11:08:32Z</time>
      </trkpt>
      <trkpt lat="34.076827" lon="110.122586">
        <time>2026-07-19T11:08:37Z</time>
      </trkpt>
      <trkpt lat="34.076767" lon="110.122609">
        <time>2026-07-19T11:08:42Z</time>
      </trkpt>
      <trkpt lat="34.076776" lon="110.122603">
        <time>2026-07-19T11:08:47Z</time>
      </trkpt>
      <trkpt lat="34.076812" lon="110.12256">
        <time>2026-07-19T11:08:52Z</time>
      </trkpt>
      <trkpt lat="34.07687" lon="110.122515">
        <time>2026-07-19T11:08:57Z</time>
      </trkpt>
      <trkpt lat="34.076907" lon="110.12246">
        <time>2026-07-19T11:09:02Z</time>
      </trkpt>
      <trkpt lat="34.076957" lon="110.12239">
        <time>2026-07-19T11:09:07Z</time>
      </trkpt>
      <trkpt lat="34.077024" lon="110.122357">
        <time>2026-07-19T11:09:12Z</time>
      </trkpt>
      <trkpt lat="34.07709" lon="110.12233">
        <time>2026-07-19T11:09:17Z</time>
      </trkpt>
      <trkpt lat="34.077138" lon="110.122284">
        <time>2026-07-19T11:09:22Z</time>
      </trkpt>
      <trkpt lat="34.077194" lon="110.122236">
        <time>2026-07-19T11:09:27Z</time>
      </trkpt>
      <trkpt lat="34.077249" lon="110.122188">
        <time>2026-07-19T11:09:32Z</time>
      </trkpt>
      <trkpt lat="34.07731" lon="110.122151">
        <time>2026-07-19T11:09:37Z</time>
      </trkpt>
      <trkpt lat="34.077374" lon="110.122112">
        <time>2026-07-19T11:09:42Z</time>
      </trkpt>
      <trkpt lat="34.077444" lon="110.122101">
        <time>2026-07-19T11:09:47Z</time>
      </trkpt>
      <trkpt lat="34.077507" lon="110.122085">
        <time>2026-07-19T11:09:55Z</time>
      </trkpt>
    </trkseg>
  </trk>
</gpx>