<?xml version="1.0" encoding="UTF-8"?>
<gpx xmlns="http://www.topografix.com/GPX/1/1" xmlns:gpxtpx="http://www.garmin.com/xmlschemas/TrackPointExtension/v1" xmlns:xsi="http://www.w3.org/2001/XMLSchema-instance" xsi:schemaLocation="http://www.topografix.com/GPX/1/1 http://www.topografix.com/GPX/1/1/gpx.xsd" version="1.1" creator="gpx.py -- https://github.com/tkrajina/gpxpy">
  <trk>
    <name>gpx from joyrun</name>
    <trkseg>
      <trkpt lat="34.082716" lon="110.123654">
        <time>2026-07-22T13:32:45Z</time>
      </trkpt>
      <trkpt lat="34.082758" lon="110.123638">
        <time>2026-07-22T13:32:50Z</time>
      </trkpt>
      <trkpt lat="34.082839" lon="110.123586">
        <time>2026-07-22T13:32:55Z</time>
      </trkpt>
      <trkpt lat="34.082926" lon="110.123471">
        <time>2026-07-22T13:33:00Z</time>
      </trkpt>
      <trkpt lat="34.082968" lon="110.123336">
        <time>2026-07-22T13:33:05Z</time>
      </trkpt>
      <trkpt lat="34.082964" lon="110.123176">
        <time>2026-07-22T13:33:10Z</time>
      </trkpt>
      <trkpt lat="34.082891" lon="110.123007">
        <time>2026-07-22T13:33:15Z</time>
      </trkpt>
      <trkpt lat="34.082757" lon="110.122898">
        <time>2026-07-22T13:33:20Z</time>
      </trkpt>
      <trkpt lat="34.082603" lon="110.122878">
        <time>2026-07-22T13:33:25Z</time>
      </trkpt>
      <trkpt lat="34.082456" lon="110.122926">
        <time>2026-07-22T13:33:30Z</time>
      </trkpt>
      <trkpt lat="34.082311" lon="110.122977">
        <time>2026-07-22T13:33:35Z</time>
      </trkpt>
      <trkpt lat="34.082159" lon="110.123032">
        <time>2026-07-22T13:33:40Z</time>
      </trkpt>
      <trkpt lat="34.082016" lon="110.123083">
        <time>2026-07-22T13:33:45Z</time>
      </trkpt>
      <trkpt lat="34.081881" lon="110.123132">
        <time>2026-07-22T13:33:50Z</time>
      </trkpt>
      <trkpt lat="34.081747" lon="110.123189">
        <time>2026-07-22T13:33:55Z</time>
      </trkpt>
      <trkpt lat="34.081645" lon="110.123298">
        <time>2026-07-22T13:34:00Z</time>
      </trkpt>
      <trkpt lat="34.081587" lon="110.123455">
        <time>2026-07-22T13:34:05Z</time>
      </trkpt>
      <trkpt lat="34.081587" lon="110.123614">
        <time>2026-07-22T13:34:10Z</time>
      </trkpt>
      <trkpt lat="34.081633" lon="110.123748">
        <time>2026-07-22T13:34:15Z</time>
      </trkpt>
      <trkpt lat="34.081717" lon="110.123853">
        <time>2026-07-22T13:34:20Z</time>
      </trkpt>
      <trkpt lat="34.081828" lon="110.123915">
        <time>2026-07-22T13:34:25Z</time>
      </trkpt>
      <trkpt lat="34.081955" lon="110.123922">
        <time>2026-07-22T13:34:30Z</time>
      </trkpt>
      <trkpt lat="34.08208" lon="110.123881">
        <time>2026-07-22T13:34:35Z</time>
      </trkpt>
      <trkpt lat="34.082207" lon="110.123836">
        <time>2026-07-22T13:34:40Z</time>
      </trkpt>
      <trkpt lat="34.082336" lon="110.12379">
        <time>2026-07-22T13:34:45Z</time>
      </trkpt>
      <trkpt lat="34.082465" lon="110.123744">
        <time>2026-07-22T13:34:50Z</time>
      </trkpt>
      <trkpt lat="34.082593" lon="110.123698">
        <time>2026-07-22T13:34:55Z</time>
      </trkpt>
      <trkpt lat="34.082718" lon="110.123653">
        <time>2026-07-22T13:35:00Z</time>
      </trkpt>
      <trkpt lat="34.082832" lon="110.123592">
        <time>2026-07-22T13:35:05Z</time>
      </trkpt>
      <trkpt lat="34.08292" lon="110.123483">
        <time>2026-07-22T13:35:10Z</time>
      </trkpt>
      <trkpt lat="34.082966" lon="110.123344">
        <time>2026-07-22T13:35:15Z</time>
      </trkpt>
      <trkpt lat="34.082967" lon="110.123198">
        <time>2026-07-22T13:35:20Z</time>
      </trkpt>
      <trkpt lat="34.082929" lon="110.123071">
        <time>2026-07-22T13:35:25Z</time>
      </trkpt>
      <trkpt lat="34.082857" lon="110.122968">
        <time>2026-07-22T13:35:30Z</time>
      </trkpt>
      <trkpt lat="34.082761" lon="110.122899">
        <time>2026-07-22T13:35:35Z</time>
      </trkpt>
      <trkpt lat="34.082665" lon="110.122875">
        <time>2026-07-22T13:35:40Z</time>
      </trkpt>
      <trkpt lat="34.082562" lon="110.122888">
        <time>2026-07-22T13:35:45Z</time>
      </trkpt>
      <trkpt lat="34.082448" lon="110.122929">
        <time>2026-07-22T13:35:50Z</time>
      </trkpt>
      <trkpt lat="34.08233" lon="110.122971">
        <time>2026-07-22T13:35:55Z</time>
      </trkpt>
      <trkpt lat="34.082208" lon="110.123015">
        <time>2026-07-22T13:36:00Z</time>
      </trkpt>
      <trkpt lat="34.082099" lon="110.123053">
        <time>2026-07-22T13:36:05Z</time>
      </trkpt>
      <trkpt lat="34.082034" lon="110.123077">
        <time>2026-07-22T13:36:10Z</time>
      </trkpt>
      <trkpt lat="34.081985" lon="110.123094">
        <time>2026-07-22T13:36:15Z</time>
      </trkpt>
      <trkpt lat="34.081938" lon="110.123111">
        <time>2026-07-22T13:36:20Z</time>
      </trkpt>
      <trkpt lat="34.081889" lon="110.123129">
        <time>2026-07-22T13:36:25Z</time>
      </trkpt>
      <trkpt lat="34.081835" lon="110.123148">
        <time>2026-07-22T13:36:30Z</time>
      </trkpt>
      <trkpt lat="34.081733" lon="110.1232">
        <time>2026-07-22T13:36:35Z</time>
      </trkpt>
      <trkpt lat="34.081646" lon="110.123296">
        <time>2026-07-22T13:36:40Z</time>
      </trkpt>
      <trkpt lat="34.081593" lon="110.123425">
        <time>2026-07-22T13:36:45Z</time>
      </trkpt>
      <trkpt lat="34.081581" lon="110.123564">
        <time>2026-07-22T13:36:50Z</time>
      </trkpt>
      <trkpt lat="34.081614" lon="110.123707">
        <time>2026-07-22T13:36:55Z</time>
      </trkpt>
      <trkpt lat="34.081687" lon="110.123824">
        <time>2026-07-22T13:37:00Z</time>
      </trkpt>
      <trkpt lat="34.081773" lon="110.123892">
        <time>2026-07-22T13:37:05Z</time>
      </trkpt>
      <trkpt lat="34.08188" lon="110.123925">
        <time>2026-07-22T13:37:10Z</time>
      </trkpt>
      <trkpt lat="34.081997" lon="110.123911">
        <time>2026-07-22T13:37:15Z</time>
      </trkpt>
      <trkpt lat="34.082113" lon="110.123869">
        <time>2026-07-22T13:37:20Z</time>
      </trkpt>
      <trkpt lat="34.082232" lon="110.123827">
        <time>2026-07-22T13:37:25Z</time>
      </trkpt>
      <trkpt lat="34.082344" lon="110.123787">
        <time>2026-07-22T13:37:30Z</time>
      </trkpt>
      <trkpt lat="34.082441" lon="110.123752">
        <time>2026-07-22T13:37:35Z</time>
      </trkpt>
      <trkpt lat="34.082553" lon="110.123712">
        <time>2026-07-22T13:37:40Z</time>
      </trkpt>
      <trkpt lat="34.082637" lon="110.123682">
        <time>2026-07-22T13:37:45Z</time>
      </trkpt>
      <trkpt lat="34.082695" lon="110.123661">
        <time>2026-07-22T13:37:50Z</time>
      </trkpt>
      <trkpt lat="34.082752" lon="110.123641">
        <time>2026-07-22T13:37:55Z</time>
      </trkpt>
      <trkpt lat="34.082849" lon="110.123576">
        <time>2026-07-22T13:38:00Z</time>
      </trkpt>
      <trkpt lat="34.082937" lon="110.123448">
        <time>2026-07-22T13:38:05Z</time>
      </trkpt>
      <trkpt lat="34.082972" lon="110.12329">
        <time>2026-07-22T13:38:10Z</time>
      </trkpt>
      <trkpt lat="34.082953" lon="110.123133">
        <time>2026-07-22T13:38:15Z</time>
      </trkpt>
      <trkpt lat="34.082887" lon="110.123002">
        <time>2026-07-22T13:38:20Z</time>
      </trkpt>
      <trkpt lat="34.08278" lon="110.122909">
        <time>2026-07-22T13:38:25Z</time>
      </trkpt>
      <trkpt lat="34.082658" lon="110.122874">
        <time>2026-07-22T13:38:30Z</time>
      </trkpt>
      <trkpt lat="34.082528" lon="110.1229">
        <time>2026-07-22T13:38:35Z</time>
      </trkpt>
      <trkpt lat="34.082395" lon="110.122947">
        <time>2026-07-22T13:38:40Z</time>
      </trkpt>
      <trkpt lat="34.082274" lon="110.122991">
        <time>2026-07-22T13:38:45Z</time>
      </trkpt>
      <trkpt lat="34.082163" lon="110.123031">
        <time>2026-07-22T13:38:50Z</time>
      </trkpt>
      <trkpt lat="34.082053" lon="110.12307">
        <time>2026-07-22T13:38:55Z</time>
      </trkpt>
      <trkpt lat="34.081943" lon="110.123109">
        <time>2026-07-22T13:39:00Z</time>
      </trkpt>
      <trkpt lat="34.08183" lon="110.12315">
        <time>2026-07-22T13:39:05Z</time>
      </trkpt>
      <trkpt lat="34.081724" lon="110.123207">
        <time>2026-07-22T13:39:10Z</time>
      </trkpt>
      <trkpt lat="34.081646" lon="110.123295">
        <time>2026-07-22T13:39:15Z</time>
      </trkpt>
      <trkpt lat="34.081594" lon="110.123419">
        <time>2026-07-22T13:39:20Z</time>
      </trkpt>
      <trkpt lat="34.081582" lon="110.123569">
        <time>2026-07-22T13:39:25Z</time>
      </trkpt>
      <trkpt lat="34.081599" lon="110.123665">
        <time>2026-07-22T13:39:30Z</time>
      </trkpt>
      <trkpt lat="34.081624" lon="110.123728">
        <time>2026-07-22T13:39:35Z</time>
      </trkpt>
      <trkpt lat="34.081657" lon="110.123786">
        <time>2026-07-22T13:39:40Z</time>
      </trkpt>
      <trkpt lat="34.081701" lon="110.123838">
        <time>2026-07-22T13:39:45Z</time>
      </trkpt>
      <trkpt lat="34.081753" lon="110.12388">
        <time>2026-07-22T13:39:50Z</time>
      </trkpt>
      <trkpt lat="34.081811" lon="110.123909">
        <time>2026-07-22T13:39:55Z</time>
      </trkpt>
      <trkpt lat="34.081875" lon="110.123924">
        <time>2026-07-22T13:40:00Z</time>
      </trkpt>
      <trkpt lat="34.081932" lon="110.123925">
        <time>2026-07-22T13:40:05Z</time>
      </trkpt>
      <trkpt lat="34.081992" lon="110.123912">
        <time>2026-07-22T13:40:10Z</time>
      </trkpt>
      <trkpt lat="34.08205" lon="110.123892">
        <time>2026-07-22T13:40:15Z</time>
      </trkpt>
      <trkpt lat="34.082104" lon="110.123873">
        <time>2026-07-22T13:40:20Z</time>
      </trkpt>
      <trkpt lat="34.082161" lon="110.123852">
        <time>2026-07-22T13:40:25Z</time>
      </trkpt>
      <trkpt lat="34.082217" lon="110.123832">
        <time>2026-07-22T13:40:30Z</time>
      </trkpt>
      <trkpt lat="34.082272" lon="110.123813">
        <time>2026-07-22T13:40:35Z</time>
      </trkpt>
      <trkpt lat="34.082327" lon="110.123793">
        <time>2026-07-22T13:40:40Z</time>
      </trkpt>
      <trkpt lat="34.082386" lon="110.123772">
        <time>2026-07-22T13:40:45Z</time>
      </trkpt>
      <trkpt lat="34.082445" lon="110.12375">
        <time>2026-07-22T13:40:50Z</time>
      </trkpt>
      <trkpt lat="34.082503" lon="110.12373">
        <time>2026-07-22T13:40:55Z</time>
      </trkpt>
      <trkpt lat="34.082561" lon="110.123709">
        <time>2026-07-22T13:41:00Z</time>
      </trkpt>
      <trkpt lat="34.082619" lon="110.123688">
        <time>2026-07-22T13:41:05Z</time>
      </trkpt>
      <trkpt lat="34.08267" lon="110.12367">
        <time>2026-07-22T13:41:10Z</time>
      </trkpt>
      <trkpt lat="34.082722" lon="110.123652">
        <time>2026-07-22T13:41:15Z</time>
      </trkpt>
      <trkpt lat="34.082773" lon="110.123631">
        <time>2026-07-22T13:41:20Z</time>
      </trkpt>
      <trkpt lat="34.082818" lon="110.123603">
        <time>2026-07-22T13:41:25Z</time>
      </trkpt>
      <trkpt lat="34.082859" lon="110.123567">
        <time>2026-07-22T13:41:30Z</time>
      </trkpt>
      <trkpt lat="34.0829" lon="110.123516">
        <time>2026-07-22T13:41:35Z</time>
      </trkpt>
      <trkpt lat="34.082956" lon="110.123391">
        <time>2026-07-22T13:41:40Z</time>
      </trkpt>
      <trkpt lat="34.082972" lon="110.123243">
        <time>2026-07-22T13:41:45Z</time>
      </trkpt>
      <trkpt lat="34.082936" lon="110.123086">
        <time>2026-07-22T13:41:50Z</time>
      </trkpt>
      <trkpt lat="34.082847" lon="110.122957">
        <time>2026-07-22T13:41:55Z</time>
      </trkpt>
      <trkpt lat="34.082723" lon="110.122885">
        <time>2026-07-22T13:42:00Z</time>
      </trkpt>
      <trkpt lat="34.082596" lon="110.122879">
        <time>2026-07-22T13:42:05Z</time>
      </trkpt>
      <trkpt lat="34.082472" lon="110.12292">
        <time>2026-07-22T13:42:10Z</time>
      </trkpt>
      <trkpt lat="34.082349" lon="110.122964">
        <time>2026-07-22T13:42:15Z</time>
      </trkpt>
      <trkpt lat="34.082235" lon="110.123005">
        <time>2026-07-22T13:42:20Z</time>
      </trkpt>
      <trkpt lat="34.082118" lon="110.123047">
        <time>2026-07-22T13:42:25Z</time>
      </trkpt>
      <trkpt lat="34.081984" lon="110.123094">
        <time>2026-07-22T13:42:30Z</time>
      </trkpt>
      <trkpt lat="34.081871" lon="110.123135">
        <time>2026-07-22T13:42:35Z</time>
      </trkpt>
      <trkpt lat="34.081755" lon="110.123184">
        <time>2026-07-22T13:42:40Z</time>
      </trkpt>
      <trkpt lat="34.081665" lon="110.123267">
        <time>2026-07-22T13:42:45Z</time>
      </trkpt>
      <trkpt lat="34.081626" lon="110.123332">
        <time>2026-07-22T13:42:50Z</time>
      </trkpt>
      <trkpt lat="34.081603" lon="110.123389">
        <time>2026-07-22T13:42:55Z</time>
      </trkpt>
      <trkpt lat="34.081587" lon="110.123455">
        <time>2026-07-22T13:43:00Z</time>
      </trkpt>
      <trkpt lat="34.08158" lon="110.12353">
        <time>2026-07-22T13:43:05Z</time>
      </trkpt>
      <trkpt lat="34.081586" lon="110.123605">
        <time>2026-07-22T13:43:10Z</time>
      </trkpt>
      <trkpt lat="34.081605" lon="110.123683">
        <time>2026-07-22T13:43:15Z</time>
      </trkpt>
      <trkpt lat="34.081635" lon="110.123751">
        <time>2026-07-22T13:43:20Z</time>
      </trkpt>
      <trkpt lat="34.081675" lon="110.12381">
        <time>2026-07-22T13:43:25Z</time>
      </trkpt>
      <trkpt lat="34.08173" lon="110.123863">
        <time>2026-07-22T13:43:30Z</time>
      </trkpt>
      <trkpt lat="34.081782" lon="110.123897">
        <time>2026-07-22T13:43:35Z</time>
      </trkpt>
      <trkpt lat="34.081837" lon="110.123917">
        <time>2026-07-22T13:43:40Z</time>
      </trkpt>
      <trkpt lat="34.081898" lon="110.123926">
        <time>2026-07-22T13:43:45Z</time>
      </trkpt>
      <trkpt lat="34.081966" lon="110.123919">
        <time>2026-07-22T13:43:50Z</time>
      </trkpt>
      <trkpt lat="34.082023" lon="110.123901">
        <time>2026-07-22T13:43:55Z</time>
      </trkpt>
      <trkpt lat="34.082081" lon="110.123881">
        <time>2026-07-22T13:44:00Z</time>
      </trkpt>
      <trkpt lat="34.082134" lon="110.123862">
        <time>2026-07-22T13:44:05Z</time>
      </trkpt>
      <trkpt lat="34.082188" lon="110.123843">
        <time>2026-07-22T13:44:10Z</time>
      </trkpt>
      <trkpt lat="34.082242" lon="110.123823">
        <time>2026-07-22T13:44:15Z</time>
      </trkpt>
      <trkpt lat="34.082296" lon="110.123804">
        <time>2026-07-22T13:44:20Z</time>
      </trkpt>
      <trkpt lat="34.082353" lon="110.123784">
        <time>2026-07-22T13:44:25Z</time>
      </trkpt>
      <trkpt lat="34.08241" lon="110.123763">
        <time>2026-07-22T13:44:30Z</time>
      </trkpt>
      <trkpt lat="34.082467" lon="110.123743">
        <time>2026-07-22T13:44:35Z</time>
      </trkpt>
      <trkpt lat="34.082526" lon="110.123722">
        <time>2026-07-22T13:44:40Z</time>
      </trkpt>
      <trkpt lat="34.082581" lon="110.123702">
        <time>2026-07-22T13:44:45Z</time>
      </trkpt>
      <trkpt lat="34.082636" lon="110.123682">
        <time>2026-07-22T13:44:50Z</time>
      </trkpt>
      <trkpt lat="34.082691" lon="110.123663">
        <time>2026-07-22T13:44:55Z</time>
      </trkpt>
      <trkpt lat="34.082742" lon="110.123644">
        <time>2026-07-22T13:45:00Z</time>
      </trkpt>
      <trkpt lat="34.08279" lon="110.123621">
        <time>2026-07-22T13:45:05Z</time>
      </trkpt>
      <trkpt lat="34.082829" lon="110.123594">
        <time>2026-07-22T13:45:10Z</time>
      </trkpt>
      <trkpt lat="34.082869" lon="110.123555">
        <time>2026-07-22T13:45:15Z</time>
      </trkpt>
      <trkpt lat="34.082903" lon="110.123511">
        <time>2026-07-22T13:45:20Z</time>
      </trkpt>
      <trkpt lat="34.082929" lon="110.123463">
        <time>2026-07-22T13:45:25Z</time>
      </trkpt>
      <trkpt lat="34.082951" lon="110.123407">
        <time>2026-07-22T13:45:30Z</time>
      </trkpt>
      <trkpt lat="34.082966" lon="110.123342">
        <time>2026-07-22T13:45:35Z</time>
      </trkpt>
      <trkpt lat="34.082972" lon="110.123277">
        <time>2026-07-22T13:45:40Z</time>
      </trkpt>
      <trkpt lat="34.082969" lon="110.123213">
        <time>2026-07-22T13:45:45Z</time>
      </trkpt>
      <trkpt lat="34.082958" lon="110.123154">
        <time>2026-07-22T13:45:53Z</time>
      </trkpt>
    </trkseg>
  </trk>
</gpx>