<?xml version="1.0" encoding="UTF-8"?>
<gpx xmlns="http://www.topografix.com/GPX/1/1" xmlns:gpxtpx="http://www.garmin.com/xmlschemas/TrackPointExtension/v1" xmlns:xsi="http://www.w3.org/2001/XMLSchema-instance" xsi:schemaLocation="http://www.topografix.com/GPX/1/1 http://www.topografix.com/GPX/1/1/gpx.xsd" version="1.1" creator="gpx.py -- https://github.com/tkrajina/gpxpy">
  <trk>
    <name>gpx from joyrun</name>
    <trkseg>
      <trkpt lat="34.082719" lon="110.123659">
        <time>2026-07-27T13:19:08Z</time>
      </trkpt>
      <trkpt lat="34.082817" lon="110.123611">
        <time>2026-07-27T13:19:13Z</time>
      </trkpt>
      <trkpt lat="34.082922" lon="110.12349">
        <time>2026-07-27T13:19:18Z</time>
      </trkpt>
      <trkpt lat="34.082973" lon="110.123328">
        <time>2026-07-27T13:19:23Z</time>
      </trkpt>
      <trkpt lat="34.082963" lon="110.123162">
        <time>2026-07-27T13:19:28Z</time>
      </trkpt>
      <trkpt lat="34.082908" lon="110.123031">
        <time>2026-07-27T13:19:33Z</time>
      </trkpt>
      <trkpt lat="34.082828" lon="110.122942">
        <time>2026-07-27T13:19:38Z</time>
      </trkpt>
      <trkpt lat="34.082704" lon="110.122884">
        <time>2026-07-27T13:19:43Z</time>
      </trkpt>
      <trkpt lat="34.082572" lon="110.12289">
        <time>2026-07-27T13:19:48Z</time>
      </trkpt>
      <trkpt lat="34.082441" lon="110.122935">
        <time>2026-07-27T13:19:53Z</time>
      </trkpt>
      <trkpt lat="34.082309" lon="110.122981">
        <time>2026-07-27T13:19:58Z</time>
      </trkpt>
      <trkpt lat="34.082177" lon="110.123027">
        <time>2026-07-27T13:20:03Z</time>
      </trkpt>
      <trkpt lat="34.082044" lon="110.123073">
        <time>2026-07-27T13:20:08Z</time>
      </trkpt>
      <trkpt lat="34.08191" lon="110.123119">
        <time>2026-07-27T13:20:13Z</time>
      </trkpt>
      <trkpt lat="34.081781" lon="110.123167">
        <time>2026-07-27T13:20:18Z</time>
      </trkpt>
      <trkpt lat="34.081671" lon="110.123259">
        <time>2026-07-27T13:20:23Z</time>
      </trkpt>
      <trkpt lat="34.081599" lon="110.123404">
        <time>2026-07-27T13:20:28Z</time>
      </trkpt>
      <trkpt lat="34.081584" lon="110.123565">
        <time>2026-07-27T13:20:33Z</time>
      </trkpt>
      <trkpt lat="34.081624" lon="110.12372">
        <time>2026-07-27T13:20:38Z</time>
      </trkpt>
      <trkpt lat="34.081704" lon="110.123835">
        <time>2026-07-27T13:20:43Z</time>
      </trkpt>
      <trkpt lat="34.081804" lon="110.123902">
        <time>2026-07-27T13:20:48Z</time>
      </trkpt>
      <trkpt lat="34.08193" lon="110.123922">
        <time>2026-07-27T13:20:53Z</time>
      </trkpt>
      <trkpt lat="34.082057" lon="110.123887">
        <time>2026-07-27T13:20:58Z</time>
      </trkpt>
      <trkpt lat="34.082188" lon="110.123842">
        <time>2026-07-27T13:21:03Z</time>
      </trkpt>
      <trkpt lat="34.082319" lon="110.123796">
        <time>2026-07-27T13:21:08Z</time>
      </trkpt>
      <trkpt lat="34.082443" lon="110.123754">
        <time>2026-07-27T13:21:13Z</time>
      </trkpt>
      <trkpt lat="34.082569" lon="110.12371">
        <time>2026-07-27T13:21:18Z</time>
      </trkpt>
      <trkpt lat="34.082692" lon="110.123668">
        <time>2026-07-27T13:21:23Z</time>
      </trkpt>
      <trkpt lat="34.082802" lon="110.123621">
        <time>2026-07-27T13:21:28Z</time>
      </trkpt>
      <trkpt lat="34.082895" lon="110.123533">
        <time>2026-07-27T13:21:33Z</time>
      </trkpt>
      <trkpt lat="34.082956" lon="110.12341">
        <time>2026-07-27T13:21:38Z</time>
      </trkpt>
      <trkpt lat="34.082977" lon="110.123272">
        <time>2026-07-27T13:21:43Z</time>
      </trkpt>
      <trkpt lat="34.082958" lon="110.123142">
        <time>2026-07-27T13:21:48Z</time>
      </trkpt>
      <trkpt lat="34.082899" lon="110.123018">
        <time>2026-07-27T13:21:53Z</time>
      </trkpt>
      <trkpt lat="34.082795" lon="110.12292">
        <time>2026-07-27T13:21:58Z</time>
      </trkpt>
      <trkpt lat="34.082659" lon="110.122879">
        <time>2026-07-27T13:22:03Z</time>
      </trkpt>
      <trkpt lat="34.082525" lon="110.122907">
        <time>2026-07-27T13:22:08Z</time>
      </trkpt>
      <trkpt lat="34.082404" lon="110.122948">
        <time>2026-07-27T13:22:13Z</time>
      </trkpt>
      <trkpt lat="34.082291" lon="110.122987">
        <time>2026-07-27T13:22:18Z</time>
      </trkpt>
      <trkpt lat="34.082176" lon="110.123027">
        <time>2026-07-27T13:22:23Z</time>
      </trkpt>
      <trkpt lat="34.08206" lon="110.123067">
        <time>2026-07-27T13:22:28Z</time>
      </trkpt>
      <trkpt lat="34.08194" lon="110.123109">
        <time>2026-07-27T13:22:33Z</time>
      </trkpt>
      <trkpt lat="34.081822" lon="110.12315">
        <time>2026-07-27T13:22:38Z</time>
      </trkpt>
      <trkpt lat="34.081704" lon="110.123223">
        <time>2026-07-27T13:22:43Z</time>
      </trkpt>
      <trkpt lat="34.081621" lon="110.123343">
        <time>2026-07-27T13:22:48Z</time>
      </trkpt>
      <trkpt lat="34.081585" lon="110.123483">
        <time>2026-07-27T13:22:53Z</time>
      </trkpt>
      <trkpt lat="34.081589" lon="110.12361">
        <time>2026-07-27T13:22:58Z</time>
      </trkpt>
      <trkpt lat="34.081624" lon="110.123722">
        <time>2026-07-27T13:23:03Z</time>
      </trkpt>
      <trkpt lat="34.081691" lon="110.123822">
        <time>2026-07-27T13:23:08Z</time>
      </trkpt>
      <trkpt lat="34.081783" lon="110.123892">
        <time>2026-07-27T13:23:13Z</time>
      </trkpt>
      <trkpt lat="34.081891" lon="110.123922">
        <time>2026-07-27T13:23:18Z</time>
      </trkpt>
      <trkpt lat="34.082011" lon="110.123903">
        <time>2026-07-27T13:23:23Z</time>
      </trkpt>
      <trkpt lat="34.082139" lon="110.123859">
        <time>2026-07-27T13:23:28Z</time>
      </trkpt>
      <trkpt lat="34.082265" lon="110.123815">
        <time>2026-07-27T13:23:33Z</time>
      </trkpt>
      <trkpt lat="34.082385" lon="110.123774">
        <time>2026-07-27T13:23:38Z</time>
      </trkpt>
      <trkpt lat="34.082509" lon="110.123731">
        <time>2026-07-27T13:23:43Z</time>
      </trkpt>
      <trkpt lat="34.082638" lon="110.123686">
        <time>2026-07-27T13:23:48Z</time>
      </trkpt>
      <trkpt lat="34.082757" lon="110.123644">
        <time>2026-07-27T13:23:53Z</time>
      </trkpt>
      <trkpt lat="34.082861" lon="110.123573">
        <time>2026-07-27T13:23:58Z</time>
      </trkpt>
      <trkpt lat="34.082935" lon="110.123466">
        <time>2026-07-27T13:24:03Z</time>
      </trkpt>
      <trkpt lat="34.082973" lon="110.12333">
        <time>2026-07-27T13:24:08Z</time>
      </trkpt>
      <trkpt lat="34.082969" lon="110.123188">
        <time>2026-07-27T13:24:13Z</time>
      </trkpt>
      <trkpt lat="34.082916" lon="110.123044">
        <time>2026-07-27T13:24:18Z</time>
      </trkpt>
      <trkpt lat="34.082826" lon="110.122941">
        <time>2026-07-27T13:24:23Z</time>
      </trkpt>
      <trkpt lat="34.082704" lon="110.122884">
        <time>2026-07-27T13:24:28Z</time>
      </trkpt>
      <trkpt lat="34.082569" lon="110.122891">
        <time>2026-07-27T13:24:33Z</time>
      </trkpt>
      <trkpt lat="34.082444" lon="110.122934">
        <time>2026-07-27T13:24:38Z</time>
      </trkpt>
      <trkpt lat="34.082331" lon="110.122974">
        <time>2026-07-27T13:24:43Z</time>
      </trkpt>
      <trkpt lat="34.08221" lon="110.123015">
        <time>2026-07-27T13:24:48Z</time>
      </trkpt>
      <trkpt lat="34.082076" lon="110.123062">
        <time>2026-07-27T13:24:53Z</time>
      </trkpt>
      <trkpt lat="34.081952" lon="110.123105">
        <time>2026-07-27T13:24:58Z</time>
      </trkpt>
      <trkpt lat="34.081843" lon="110.123142">
        <time>2026-07-27T13:25:03Z</time>
      </trkpt>
      <trkpt lat="34.081726" lon="110.123203">
        <time>2026-07-27T13:25:08Z</time>
      </trkpt>
      <trkpt lat="34.081636" lon="110.123313">
        <time>2026-07-27T13:25:13Z</time>
      </trkpt>
      <trkpt lat="34.081589" lon="110.123452">
        <time>2026-07-27T13:25:18Z</time>
      </trkpt>
      <trkpt lat="34.081586" lon="110.123589">
        <time>2026-07-27T13:25:23Z</time>
      </trkpt>
      <trkpt lat="34.081623" lon="110.12372">
        <time>2026-07-27T13:25:28Z</time>
      </trkpt>
      <trkpt lat="34.081704" lon="110.123835">
        <time>2026-07-27T13:25:33Z</time>
      </trkpt>
      <trkpt lat="34.08182" lon="110.123908">
        <time>2026-07-27T13:25:38Z</time>
      </trkpt>
      <trkpt lat="34.081947" lon="110.12392">
        <time>2026-07-27T13:25:43Z</time>
      </trkpt>
      <trkpt lat="34.082068" lon="110.123883">
        <time>2026-07-27T13:25:48Z</time>
      </trkpt>
      <trkpt lat="34.082193" lon="110.12384">
        <time>2026-07-27T13:25:53Z</time>
      </trkpt>
      <trkpt lat="34.082305" lon="110.123801">
        <time>2026-07-27T13:25:58Z</time>
      </trkpt>
      <trkpt lat="34.082417" lon="110.123763">
        <time>2026-07-27T13:26:03Z</time>
      </trkpt>
      <trkpt lat="34.082533" lon="110.123722">
        <time>2026-07-27T13:26:08Z</time>
      </trkpt>
      <trkpt lat="34.082652" lon="110.123681">
        <time>2026-07-27T13:26:13Z</time>
      </trkpt>
      <trkpt lat="34.082763" lon="110.123642">
        <time>2026-07-27T13:26:18Z</time>
      </trkpt>
      <trkpt lat="34.082855" lon="110.123579">
        <time>2026-07-27T13:26:23Z</time>
      </trkpt>
      <trkpt lat="34.08293" lon="110.123476">
        <time>2026-07-27T13:26:28Z</time>
      </trkpt>
      <trkpt lat="34.082971" lon="110.123342">
        <time>2026-07-27T13:26:33Z</time>
      </trkpt>
      <trkpt lat="34.082968" lon="110.123182">
        <time>2026-07-27T13:26:38Z</time>
      </trkpt>
      <trkpt lat="34.082914" lon="110.12304">
        <time>2026-07-27T13:26:43Z</time>
      </trkpt>
      <trkpt lat="34.082826" lon="110.122941">
        <time>2026-07-27T13:26:48Z</time>
      </trkpt>
      <trkpt lat="34.082713" lon="110.122886">
        <time>2026-07-27T13:26:53Z</time>
      </trkpt>
      <trkpt lat="34.08263" lon="110.12288">
        <time>2026-07-27T13:26:58Z</time>
      </trkpt>
      <trkpt lat="34.082541" lon="110.122901">
        <time>2026-07-27T13:27:03Z</time>
      </trkpt>
      <trkpt lat="34.082422" lon="110.122942">
        <time>2026-07-27T13:27:08Z</time>
      </trkpt>
      <trkpt lat="34.082295" lon="110.122986">
        <time>2026-07-27T13:27:13Z</time>
      </trkpt>
      <trkpt lat="34.082168" lon="110.12303">
        <time>2026-07-27T13:27:18Z</time>
      </trkpt>
      <trkpt lat="34.08204" lon="110.123074">
        <time>2026-07-27T13:27:23Z</time>
      </trkpt>
      <trkpt lat="34.081921" lon="110.123115">
        <time>2026-07-27T13:27:28Z</time>
      </trkpt>
      <trkpt lat="34.081798" lon="110.123159">
        <time>2026-07-27T13:27:33Z</time>
      </trkpt>
      <trkpt lat="34.081684" lon="110.123243">
        <time>2026-07-27T13:27:38Z</time>
      </trkpt>
      <trkpt lat="34.081616" lon="110.123356">
        <time>2026-07-27T13:27:43Z</time>
      </trkpt>
      <trkpt lat="34.081585" lon="110.123482">
        <time>2026-07-27T13:27:48Z</time>
      </trkpt>
      <trkpt lat="34.081589" lon="110.123605">
        <time>2026-07-27T13:27:53Z</time>
      </trkpt>
      <trkpt lat="34.081629" lon="110.123731">
        <time>2026-07-27T13:27:58Z</time>
      </trkpt>
      <trkpt lat="34.081713" lon="110.123844">
        <time>2026-07-27T13:28:03Z</time>
      </trkpt>
      <trkpt lat="34.081833" lon="110.123912">
        <time>2026-07-27T13:28:08Z</time>
      </trkpt>
      <trkpt lat="34.081955" lon="110.123918">
        <time>2026-07-27T13:28:13Z</time>
      </trkpt>
      <trkpt lat="34.082083" lon="110.123878">
        <time>2026-07-27T13:28:18Z</time>
      </trkpt>
      <trkpt lat="34.082213" lon="110.123833">
        <time>2026-07-27T13:28:23Z</time>
      </trkpt>
      <trkpt lat="34.082336" lon="110.12379">
        <time>2026-07-27T13:28:28Z</time>
      </trkpt>
      <trkpt lat="34.08246" lon="110.123748">
        <time>2026-07-27T13:28:33Z</time>
      </trkpt>
      <trkpt lat="34.082583" lon="110.123705">
        <time>2026-07-27T13:28:38Z</time>
      </trkpt>
      <trkpt lat="34.082704" lon="110.123664">
        <time>2026-07-27T13:28:43Z</time>
      </trkpt>
      <trkpt lat="34.082813" lon="110.123614">
        <time>2026-07-27T13:28:48Z</time>
      </trkpt>
      <trkpt lat="34.082903" lon="110.123521">
        <time>2026-07-27T13:28:53Z</time>
      </trkpt>
      <trkpt lat="34.082958" lon="110.123402">
        <time>2026-07-27T13:28:58Z</time>
      </trkpt>
      <trkpt lat="34.082976" lon="110.123284">
        <time>2026-07-27T13:29:03Z</time>
      </trkpt>
      <trkpt lat="34.082963" lon="110.123161">
        <time>2026-07-27T13:29:08Z</time>
      </trkpt>
      <trkpt lat="34.082916" lon="110.123043">
        <time>2026-07-27T13:29:13Z</time>
      </trkpt>
      <trkpt lat="34.082839" lon="110.122951">
        <time>2026-07-27T13:29:18Z</time>
      </trkpt>
      <trkpt lat="34.082738" lon="110.122893">
        <time>2026-07-27T13:29:23Z</time>
      </trkpt>
      <trkpt lat="34.082617" lon="110.122881">
        <time>2026-07-27T13:29:28Z</time>
      </trkpt>
      <trkpt lat="34.082502" lon="110.122914">
        <time>2026-07-27T13:29:33Z</time>
      </trkpt>
      <trkpt lat="34.08239" lon="110.122953">
        <time>2026-07-27T13:29:38Z</time>
      </trkpt>
      <trkpt lat="34.082298" lon="110.122985">
        <time>2026-07-27T13:29:43Z</time>
      </trkpt>
      <trkpt lat="34.082231" lon="110.123008">
        <time>2026-07-27T13:29:48Z</time>
      </trkpt>
      <trkpt lat="34.08217" lon="110.123029">
        <time>2026-07-27T13:29:53Z</time>
      </trkpt>
      <trkpt lat="34.082107" lon="110.123051">
        <time>2026-07-27T13:29:58Z</time>
      </trkpt>
      <trkpt lat="34.08205" lon="110.123071">
        <time>2026-07-27T13:30:03Z</time>
      </trkpt>
      <trkpt lat="34.081991" lon="110.123091">
        <time>2026-07-27T13:30:08Z</time>
      </trkpt>
      <trkpt lat="34.081926" lon="110.123114">
        <time>2026-07-27T13:30:13Z</time>
      </trkpt>
      <trkpt lat="34.081863" lon="110.123136">
        <time>2026-07-27T13:30:18Z</time>
      </trkpt>
      <trkpt lat="34.081778" lon="110.123168">
        <time>2026-07-27T13:30:23Z</time>
      </trkpt>
      <trkpt lat="34.081667" lon="110.123264">
        <time>2026-07-27T13:30:28Z</time>
      </trkpt>
      <trkpt lat="34.081596" lon="110.123415">
        <time>2026-07-27T13:30:33Z</time>
      </trkpt>
      <trkpt lat="34.081585" lon="110.123575">
        <time>2026-07-27T13:30:38Z</time>
      </trkpt>
      <trkpt lat="34.081625" lon="110.123723">
        <time>2026-07-27T13:30:43Z</time>
      </trkpt>
      <trkpt lat="34.081712" lon="110.123843">
        <time>2026-07-27T13:30:48Z</time>
      </trkpt>
      <trkpt lat="34.08183" lon="110.123911">
        <time>2026-07-27T13:30:53Z</time>
      </trkpt>
      <trkpt lat="34.081961" lon="110.123917">
        <time>2026-07-27T13:30:58Z</time>
      </trkpt>
      <trkpt lat="34.082087" lon="110.123877">
        <time>2026-07-27T13:31:03Z</time>
      </trkpt>
      <trkpt lat="34.082206" lon="110.123836">
        <time>2026-07-27T13:31:08Z</time>
      </trkpt>
      <trkpt lat="34.082324" lon="110.123795">
        <time>2026-07-27T13:31:13Z</time>
      </trkpt>
      <trkpt lat="34.082449" lon="110.123751">
        <time>2026-07-27T13:31:18Z</time>
      </trkpt>
      <trkpt lat="34.082577" lon="110.123707">
        <time>2026-07-27T13:31:23Z</time>
      </trkpt>
      <trkpt lat="34.082698" lon="110.123666">
        <time>2026-07-27T13:31:28Z</time>
      </trkpt>
      <trkpt lat="34.082811" lon="110.123615">
        <time>2026-07-27T13:31:33Z</time>
      </trkpt>
      <trkpt lat="34.082899" lon="110.123528">
        <time>2026-07-27T13:31:38Z</time>
      </trkpt>
      <trkpt lat="34.082956" lon="110.123412">
        <time>2026-07-27T13:31:43Z</time>
      </trkpt>
      <trkpt lat="34.082977" lon="110.123279">
        <time>2026-07-27T13:31:48Z</time>
      </trkpt>
      <trkpt lat="34.082956" lon="110.123133">
        <time>2026-07-27T13:31:53Z</time>
      </trkpt>
      <trkpt lat="34.082892" lon="110.123007">
        <time>2026-07-27T13:31:58Z</time>
      </trkpt>
      <trkpt lat="34.082795" lon="110.122919">
        <time>2026-07-27T13:32:03Z</time>
      </trkpt>
      <trkpt lat="34.082671" lon="110.12288">
        <time>2026-07-27T13:32:08Z</time>
      </trkpt>
      <trkpt lat="34.08255" lon="110.122898">
        <time>2026-07-27T13:32:13Z</time>
      </trkpt>
      <trkpt lat="34.082451" lon="110.122932">
        <time>2026-07-27T13:32:18Z</time>
      </trkpt>
      <trkpt lat="34.082355" lon="110.122965">
        <time>2026-07-27T13:32:23Z</time>
      </trkpt>
      <trkpt lat="34.082256" lon="110.123">
        <time>2026-07-27T13:32:28Z</time>
      </trkpt>
      <trkpt lat="34.082153" lon="110.123035">
        <time>2026-07-27T13:32:33Z</time>
      </trkpt>
      <trkpt lat="34.082045" lon="110.123072">
        <time>2026-07-27T13:32:38Z</time>
      </trkpt>
      <trkpt lat="34.081934" lon="110.12311">
        <time>2026-07-27T13:32:43Z</time>
      </trkpt>
      <trkpt lat="34.081821" lon="110.12315">
        <time>2026-07-27T13:32:48Z</time>
      </trkpt>
      <trkpt lat="34.081717" lon="110.12321">
        <time>2026-07-27T13:32:53Z</time>
      </trkpt>
      <trkpt lat="34.081636" lon="110.123313">
        <time>2026-07-27T13:32:58Z</time>
      </trkpt>
      <trkpt lat="34.08159" lon="110.123446">
        <time>2026-07-27T13:33:03Z</time>
      </trkpt>
      <trkpt lat="34.081587" lon="110.123592">
        <time>2026-07-27T13:33:08Z</time>
      </trkpt>
      <trkpt lat="34.081623" lon="110.123719">
        <time>2026-07-27T13:33:13Z</time>
      </trkpt>
      <trkpt lat="34.081697" lon="110.123828">
        <time>2026-07-27T13:33:18Z</time>
      </trkpt>
      <trkpt lat="34.081818" lon="110.123907">
        <time>2026-07-27T13:33:23Z</time>
      </trkpt>
      <trkpt lat="34.081944" lon="110.12392">
        <time>2026-07-27T13:33:28Z</time>
      </trkpt>
      <trkpt lat="34.082047" lon="110.12389">
        <time>2026-07-27T13:33:33Z</time>
      </trkpt>
      <trkpt lat="34.08211" lon="110.123869">
        <time>2026-07-27T13:33:38Z</time>
      </trkpt>
      <trkpt lat="34.082168" lon="110.123849">
        <time>2026-07-27T13:33:43Z</time>
      </trkpt>
      <trkpt lat="34.082228" lon="110.123828">
        <time>2026-07-27T13:33:48Z</time>
      </trkpt>
      <trkpt lat="34.082288" lon="110.123807">
        <time>2026-07-27T13:33:53Z</time>
      </trkpt>
      <trkpt lat="34.082347" lon="110.123787">
        <time>2026-07-27T13:33:58Z</time>
      </trkpt>
      <trkpt lat="34.082405" lon="110.123767">
        <time>2026-07-27T13:34:03Z</time>
      </trkpt>
      <trkpt lat="34.082464" lon="110.123746">
        <time>2026-07-27T13:34:08Z</time>
      </trkpt>
      <trkpt lat="34.082522" lon="110.123726">
        <time>2026-07-27T13:34:13Z</time>
      </trkpt>
      <trkpt lat="34.082577" lon="110.123707">
        <time>2026-07-27T13:34:18Z</time>
      </trkpt>
      <trkpt lat="34.082635" lon="110.123688">
        <time>2026-07-27T13:34:23Z</time>
      </trkpt>
      <trkpt lat="34.08269" lon="110.123668">
        <time>2026-07-27T13:34:28Z</time>
      </trkpt>
      <trkpt lat="34.082792" lon="110.123627">
        <time>2026-07-27T13:34:33Z</time>
      </trkpt>
      <trkpt lat="34.082901" lon="110.123525">
        <time>2026-07-27T13:34:38Z</time>
      </trkpt>
      <trkpt lat="34.082965" lon="110.123377">
        <time>2026-07-27T13:34:43Z</time>
      </trkpt>
      <trkpt lat="34.082975" lon="110.12323">
        <time>2026-07-27T13:34:48Z</time>
      </trkpt>
      <trkpt lat="34.082937" lon="110.123085">
        <time>2026-07-27T13:34:53Z</time>
      </trkpt>
      <trkpt lat="34.082857" lon="110.122968">
        <time>2026-07-27T13:34:58Z</time>
      </trkpt>
      <trkpt lat="34.082746" lon="110.122896">
        <time>2026-07-27T13:35:03Z</time>
      </trkpt>
      <trkpt lat="34.082623" lon="110.12288">
        <time>2026-07-27T13:35:08Z</time>
      </trkpt>
      <trkpt lat="34.082496" lon="110.122916">
        <time>2026-07-27T13:35:13Z</time>
      </trkpt>
      <trkpt lat="34.082374" lon="110.122959">
        <time>2026-07-27T13:35:18Z</time>
      </trkpt>
      <trkpt lat="34.082265" lon="110.122996">
        <time>2026-07-27T13:35:23Z</time>
      </trkpt>
      <trkpt lat="34.082156" lon="110.123034">
        <time>2026-07-27T13:35:28Z</time>
      </trkpt>
      <trkpt lat="34.082087" lon="110.123058">
        <time>2026-07-27T13:35:33Z</time>
      </trkpt>
      <trkpt lat="34.082036" lon="110.123076">
        <time>2026-07-27T13:35:38Z</time>
      </trkpt>
      <trkpt lat="34.081986" lon="110.123093">
        <time>2026-07-27T13:35:43Z</time>
      </trkpt>
      <trkpt lat="34.081934" lon="110.123111">
        <time>2026-07-27T13:35:48Z</time>
      </trkpt>
      <trkpt lat="34.08188" lon="110.12313">
        <time>2026-07-27T13:35:53Z</time>
      </trkpt>
      <trkpt lat="34.081824" lon="110.123149">
        <time>2026-07-27T13:35:58Z</time>
      </trkpt>
      <trkpt lat="34.081721" lon="110.123206">
        <time>2026-07-27T13:36:03Z</time>
      </trkpt>
      <trkpt lat="34.081632" lon="110.12332">
        <time>2026-07-27T13:36:08Z</time>
      </trkpt>
      <trkpt lat="34.081586" lon="110.12347">
        <time>2026-07-27T13:36:13Z</time>
      </trkpt>
      <trkpt lat="34.081593" lon="110.12363">
        <time>2026-07-27T13:36:18Z</time>
      </trkpt>
      <trkpt lat="34.081652" lon="110.123772">
        <time>2026-07-27T13:36:23Z</time>
      </trkpt>
      <trkpt lat="34.081761" lon="110.12388">
        <time>2026-07-27T13:36:28Z</time>
      </trkpt>
      <trkpt lat="34.081882" lon="110.123921">
        <time>2026-07-27T13:36:33Z</time>
      </trkpt>
      <trkpt lat="34.081975" lon="110.123914">
        <time>2026-07-27T13:36:38Z</time>
      </trkpt>
      <trkpt lat="34.082033" lon="110.123895">
        <time>2026-07-27T13:36:43Z</time>
      </trkpt>
      <trkpt lat="34.082081" lon="110.123879">
        <time>2026-07-27T13:36:48Z</time>
      </trkpt>
      <trkpt lat="34.082134" lon="110.12386">
        <time>2026-07-27T13:36:53Z</time>
      </trkpt>
      <trkpt lat="34.082189" lon="110.123841">
        <time>2026-07-27T13:36:58Z</time>
      </trkpt>
      <trkpt lat="34.082248" lon="110.123821">
        <time>2026-07-27T13:37:03Z</time>
      </trkpt>
      <trkpt lat="34.08231" lon="110.1238">
        <time>2026-07-27T13:37:08Z</time>
      </trkpt>
      <trkpt lat="34.082372" lon="110.123779">
        <time>2026-07-27T13:37:13Z</time>
      </trkpt>
      <trkpt lat="34.082435" lon="110.123757">
        <time>2026-07-27T13:37:18Z</time>
      </trkpt>
      <trkpt lat="34.082491" lon="110.123737">
        <time>2026-07-27T13:37:23Z</time>
      </trkpt>
      <trkpt lat="34.082548" lon="110.123717">
        <time>2026-07-27T13:37:28Z</time>
      </trkpt>
      <trkpt lat="34.08261" lon="110.123696">
        <time>2026-07-27T13:37:33Z</time>
      </trkpt>
      <trkpt lat="34.082666" lon="110.123677">
        <time>2026-07-27T13:37:38Z</time>
      </trkpt>
      <trkpt lat="34.082724" lon="110.123657">
        <time>2026-07-27T13:37:43Z</time>
      </trkpt>
      <trkpt lat="34.082802" lon="110.123621">
        <time>2026-07-27T13:37:48Z</time>
      </trkpt>
      <trkpt lat="34.082895" lon="110.123533">
        <time>2026-07-27T13:37:53Z</time>
      </trkpt>
      <trkpt lat="34.082955" lon="110.123412">
        <time>2026-07-27T13:37:58Z</time>
      </trkpt>
      <trkpt lat="34.082977" lon="110.123275">
        <time>2026-07-27T13:38:03Z</time>
      </trkpt>
      <trkpt lat="34.082955" lon="110.123131">
        <time>2026-07-27T13:38:08Z</time>
      </trkpt>
      <trkpt lat="34.082899" lon="110.123017">
        <time>2026-07-27T13:38:13Z</time>
      </trkpt>
      <trkpt lat="34.082814" lon="110.122932">
        <time>2026-07-27T13:38:18Z</time>
      </trkpt>
      <trkpt lat="34.082689" lon="110.122882">
        <time>2026-07-27T13:38:23Z</time>
      </trkpt>
      <trkpt lat="34.082565" lon="110.122893">
        <time>2026-07-27T13:38:28Z</time>
      </trkpt>
      <trkpt lat="34.082437" lon="110.122937">
        <time>2026-07-27T13:38:33Z</time>
      </trkpt>
      <trkpt lat="34.082309" lon="110.122981">
        <time>2026-07-27T13:38:38Z</time>
      </trkpt>
      <trkpt lat="34.082192" lon="110.123021">
        <time>2026-07-27T13:38:43Z</time>
      </trkpt>
      <trkpt lat="34.08208" lon="110.12306">
        <time>2026-07-27T13:38:48Z</time>
      </trkpt>
      <trkpt lat="34.081974" lon="110.123097">
        <time>2026-07-27T13:38:53Z</time>
      </trkpt>
      <trkpt lat="34.081878" lon="110.12313">
        <time>2026-07-27T13:38:58Z</time>
      </trkpt>
      <trkpt lat="34.081772" lon="110.123172">
        <time>2026-07-27T13:39:03Z</time>
      </trkpt>
      <trkpt lat="34.081678" lon="110.12325">
        <time>2026-07-27T13:39:08Z</time>
      </trkpt>
      <trkpt lat="34.081612" lon="110.123366">
        <time>2026-07-27T13:39:13Z</time>
      </trkpt>
      <trkpt lat="34.081584" lon="110.123486">
        <time>2026-07-27T13:39:18Z</time>
      </trkpt>
      <trkpt lat="34.081589" lon="110.123606">
        <time>2026-07-27T13:39:23Z</time>
      </trkpt>
      <trkpt lat="34.081637" lon="110.123747">
        <time>2026-07-27T13:39:28Z</time>
      </trkpt>
      <trkpt lat="34.081728" lon="110.123857">
        <time>2026-07-27T13:39:33Z</time>
      </trkpt>
      <trkpt lat="34.08183" lon="110.123911">
        <time>2026-07-27T13:39:38Z</time>
      </trkpt>
      <trkpt lat="34.081901" lon="110.123922">
        <time>2026-07-27T13:39:43Z</time>
      </trkpt>
      <trkpt lat="34.08201" lon="110.123903">
        <time>2026-07-27T13:39:48Z</time>
      </trkpt>
      <trkpt lat="34.082134" lon="110.123861">
        <time>2026-07-27T13:39:53Z</time>
      </trkpt>
      <trkpt lat="34.082255" lon="110.123819">
        <time>2026-07-27T13:39:58Z</time>
      </trkpt>
      <trkpt lat="34.082378" lon="110.123776">
        <time>2026-07-27T13:40:03Z</time>
      </trkpt>
      <trkpt lat="34.082502" lon="110.123733">
        <time>2026-07-27T13:40:08Z</time>
      </trkpt>
      <trkpt lat="34.082617" lon="110.123694">
        <time>2026-07-27T13:40:13Z</time>
      </trkpt>
      <trkpt lat="34.08273" lon="110.123655">
        <time>2026-07-27T13:40:18Z</time>
      </trkpt>
      <trkpt lat="34.082845" lon="110.123589">
        <time>2026-07-27T13:40:23Z</time>
      </trkpt>
      <trkpt lat="34.082927" lon="110.123481">
        <time>2026-07-27T13:40:28Z</time>
      </trkpt>
      <trkpt lat="34.082966" lon="110.123373">
        <time>2026-07-27T13:40:33Z</time>
      </trkpt>
      <trkpt lat="34.082976" lon="110.123301">
        <time>2026-07-27T13:40:38Z</time>
      </trkpt>
      <trkpt lat="34.082975" lon="110.123233">
        <time>2026-07-27T13:40:43Z</time>
      </trkpt>
      <trkpt lat="34.082964" lon="110.123166">
        <time>2026-07-27T13:40:48Z</time>
      </trkpt>
      <trkpt lat="34.082943" lon="110.1231">
        <time>2026-07-27T13:40:53Z</time>
      </trkpt>
      <trkpt lat="34.082911" lon="110.123037">
        <time>2026-07-27T13:40:58Z</time>
      </trkpt>
      <trkpt lat="34.082868" lon="110.122979">
        <time>2026-07-27T13:41:03Z</time>
      </trkpt>
      <trkpt lat="34.08281" lon="110.12293">
        <time>2026-07-27T13:41:08Z</time>
      </trkpt>
      <trkpt lat="34.082753" lon="110.122899">
        <time>2026-07-27T13:41:13Z</time>
      </trkpt>
      <trkpt lat="34.08269" lon="110.122882">
        <time>2026-07-27T13:41:18Z</time>
      </trkpt>
      <trkpt lat="34.082627" lon="110.12288">
        <time>2026-07-27T13:41:23Z</time>
      </trkpt>
      <trkpt lat="34.082568" lon="110.122892">
        <time>2026-07-27T13:41:28Z</time>
      </trkpt>
      <trkpt lat="34.08251" lon="110.122912">
        <time>2026-07-27T13:41:33Z</time>
      </trkpt>
      <trkpt lat="34.082452" lon="110.122932">
        <time>2026-07-27T13:41:38Z</time>
      </trkpt>
      <trkpt lat="34.082397" lon="110.122951">
        <time>2026-07-27T13:41:43Z</time>
      </trkpt>
      <trkpt lat="34.082341" lon="110.12297">
        <time>2026-07-27T13:41:48Z</time>
      </trkpt>
      <trkpt lat="34.082285" lon="110.12299">
        <time>2026-07-27T13:41:53Z</time>
      </trkpt>
      <trkpt lat="34.082229" lon="110.123009">
        <time>2026-07-27T13:41:58Z</time>
      </trkpt>
      <trkpt lat="34.082179" lon="110.123026">
        <time>2026-07-27T13:42:03Z</time>
      </trkpt>
      <trkpt lat="34.082125" lon="110.123045">
        <time>2026-07-27T13:42:08Z</time>
      </trkpt>
      <trkpt lat="34.082063" lon="110.123066">
        <time>2026-07-27T13:42:13Z</time>
      </trkpt>
      <trkpt lat="34.082005" lon="110.123086">
        <time>2026-07-27T13:42:18Z</time>
      </trkpt>
      <trkpt lat="34.081948" lon="110.123106">
        <time>2026-07-27T13:42:23Z</time>
      </trkpt>
      <trkpt lat="34.081902" lon="110.123122">
        <time>2026-07-27T13:42:28Z</time>
      </trkpt>
      <trkpt lat="34.081856" lon="110.123138">
        <time>2026-07-27T13:42:33Z</time>
      </trkpt>
      <trkpt lat="34.081835" lon="110.123145">
        <time>2026-07-27T13:42:38Z</time>
      </trkpt>
      <trkpt lat="34.081805" lon="110.123156">
        <time>2026-07-27T13:42:43Z</time>
      </trkpt>
      <trkpt lat="34.081707" lon="110.12322">
        <time>2026-07-27T13:42:48Z</time>
      </trkpt>
      <trkpt lat="34.081627" lon="110.123331">
        <time>2026-07-27T13:42:53Z</time>
      </trkpt>
      <trkpt lat="34.081587" lon="110.123463">
        <time>2026-07-27T13:42:58Z</time>
      </trkpt>
      <trkpt lat="34.081587" lon="110.123594">
        <time>2026-07-27T13:43:03Z</time>
      </trkpt>
      <trkpt lat="34.081625" lon="110.123723">
        <time>2026-07-27T13:43:08Z</time>
      </trkpt>
      <trkpt lat="34.081704" lon="110.123835">
        <time>2026-07-27T13:43:13Z</time>
      </trkpt>
      <trkpt lat="34.081817" lon="110.123907">
        <time>2026-07-27T13:43:18Z</time>
      </trkpt>
      <trkpt lat="34.08194" lon="110.123921">
        <time>2026-07-27T13:43:23Z</time>
      </trkpt>
      <trkpt lat="34.082065" lon="110.123884">
        <time>2026-07-27T13:43:28Z</time>
      </trkpt>
      <trkpt lat="34.082198" lon="110.123838">
        <time>2026-07-27T13:43:33Z</time>
      </trkpt>
      <trkpt lat="34.082335" lon="110.123791">
        <time>2026-07-27T13:43:38Z</time>
      </trkpt>
      <trkpt lat="34.082467" lon="110.123746">
        <time>2026-07-27T13:43:43Z</time>
      </trkpt>
      <trkpt lat="34.082587" lon="110.123704">
        <time>2026-07-27T13:43:48Z</time>
      </trkpt>
      <trkpt lat="34.082713" lon="110.123661">
        <time>2026-07-27T13:43:53Z</time>
      </trkpt>
      <trkpt lat="34.082836" lon="110.123596">
        <time>2026-07-27T13:43:58Z</time>
      </trkpt>
      <trkpt lat="34.082925" lon="110.123486">
        <time>2026-07-27T13:44:03Z</time>
      </trkpt>
      <trkpt lat="34.08297" lon="110.12335">
        <time>2026-07-27T13:44:08Z</time>
      </trkpt>
      <trkpt lat="34.082973" lon="110.123211">
        <time>2026-07-27T13:44:13Z</time>
      </trkpt>
      <trkpt lat="34.082937" lon="110.123084">
        <time>2026-07-27T13:44:18Z</time>
      </trkpt>
      <trkpt lat="34.082858" lon="110.122968">
        <time>2026-07-27T13:44:23Z</time>
      </trkpt>
      <trkpt lat="34.082732" lon="110.122891">
        <time>2026-07-27T13:44:28Z</time>
      </trkpt>
      <trkpt lat="34.082602" lon="110.122883">
        <time>2026-07-27T13:44:33Z</time>
      </trkpt>
      <trkpt lat="34.082478" lon="110.122923">
        <time>2026-07-27T13:44:38Z</time>
      </trkpt>
      <trkpt lat="34.082355" lon="110.122965">
        <time>2026-07-27T13:44:43Z</time>
      </trkpt>
      <trkpt lat="34.082247" lon="110.123003">
        <time>2026-07-27T13:44:48Z</time>
      </trkpt>
      <trkpt lat="34.08213" lon="110.123043">
        <time>2026-07-27T13:44:53Z</time>
      </trkpt>
      <trkpt lat="34.082007" lon="110.123086">
        <time>2026-07-27T13:44:58Z</time>
      </trkpt>
      <trkpt lat="34.081888" lon="110.123127">
        <time>2026-07-27T13:45:03Z</time>
      </trkpt>
      <trkpt lat="34.081773" lon="110.123171">
        <time>2026-07-27T13:45:08Z</time>
      </trkpt>
      <trkpt lat="34.081677" lon="110.123253">
        <time>2026-07-27T13:45:13Z</time>
      </trkpt>
      <trkpt lat="34.081625" lon="110.123336">
        <time>2026-07-27T13:45:18Z</time>
      </trkpt>
      <trkpt lat="34.081601" lon="110.1234">
        <time>2026-07-27T13:45:23Z</time>
      </trkpt>
      <trkpt lat="34.081587" lon="110.123466">
        <time>2026-07-27T13:45:28Z</time>
      </trkpt>
      <trkpt lat="34.081583" lon="110.123539">
        <time>2026-07-27T13:45:33Z</time>
      </trkpt>
      <trkpt lat="34.08159" lon="110.123612">
        <time>2026-07-27T13:45:38Z</time>
      </trkpt>
      <trkpt lat="34.08161" lon="110.123685">
        <time>2026-07-27T13:45:43Z</time>
      </trkpt>
      <trkpt lat="34.081637" lon="110.123747">
        <time>2026-07-27T13:45:48Z</time>
      </trkpt>
      <trkpt lat="34.081675" lon="110.123804">
        <time>2026-07-27T13:45:53Z</time>
      </trkpt>
      <trkpt lat="34.081752" lon="110.123874">
        <time>2026-07-27T13:45:58Z</time>
      </trkpt>
      <trkpt lat="34.081887" lon="110.123922">
        <time>2026-07-27T13:46:03Z</time>
      </trkpt>
      <trkpt lat="34.08203" lon="110.123896">
        <time>2026-07-27T13:46:08Z</time>
      </trkpt>
      <trkpt lat="34.082157" lon="110.123853">
        <time>2026-07-27T13:46:13Z</time>
      </trkpt>
      <trkpt lat="34.082267" lon="110.123815">
        <time>2026-07-27T13:46:18Z</time>
      </trkpt>
      <trkpt lat="34.082332" lon="110.123792">
        <time>2026-07-27T13:46:23Z</time>
      </trkpt>
      <trkpt lat="34.082393" lon="110.123771">
        <time>2026-07-27T13:46:28Z</time>
      </trkpt>
      <trkpt lat="34.082455" lon="110.12375">
        <time>2026-07-27T13:46:33Z</time>
      </trkpt>
      <trkpt lat="34.082514" lon="110.12373">
        <time>2026-07-27T13:46:38Z</time>
      </trkpt>
      <trkpt lat="34.082576" lon="110.123708">
        <time>2026-07-27T13:46:43Z</time>
      </trkpt>
      <trkpt lat="34.082636" lon="110.123687">
        <time>2026-07-27T13:46:48Z</time>
      </trkpt>
      <trkpt lat="34.082693" lon="110.123668">
        <time>2026-07-27T13:46:53Z</time>
      </trkpt>
      <trkpt lat="34.082767" lon="110.12364">
        <time>2026-07-27T13:46:58Z</time>
      </trkpt>
      <trkpt lat="34.082883" lon="110.123549">
        <time>2026-07-27T13:47:03Z</time>
      </trkpt>
      <trkpt lat="34.08296" lon="110.123399">
        <time>2026-07-27T13:47:08Z</time>
      </trkpt>
      <trkpt lat="34.082975" lon="110.123233">
        <time>2026-07-27T13:47:13Z</time>
      </trkpt>
      <trkpt lat="34.082936" lon="110.123081">
        <time>2026-07-27T13:47:18Z</time>
      </trkpt>
      <trkpt lat="34.082844" lon="110.122955">
        <time>2026-07-27T13:47:23Z</time>
      </trkpt>
      <trkpt lat="34.082715" lon="110.122886">
        <time>2026-07-27T13:47:28Z</time>
      </trkpt>
      <trkpt lat="34.082577" lon="110.122889">
        <time>2026-07-27T13:47:33Z</time>
      </trkpt>
      <trkpt lat="34.082444" lon="110.122935">
        <time>2026-07-27T13:47:38Z</time>
      </trkpt>
      <trkpt lat="34.082307" lon="110.122982">
        <time>2026-07-27T13:47:43Z</time>
      </trkpt>
      <trkpt lat="34.082172" lon="110.123029">
        <time>2026-07-27T13:47:48Z</time>
      </trkpt>
      <trkpt lat="34.082033" lon="110.123077">
        <time>2026-07-27T13:47:53Z</time>
      </trkpt>
      <trkpt lat="34.081906" lon="110.12312">
        <time>2026-07-27T13:47:58Z</time>
      </trkpt>
      <trkpt lat="34.081823" lon="110.123149">
        <time>2026-07-27T13:48:03Z</time>
      </trkpt>
      <trkpt lat="34.081761" lon="110.123178">
        <time>2026-07-27T13:48:08Z</time>
      </trkpt>
      <trkpt lat="34.08167" lon="110.123261">
        <time>2026-07-27T13:48:13Z</time>
      </trkpt>
      <trkpt lat="34.081602" lon="110.123395">
        <time>2026-07-27T13:48:18Z</time>
      </trkpt>
      <trkpt lat="34.081583" lon="110.123529">
        <time>2026-07-27T13:48:23Z</time>
      </trkpt>
      <trkpt lat="34.081607" lon="110.123679">
        <time>2026-07-27T13:48:28Z</time>
      </trkpt>
      <trkpt lat="34.081685" lon="110.123815">
        <time>2026-07-27T13:48:33Z</time>
      </trkpt>
      <trkpt lat="34.081809" lon="110.123904">
        <time>2026-07-27T13:48:38Z</time>
      </trkpt>
      <trkpt lat="34.081945" lon="110.12392">
        <time>2026-07-27T13:48:43Z</time>
      </trkpt>
      <trkpt lat="34.082071" lon="110.123882">
        <time>2026-07-27T13:48:48Z</time>
      </trkpt>
      <trkpt lat="34.08219" lon="110.123841">
        <time>2026-07-27T13:48:53Z</time>
      </trkpt>
      <trkpt lat="34.082315" lon="110.123798">
        <time>2026-07-27T13:48:58Z</time>
      </trkpt>
      <trkpt lat="34.082437" lon="110.123756">
        <time>2026-07-27T13:49:03Z</time>
      </trkpt>
      <trkpt lat="34.082557" lon="110.123715">
        <time>2026-07-27T13:49:08Z</time>
      </trkpt>
      <trkpt lat="34.082671" lon="110.123675">
        <time>2026-07-27T13:49:13Z</time>
      </trkpt>
      <trkpt lat="34.082786" lon="110.123631">
        <time>2026-07-27T13:49:18Z</time>
      </trkpt>
      <trkpt lat="34.082886" lon="110.123545">
        <time>2026-07-27T13:49:23Z</time>
      </trkpt>
      <trkpt lat="34.082951" lon="110.123424">
        <time>2026-07-27T13:49:28Z</time>
      </trkpt>
      <trkpt lat="34.082977" lon="110.12328">
        <time>2026-07-27T13:49:33Z</time>
      </trkpt>
      <trkpt lat="34.082952" lon="110.123123">
        <time>2026-07-27T13:49:38Z</time>
      </trkpt>
      <trkpt lat="34.082878" lon="110.12299">
        <time>2026-07-27T13:49:43Z</time>
      </trkpt>
      <trkpt lat="34.08276" lon="110.122901">
        <time>2026-07-27T13:49:48Z</time>
      </trkpt>
      <trkpt lat="34.082631" lon="110.122879">
        <time>2026-07-27T13:49:53Z</time>
      </trkpt>
      <trkpt lat="34.082496" lon="110.122917">
        <time>2026-07-27T13:49:58Z</time>
      </trkpt>
      <trkpt lat="34.082362" lon="110.122963">
        <time>2026-07-27T13:50:03Z</time>
      </trkpt>
      <trkpt lat="34.082272" lon="110.122994">
        <time>2026-07-27T13:50:08Z</time>
      </trkpt>
      <trkpt lat="34.08221" lon="110.123015">
        <time>2026-07-27T13:50:13Z</time>
      </trkpt>
      <trkpt lat="34.082147" lon="110.123037">
        <time>2026-07-27T13:50:18Z</time>
      </trkpt>
      <trkpt lat="34.082087" lon="110.123058">
        <time>2026-07-27T13:50:23Z</time>
      </trkpt>
      <trkpt lat="34.08203" lon="110.123078">
        <time>2026-07-27T13:50:28Z</time>
      </trkpt>
      <trkpt lat="34.081976" lon="110.123096">
        <time>2026-07-27T13:50:33Z</time>
      </trkpt>
      <trkpt lat="34.081923" lon="110.123115">
        <time>2026-07-27T13:50:38Z</time>
      </trkpt>
      <trkpt lat="34.081869" lon="110.123133">
        <time>2026-07-27T13:50:43Z</time>
      </trkpt>
      <trkpt lat="34.081816" lon="110.123151">
        <time>2026-07-27T13:50:48Z</time>
      </trkpt>
      <trkpt lat="34.081743" lon="110.12319">
        <time>2026-07-27T13:50:53Z</time>
      </trkpt>
      <trkpt lat="34.081678" lon="110.123251">
        <time>2026-07-27T13:50:58Z</time>
      </trkpt>
      <trkpt lat="34.081636" lon="110.123314">
        <time>2026-07-27T13:51:03Z</time>
      </trkpt>
      <trkpt lat="34.081609" lon="110.123375">
        <time>2026-07-27T13:51:08Z</time>
      </trkpt>
      <trkpt lat="34.081591" lon="110.123442">
        <time>2026-07-27T13:51:13Z</time>
      </trkpt>
      <trkpt lat="34.081583" lon="110.123515">
        <time>2026-07-27T13:51:18Z</time>
      </trkpt>
      <trkpt lat="34.081586" lon="110.123588">
        <time>2026-07-27T13:51:23Z</time>
      </trkpt>
      <trkpt lat="34.081604" lon="110.12367">
        <time>2026-07-27T13:51:28Z</time>
      </trkpt>
      <trkpt lat="34.081634" lon="110.123741">
        <time>2026-07-27T13:51:33Z</time>
      </trkpt>
      <trkpt lat="34.081673" lon="110.1238">
        <time>2026-07-27T13:51:38Z</time>
      </trkpt>
      <trkpt lat="34.081717" lon="110.123847">
        <time>2026-07-27T13:51:43Z</time>
      </trkpt>
      <trkpt lat="34.081765" lon="110.123882">
        <time>2026-07-27T13:51:48Z</time>
      </trkpt>
      <trkpt lat="34.081817" lon="110.123906">
        <time>2026-07-27T13:51:53Z</time>
      </trkpt>
      <trkpt lat="34.081895" lon="110.123922">
        <time>2026-07-27T13:51:58Z</time>
      </trkpt>
      <trkpt lat="34.082028" lon="110.123897">
        <time>2026-07-27T13:52:03Z</time>
      </trkpt>
      <trkpt lat="34.082161" lon="110.123851">
        <time>2026-07-27T13:52:08Z</time>
      </trkpt>
      <trkpt lat="34.08229" lon="110.123807">
        <time>2026-07-27T13:52:13Z</time>
      </trkpt>
      <trkpt lat="34.082417" lon="110.123762">
        <time>2026-07-27T13:52:18Z</time>
      </trkpt>
      <trkpt lat="34.082539" lon="110.12372">
        <time>2026-07-27T13:52:23Z</time>
      </trkpt>
      <trkpt lat="34.082636" lon="110.123687">
        <time>2026-07-27T13:52:28Z</time>
      </trkpt>
      <trkpt lat="34.082691" lon="110.123668">
        <time>2026-07-27T13:52:33Z</time>
      </trkpt>
      <trkpt lat="34.082742" lon="110.12365">
        <time>2026-07-27T13:52:38Z</time>
      </trkpt>
      <trkpt lat="34.082793" lon="110.123627">
        <time>2026-07-27T13:52:43Z</time>
      </trkpt>
      <trkpt lat="34.082839" lon="110.123594">
        <time>2026-07-27T13:52:48Z</time>
      </trkpt>
      <trkpt lat="34.082883" lon="110.123549">
        <time>2026-07-27T13:52:53Z</time>
      </trkpt>
      <trkpt lat="34.082922" lon="110.123491">
        <time>2026-07-27T13:52:58Z</time>
      </trkpt>
      <trkpt lat="34.082952" lon="110.123424">
        <time>2026-07-27T13:53:03Z</time>
      </trkpt>
      <trkpt lat="34.082969" lon="110.123359">
        <time>2026-07-27T13:53:08Z</time>
      </trkpt>
      <trkpt lat="34.082976" lon="110.123292">
        <time>2026-07-27T13:53:13Z</time>
      </trkpt>
      <trkpt lat="34.082974" lon="110.12322">
        <time>2026-07-27T13:53:18Z</time>
      </trkpt>
      <trkpt lat="34.082959" lon="110.123147">
        <time>2026-07-27T13:53:23Z</time>
      </trkpt>
      <trkpt lat="34.082936" lon="110.123081">
        <time>2026-07-27T13:53:28Z</time>
      </trkpt>
      <trkpt lat="34.082902" lon="110.123021">
        <time>2026-07-27T13:53:33Z</time>
      </trkpt>
      <trkpt lat="34.082836" lon="110.122948">
        <time>2026-07-27T13:53:38Z</time>
      </trkpt>
      <trkpt lat="34.082679" lon="110.12288">
        <time>2026-07-27T13:53:43Z</time>
      </trkpt>
      <trkpt lat="34.082519" lon="110.122908">
        <time>2026-07-27T13:53:48Z</time>
      </trkpt>
      <trkpt lat="34.082375" lon="110.122958">
        <time>2026-07-27T13:53:53Z</time>
      </trkpt>
      <trkpt lat="34.082233" lon="110.123008">
        <time>2026-07-27T13:53:58Z</time>
      </trkpt>
      <trkpt lat="34.0821" lon="110.123053">
        <time>2026-07-27T13:54:03Z</time>
      </trkpt>
      <trkpt lat="34.081976" lon="110.123096">
        <time>2026-07-27T13:54:08Z</time>
      </trkpt>
      <trkpt lat="34.081888" lon="110.123127">
        <time>2026-07-27T13:54:13Z</time>
      </trkpt>
    </trkseg>
  </trk>
</gpx>