<?xml version="1.0" encoding="UTF-8"?>
<gpx xmlns="http://www.topografix.com/GPX/1/1" xmlns:gpxtpx="http://www.garmin.com/xmlschemas/TrackPointExtension/v1" xmlns:xsi="http://www.w3.org/2001/XMLSchema-instance" xsi:schemaLocation="http://www.topografix.com/GPX/1/1 http://www.topografix.com/GPX/1/1/gpx.xsd" version="1.1" creator="gpx.py -- https://github.com/tkrajina/gpxpy">
  <trk>
    <name>gpx from joyrun</name>
    <trkseg>
      <trkpt lat="34.081853" lon="110.123128">
        <time>2026-08-08T13:16:16Z</time>
      </trkpt>
      <trkpt lat="34.081727" lon="110.123189">
        <time>2026-08-08T13:16:21Z</time>
      </trkpt>
      <trkpt lat="34.08161" lon="110.123351">
        <time>2026-08-08T13:16:26Z</time>
      </trkpt>
      <trkpt lat="34.08158" lon="110.123556">
        <time>2026-08-08T13:16:31Z</time>
      </trkpt>
      <trkpt lat="34.081632" lon="110.123735">
        <time>2026-08-08T13:16:36Z</time>
      </trkpt>
      <trkpt lat="34.08174" lon="110.123858">
        <time>2026-08-08T13:16:41Z</time>
      </trkpt>
      <trkpt lat="34.081886" lon="110.123912">
        <time>2026-08-08T13:16:46Z</time>
      </trkpt>
      <trkpt lat="34.082027" lon="110.123887">
        <time>2026-08-08T13:16:51Z</time>
      </trkpt>
      <trkpt lat="34.082167" lon="110.123841">
        <time>2026-08-08T13:16:56Z</time>
      </trkpt>
      <trkpt lat="34.082288" lon="110.123803">
        <time>2026-08-08T13:17:01Z</time>
      </trkpt>
      <trkpt lat="34.082427" lon="110.123758">
        <time>2026-08-08T13:17:06Z</time>
      </trkpt>
      <trkpt lat="34.082567" lon="110.123713">
        <time>2026-08-08T13:17:11Z</time>
      </trkpt>
      <trkpt lat="34.082703" lon="110.123669">
        <time>2026-08-08T13:17:16Z</time>
      </trkpt>
      <trkpt lat="34.082832" lon="110.123605">
        <time>2026-08-08T13:17:21Z</time>
      </trkpt>
      <trkpt lat="34.082931" lon="110.12348">
        <time>2026-08-08T13:17:26Z</time>
      </trkpt>
      <trkpt lat="34.082976" lon="110.123304">
        <time>2026-08-08T13:17:31Z</time>
      </trkpt>
      <trkpt lat="34.082954" lon="110.123133">
        <time>2026-08-08T13:17:36Z</time>
      </trkpt>
      <trkpt lat="34.082867" lon="110.122984">
        <time>2026-08-08T13:17:41Z</time>
      </trkpt>
      <trkpt lat="34.082735" lon="110.122898">
        <time>2026-08-08T13:17:46Z</time>
      </trkpt>
      <trkpt lat="34.082603" lon="110.122889">
        <time>2026-08-08T13:17:51Z</time>
      </trkpt>
      <trkpt lat="34.08247" lon="110.122929">
        <time>2026-08-08T13:17:56Z</time>
      </trkpt>
      <trkpt lat="34.08233" lon="110.122974">
        <time>2026-08-08T13:18:01Z</time>
      </trkpt>
      <trkpt lat="34.082195" lon="110.123018">
        <time>2026-08-08T13:18:06Z</time>
      </trkpt>
      <trkpt lat="34.082066" lon="110.123059">
        <time>2026-08-08T13:18:11Z</time>
      </trkpt>
      <trkpt lat="34.081909" lon="110.12311">
        <time>2026-08-08T13:18:16Z</time>
      </trkpt>
      <trkpt lat="34.081763" lon="110.123164">
        <time>2026-08-08T13:18:21Z</time>
      </trkpt>
      <trkpt lat="34.081663" lon="110.123255">
        <time>2026-08-08T13:18:26Z</time>
      </trkpt>
      <trkpt lat="34.081605" lon="110.123365">
        <time>2026-08-08T13:18:31Z</time>
      </trkpt>
      <trkpt lat="34.081579" lon="110.123499">
        <time>2026-08-08T13:18:36Z</time>
      </trkpt>
      <trkpt lat="34.081587" lon="110.123606">
        <time>2026-08-08T13:18:41Z</time>
      </trkpt>
      <trkpt lat="34.081629" lon="110.123729">
        <time>2026-08-08T13:18:46Z</time>
      </trkpt>
      <trkpt lat="34.081699" lon="110.123823">
        <time>2026-08-08T13:18:51Z</time>
      </trkpt>
      <trkpt lat="34.081756" lon="110.123869">
        <time>2026-08-08T13:18:56Z</time>
      </trkpt>
      <trkpt lat="34.081807" lon="110.123894">
        <time>2026-08-08T13:19:01Z</time>
      </trkpt>
      <trkpt lat="34.081857" lon="110.123908">
        <time>2026-08-08T13:19:06Z</time>
      </trkpt>
      <trkpt lat="34.081883" lon="110.123911">
        <time>2026-08-08T13:19:11Z</time>
      </trkpt>
      <trkpt lat="34.08188" lon="110.123911">
        <time>2026-08-08T13:19:16Z</time>
      </trkpt>
      <trkpt lat="34.08189" lon="110.123912">
        <time>2026-08-08T13:19:22Z</time>
      </trkpt>
    </trkseg>
  </trk>
</gpx>