<?xml version="1.0" encoding="UTF-8"?>
<gpx xmlns="http://www.topografix.com/GPX/1/1" xmlns:gpxtpx="http://www.garmin.com/xmlschemas/TrackPointExtension/v1" xmlns:xsi="http://www.w3.org/2001/XMLSchema-instance" xsi:schemaLocation="http://www.topografix.com/GPX/1/1 http://www.topografix.com/GPX/1/1/gpx.xsd" version="1.1" creator="gpx.py -- https://github.com/tkrajina/gpxpy">
  <trk>
    <name>gpx from joyrun</name>
    <trkseg>
      <trkpt lat="34.079204" lon="110.124556">
        <time>2026-08-11T11:12:56Z</time>
      </trkpt>
      <trkpt lat="34.07915" lon="110.124492">
        <time>2026-08-11T11:13:01Z</time>
      </trkpt>
      <trkpt lat="34.079085" lon="110.124348">
        <time>2026-08-11T11:13:06Z</time>
      </trkpt>
      <trkpt lat="34.079025" lon="110.124174">
        <time>2026-08-11T11:13:11Z</time>
      </trkpt>
      <trkpt lat="34.078971" lon="110.123999">
        <time>2026-08-11T11:13:16Z</time>
      </trkpt>
      <trkpt lat="34.078915" lon="110.123823">
        <time>2026-08-11T11:13:21Z</time>
      </trkpt>
      <trkpt lat="34.078857" lon="110.123652">
        <time>2026-08-11T11:13:26Z</time>
      </trkpt>
      <trkpt lat="34.078807" lon="110.123483">
        <time>2026-08-11T11:13:31Z</time>
      </trkpt>
      <trkpt lat="34.07875" lon="110.123308">
        <time>2026-08-11T11:13:36Z</time>
      </trkpt>
      <trkpt lat="34.078695" lon="110.123127">
        <time>2026-08-11T11:13:41Z</time>
      </trkpt>
      <trkpt lat="34.078647" lon="110.122957">
        <time>2026-08-11T11:13:46Z</time>
      </trkpt>
      <trkpt lat="34.078601" lon="110.122792">
        <time>2026-08-11T11:13:51Z</time>
      </trkpt>
      <trkpt lat="34.078548" lon="110.122624">
        <time>2026-08-11T11:13:56Z</time>
      </trkpt>
      <trkpt lat="34.078494" lon="110.122452">
        <time>2026-08-11T11:14:01Z</time>
      </trkpt>
      <trkpt lat="34.078436" lon="110.122284">
        <time>2026-08-11T11:14:06Z</time>
      </trkpt>
      <trkpt lat="34.078377" lon="110.122123">
        <time>2026-08-11T11:14:11Z</time>
      </trkpt>
      <trkpt lat="34.078327" lon="110.121969">
        <time>2026-08-11T11:14:16Z</time>
      </trkpt>
      <trkpt lat="34.078276" lon="110.121818">
        <time>2026-08-11T11:14:21Z</time>
      </trkpt>
      <trkpt lat="34.078226" lon="110.121661">
        <time>2026-08-11T11:14:26Z</time>
      </trkpt>
      <trkpt lat="34.078174" lon="110.121477">
        <time>2026-08-11T11:14:31Z</time>
      </trkpt>
      <trkpt lat="34.078126" lon="110.121314">
        <time>2026-08-11T11:14:36Z</time>
      </trkpt>
      <trkpt lat="34.078074" lon="110.121161">
        <time>2026-08-11T11:14:41Z</time>
      </trkpt>
      <trkpt lat="34.078025" lon="110.12101">
        <time>2026-08-11T11:14:46Z</time>
      </trkpt>
      <trkpt lat="34.077993" lon="110.12089">
        <time>2026-08-11T11:14:51Z</time>
      </trkpt>
      <trkpt lat="34.07797" lon="110.120817">
        <time>2026-08-11T11:14:56Z</time>
      </trkpt>
      <trkpt lat="34.077935" lon="110.120775">
        <time>2026-08-11T11:15:01Z</time>
      </trkpt>
      <trkpt lat="34.077778" lon="110.120588">
        <time>2026-08-11T11:15:06Z</time>
      </trkpt>
      <trkpt lat="34.077778" lon="110.120588">
        <time>2026-08-11T11:15:11Z</time>
      </trkpt>
      <trkpt lat="34.077778" lon="110.120588">
        <time>2026-08-11T11:15:16Z</time>
      </trkpt>
      <trkpt lat="34.077778" lon="110.120588">
        <time>2026-08-11T11:15:21Z</time>
      </trkpt>
      <trkpt lat="34.077778" lon="110.120588">
        <time>2026-08-11T11:15:26Z</time>
      </trkpt>
      <trkpt lat="34.077778" lon="110.120588">
        <time>2026-08-11T11:15:31Z</time>
      </trkpt>
      <trkpt lat="34.077778" lon="110.120588">
        <time>2026-08-11T11:15:36Z</time>
      </trkpt>
      <trkpt lat="34.077778" lon="110.120588">
        <time>2026-08-11T11:15:41Z</time>
      </trkpt>
      <trkpt lat="34.077778" lon="110.120588">
        <time>2026-08-11T11:15:46Z</time>
      </trkpt>
      <trkpt lat="34.077778" lon="110.120588">
        <time>2026-08-11T11:15:51Z</time>
      </trkpt>
      <trkpt lat="34.077778" lon="110.120588">
        <time>2026-08-11T11:15:56Z</time>
      </trkpt>
      <trkpt lat="34.077778" lon="110.120588">
        <time>2026-08-11T11:16:01Z</time>
      </trkpt>
      <trkpt lat="34.077778" lon="110.120588">
        <time>2026-08-11T11:16:06Z</time>
      </trkpt>
      <trkpt lat="34.077778" lon="110.120588">
        <time>2026-08-11T11:16:11Z</time>
      </trkpt>
      <trkpt lat="34.077778" lon="110.120588">
        <time>2026-08-11T11:16:16Z</time>
      </trkpt>
      <trkpt lat="34.077778" lon="110.120588">
        <time>2026-08-11T11:16:21Z</time>
      </trkpt>
      <trkpt lat="34.077778" lon="110.120588">
        <time>2026-08-11T11:16:26Z</time>
      </trkpt>
      <trkpt lat="34.077778" lon="110.120588">
        <time>2026-08-11T11:16:31Z</time>
      </trkpt>
      <trkpt lat="34.077794" lon="110.120534">
        <time>2026-08-11T11:16:36Z</time>
      </trkpt>
      <trkpt lat="34.07778" lon="110.120374">
        <time>2026-08-11T11:16:41Z</time>
      </trkpt>
      <trkpt lat="34.077721" lon="110.120191">
        <time>2026-08-11T11:16:46Z</time>
      </trkpt>
      <trkpt lat="34.07766" lon="110.120004">
        <time>2026-08-11T11:16:51Z</time>
      </trkpt>
      <trkpt lat="34.077598" lon="110.119823">
        <time>2026-08-11T11:16:56Z</time>
      </trkpt>
      <trkpt lat="34.077537" lon="110.119647">
        <time>2026-08-11T11:17:01Z</time>
      </trkpt>
      <trkpt lat="34.077478" lon="110.119472">
        <time>2026-08-11T11:17:06Z</time>
      </trkpt>
      <trkpt lat="34.077422" lon="110.119288">
        <time>2026-08-11T11:17:11Z</time>
      </trkpt>
      <trkpt lat="34.077375" lon="110.119124">
        <time>2026-08-11T11:17:16Z</time>
      </trkpt>
      <trkpt lat="34.077309" lon="110.118986">
        <time>2026-08-11T11:17:21Z</time>
      </trkpt>
      <trkpt lat="34.077253" lon="110.118836">
        <time>2026-08-11T11:17:26Z</time>
      </trkpt>
      <trkpt lat="34.077207" lon="110.118673">
        <time>2026-08-11T11:17:31Z</time>
      </trkpt>
      <trkpt lat="34.077148" lon="110.118524">
        <time>2026-08-11T11:17:36Z</time>
      </trkpt>
      <trkpt lat="34.077105" lon="110.118377">
        <time>2026-08-11T11:17:41Z</time>
      </trkpt>
      <trkpt lat="34.077055" lon="110.11822">
        <time>2026-08-11T11:17:46Z</time>
      </trkpt>
      <trkpt lat="34.077002" lon="110.118069">
        <time>2026-08-11T11:17:51Z</time>
      </trkpt>
      <trkpt lat="34.076951" lon="110.11792">
        <time>2026-08-11T11:17:56Z</time>
      </trkpt>
      <trkpt lat="34.076908" lon="110.117766">
        <time>2026-08-11T11:18:01Z</time>
      </trkpt>
      <trkpt lat="34.076874" lon="110.117626">
        <time>2026-08-11T11:18:06Z</time>
      </trkpt>
      <trkpt lat="34.076829" lon="110.117476">
        <time>2026-08-11T11:18:11Z</time>
      </trkpt>
      <trkpt lat="34.076801" lon="110.117313">
        <time>2026-08-11T11:18:16Z</time>
      </trkpt>
      <trkpt lat="34.076754" lon="110.117155">
        <time>2026-08-11T11:18:21Z</time>
      </trkpt>
      <trkpt lat="34.076722" lon="110.117051">
        <time>2026-08-11T11:18:26Z</time>
      </trkpt>
      <trkpt lat="34.07672" lon="110.116984">
        <time>2026-08-11T11:18:31Z</time>
      </trkpt>
      <trkpt lat="34.076704" lon="110.116917">
        <time>2026-08-11T11:18:36Z</time>
      </trkpt>
      <trkpt lat="34.076653" lon="110.116779">
        <time>2026-08-11T11:18:41Z</time>
      </trkpt>
      <trkpt lat="34.076594" lon="110.116617">
        <time>2026-08-11T11:18:46Z</time>
      </trkpt>
      <trkpt lat="34.076553" lon="110.116507">
        <time>2026-08-11T11:18:51Z</time>
      </trkpt>
      <trkpt lat="34.076525" lon="110.116436">
        <time>2026-08-11T11:18:56Z</time>
      </trkpt>
      <trkpt lat="34.076525" lon="110.116393">
        <time>2026-08-11T11:19:01Z</time>
      </trkpt>
      <trkpt lat="34.076508" lon="110.116367">
        <time>2026-08-11T11:19:06Z</time>
      </trkpt>
      <trkpt lat="34.076495" lon="110.116336">
        <time>2026-08-11T11:19:11Z</time>
      </trkpt>
      <trkpt lat="34.076464" lon="110.116316">
        <time>2026-08-11T11:19:16Z</time>
      </trkpt>
      <trkpt lat="34.076433" lon="110.116281">
        <time>2026-08-11T11:19:21Z</time>
      </trkpt>
      <trkpt lat="34.076431" lon="110.116249">
        <time>2026-08-11T11:19:26Z</time>
      </trkpt>
      <trkpt lat="34.076415" lon="110.116222">
        <time>2026-08-11T11:19:31Z</time>
      </trkpt>
      <trkpt lat="34.076404" lon="110.116182">
        <time>2026-08-11T11:19:36Z</time>
      </trkpt>
      <trkpt lat="34.076407" lon="110.116132">
        <time>2026-08-11T11:19:41Z</time>
      </trkpt>
      <trkpt lat="34.076378" lon="110.116092">
        <time>2026-08-11T11:19:46Z</time>
      </trkpt>
      <trkpt lat="34.076348" lon="110.116056">
        <time>2026-08-11T11:19:51Z</time>
      </trkpt>
      <trkpt lat="34.076314" lon="110.11601">
        <time>2026-08-11T11:19:56Z</time>
      </trkpt>
      <trkpt lat="34.07628" lon="110.11593">
        <time>2026-08-11T11:20:01Z</time>
      </trkpt>
      <trkpt lat="34.076276" lon="110.11585">
        <time>2026-08-11T11:20:06Z</time>
      </trkpt>
      <trkpt lat="34.076249" lon="110.115773">
        <time>2026-08-11T11:20:11Z</time>
      </trkpt>
      <trkpt lat="34.076219" lon="110.115691">
        <time>2026-08-11T11:20:16Z</time>
      </trkpt>
      <trkpt lat="34.076177" lon="110.1156">
        <time>2026-08-11T11:20:21Z</time>
      </trkpt>
      <trkpt lat="34.076143" lon="110.115502">
        <time>2026-08-11T11:20:26Z</time>
      </trkpt>
      <trkpt lat="34.076124" lon="110.115357">
        <time>2026-08-11T11:20:31Z</time>
      </trkpt>
      <trkpt lat="34.076115" lon="110.1152">
        <time>2026-08-11T11:20:36Z</time>
      </trkpt>
      <trkpt lat="34.076048" lon="110.115069">
        <time>2026-08-11T11:20:41Z</time>
      </trkpt>
      <trkpt lat="34.076013" lon="110.114908">
        <time>2026-08-11T11:20:46Z</time>
      </trkpt>
      <trkpt lat="34.075967" lon="110.114746">
        <time>2026-08-11T11:20:51Z</time>
      </trkpt>
      <trkpt lat="34.075923" lon="110.114597">
        <time>2026-08-11T11:20:56Z</time>
      </trkpt>
      <trkpt lat="34.075867" lon="110.114454">
        <time>2026-08-11T11:21:01Z</time>
      </trkpt>
      <trkpt lat="34.075807" lon="110.11429">
        <time>2026-08-11T11:21:06Z</time>
      </trkpt>
      <trkpt lat="34.075747" lon="110.114126">
        <time>2026-08-11T11:21:11Z</time>
      </trkpt>
      <trkpt lat="34.075697" lon="110.113991">
        <time>2026-08-11T11:21:16Z</time>
      </trkpt>
      <trkpt lat="34.075645" lon="110.113824">
        <time>2026-08-11T11:21:21Z</time>
      </trkpt>
      <trkpt lat="34.075601" lon="110.113683">
        <time>2026-08-11T11:21:26Z</time>
      </trkpt>
      <trkpt lat="34.075572" lon="110.11353">
        <time>2026-08-11T11:21:31Z</time>
      </trkpt>
      <trkpt lat="34.075491" lon="110.11339">
        <time>2026-08-11T11:21:36Z</time>
      </trkpt>
      <trkpt lat="34.075377" lon="110.113302">
        <time>2026-08-11T11:21:41Z</time>
      </trkpt>
      <trkpt lat="34.075279" lon="110.113169">
        <time>2026-08-11T11:21:46Z</time>
      </trkpt>
      <trkpt lat="34.075189" lon="110.113059">
        <time>2026-08-11T11:21:51Z</time>
      </trkpt>
      <trkpt lat="34.075113" lon="110.112926">
        <time>2026-08-11T11:21:56Z</time>
      </trkpt>
      <trkpt lat="34.07507" lon="110.112842">
        <time>2026-08-11T11:22:01Z</time>
      </trkpt>
      <trkpt lat="34.075038" lon="110.112791">
        <time>2026-08-11T11:22:06Z</time>
      </trkpt>
      <trkpt lat="34.074994" lon="110.112738">
        <time>2026-08-11T11:22:11Z</time>
      </trkpt>
      <trkpt lat="34.074954" lon="110.11268">
        <time>2026-08-11T11:22:16Z</time>
      </trkpt>
      <trkpt lat="34.074912" lon="110.112627">
        <time>2026-08-11T11:22:21Z</time>
      </trkpt>
      <trkpt lat="34.074862" lon="110.112585">
        <time>2026-08-11T11:22:26Z</time>
      </trkpt>
      <trkpt lat="34.07483" lon="110.112527">
        <time>2026-08-11T11:22:31Z</time>
      </trkpt>
      <trkpt lat="34.074804" lon="110.112475">
        <time>2026-08-11T11:22:36Z</time>
      </trkpt>
      <trkpt lat="34.074781" lon="110.112417">
        <time>2026-08-11T11:22:41Z</time>
      </trkpt>
      <trkpt lat="34.074755" lon="110.112383">
        <time>2026-08-11T11:22:46Z</time>
      </trkpt>
      <trkpt lat="34.074719" lon="110.112332">
        <time>2026-08-11T11:22:51Z</time>
      </trkpt>
      <trkpt lat="34.074673" lon="110.112265">
        <time>2026-08-11T11:22:56Z</time>
      </trkpt>
      <trkpt lat="34.074631" lon="110.112212">
        <time>2026-08-11T11:23:01Z</time>
      </trkpt>
      <trkpt lat="34.07459" lon="110.112177">
        <time>2026-08-11T11:23:06Z</time>
      </trkpt>
      <trkpt lat="34.074568" lon="110.112133">
        <time>2026-08-11T11:23:11Z</time>
      </trkpt>
      <trkpt lat="34.074514" lon="110.112076">
        <time>2026-08-11T11:23:16Z</time>
      </trkpt>
      <trkpt lat="34.074471" lon="110.112015">
        <time>2026-08-11T11:23:21Z</time>
      </trkpt>
      <trkpt lat="34.074379" lon="110.11191">
        <time>2026-08-11T11:23:26Z</time>
      </trkpt>
      <trkpt lat="34.074263" lon="110.111759">
        <time>2026-08-11T11:23:31Z</time>
      </trkpt>
      <trkpt lat="34.074162" lon="110.111598">
        <time>2026-08-11T11:23:36Z</time>
      </trkpt>
      <trkpt lat="34.074089" lon="110.111422">
        <time>2026-08-11T11:23:41Z</time>
      </trkpt>
      <trkpt lat="34.073999" lon="110.111255">
        <time>2026-08-11T11:23:46Z</time>
      </trkpt>
      <trkpt lat="34.073896" lon="110.111109">
        <time>2026-08-11T11:23:51Z</time>
      </trkpt>
      <trkpt lat="34.073802" lon="110.110975">
        <time>2026-08-11T11:23:56Z</time>
      </trkpt>
      <trkpt lat="34.073701" lon="110.110836">
        <time>2026-08-11T11:24:01Z</time>
      </trkpt>
      <trkpt lat="34.073611" lon="110.110691">
        <time>2026-08-11T11:24:06Z</time>
      </trkpt>
      <trkpt lat="34.073537" lon="110.110572">
        <time>2026-08-11T11:24:11Z</time>
      </trkpt>
      <trkpt lat="34.07346" lon="110.110464">
        <time>2026-08-11T11:24:16Z</time>
      </trkpt>
      <trkpt lat="34.073391" lon="110.110372">
        <time>2026-08-11T11:24:21Z</time>
      </trkpt>
      <trkpt lat="34.073353" lon="110.110322">
        <time>2026-08-11T11:24:26Z</time>
      </trkpt>
      <trkpt lat="34.073306" lon="110.110272">
        <time>2026-08-11T11:24:31Z</time>
      </trkpt>
      <trkpt lat="34.073277" lon="110.110208">
        <time>2026-08-11T11:24:36Z</time>
      </trkpt>
      <trkpt lat="34.073241" lon="110.110171">
        <time>2026-08-11T11:24:41Z</time>
      </trkpt>
      <trkpt lat="34.073193" lon="110.110129">
        <time>2026-08-11T11:24:46Z</time>
      </trkpt>
      <trkpt lat="34.073151" lon="110.110069">
        <time>2026-08-11T11:24:51Z</time>
      </trkpt>
      <trkpt lat="34.073106" lon="110.110002">
        <time>2026-08-11T11:24:56Z</time>
      </trkpt>
      <trkpt lat="34.073024" lon="110.109868">
        <time>2026-08-11T11:25:01Z</time>
      </trkpt>
      <trkpt lat="34.072924" lon="110.109721">
        <time>2026-08-11T11:25:06Z</time>
      </trkpt>
      <trkpt lat="34.072831" lon="110.109577">
        <time>2026-08-11T11:25:11Z</time>
      </trkpt>
      <trkpt lat="34.072744" lon="110.10943">
        <time>2026-08-11T11:25:16Z</time>
      </trkpt>
      <trkpt lat="34.072654" lon="110.109284">
        <time>2026-08-11T11:25:21Z</time>
      </trkpt>
      <trkpt lat="34.072569" lon="110.109159">
        <time>2026-08-11T11:25:26Z</time>
      </trkpt>
      <trkpt lat="34.0725" lon="110.109021">
        <time>2026-08-11T11:25:31Z</time>
      </trkpt>
      <trkpt lat="34.072443" lon="110.10894">
        <time>2026-08-11T11:25:36Z</time>
      </trkpt>
      <trkpt lat="34.072401" lon="110.108891">
        <time>2026-08-11T11:25:41Z</time>
      </trkpt>
      <trkpt lat="34.072369" lon="110.108858">
        <time>2026-08-11T11:25:46Z</time>
      </trkpt>
      <trkpt lat="34.072334" lon="110.108804">
        <time>2026-08-11T11:25:51Z</time>
      </trkpt>
      <trkpt lat="34.072294" lon="110.108748">
        <time>2026-08-11T11:25:56Z</time>
      </trkpt>
      <trkpt lat="34.07226" lon="110.108684">
        <time>2026-08-11T11:26:01Z</time>
      </trkpt>
      <trkpt lat="34.072219" lon="110.108622">
        <time>2026-08-11T11:26:06Z</time>
      </trkpt>
      <trkpt lat="34.072159" lon="110.108559">
        <time>2026-08-11T11:26:11Z</time>
      </trkpt>
      <trkpt lat="34.072084" lon="110.108445">
        <time>2026-08-11T11:26:16Z</time>
      </trkpt>
      <trkpt lat="34.07203" lon="110.108361">
        <time>2026-08-11T11:26:21Z</time>
      </trkpt>
      <trkpt lat="34.071996" lon="110.108294">
        <time>2026-08-11T11:26:26Z</time>
      </trkpt>
      <trkpt lat="34.071977" lon="110.108236">
        <time>2026-08-11T11:26:31Z</time>
      </trkpt>
      <trkpt lat="34.071949" lon="110.108175">
        <time>2026-08-11T11:26:36Z</time>
      </trkpt>
      <trkpt lat="34.071908" lon="110.108124">
        <time>2026-08-11T11:26:41Z</time>
      </trkpt>
      <trkpt lat="34.071885" lon="110.108063">
        <time>2026-08-11T11:26:46Z</time>
      </trkpt>
      <trkpt lat="34.071869" lon="110.108011">
        <time>2026-08-11T11:26:51Z</time>
      </trkpt>
      <trkpt lat="34.071845" lon="110.107944">
        <time>2026-08-11T11:26:56Z</time>
      </trkpt>
      <trkpt lat="34.07183" lon="110.107867">
        <time>2026-08-11T11:27:01Z</time>
      </trkpt>
      <trkpt lat="34.071813" lon="110.107805">
        <time>2026-08-11T11:27:06Z</time>
      </trkpt>
      <trkpt lat="34.0718" lon="110.107751">
        <time>2026-08-11T11:27:11Z</time>
      </trkpt>
      <trkpt lat="34.07177" lon="110.107676">
        <time>2026-08-11T11:27:16Z</time>
      </trkpt>
      <trkpt lat="34.071738" lon="110.107607">
        <time>2026-08-11T11:27:21Z</time>
      </trkpt>
      <trkpt lat="34.071703" lon="110.107529">
        <time>2026-08-11T11:27:26Z</time>
      </trkpt>
      <trkpt lat="34.071675" lon="110.10745">
        <time>2026-08-11T11:27:31Z</time>
      </trkpt>
      <trkpt lat="34.071649" lon="110.107368">
        <time>2026-08-11T11:27:36Z</time>
      </trkpt>
      <trkpt lat="34.071626" lon="110.107302">
        <time>2026-08-11T11:27:41Z</time>
      </trkpt>
      <trkpt lat="34.0716" lon="110.107207">
        <time>2026-08-11T11:27:46Z</time>
      </trkpt>
      <trkpt lat="34.071592" lon="110.107159">
        <time>2026-08-11T11:27:51Z</time>
      </trkpt>
      <trkpt lat="34.07157" lon="110.107077">
        <time>2026-08-11T11:27:56Z</time>
      </trkpt>
      <trkpt lat="34.071558" lon="110.106999">
        <time>2026-08-11T11:28:01Z</time>
      </trkpt>
      <trkpt lat="34.071531" lon="110.106894">
        <time>2026-08-11T11:28:06Z</time>
      </trkpt>
      <trkpt lat="34.071488" lon="110.106725">
        <time>2026-08-11T11:28:11Z</time>
      </trkpt>
      <trkpt lat="34.071436" lon="110.106557">
        <time>2026-08-11T11:28:16Z</time>
      </trkpt>
      <trkpt lat="34.071393" lon="110.106385">
        <time>2026-08-11T11:28:21Z</time>
      </trkpt>
      <trkpt lat="34.071348" lon="110.106221">
        <time>2026-08-11T11:28:26Z</time>
      </trkpt>
      <trkpt lat="34.07129" lon="110.106056">
        <time>2026-08-11T11:28:31Z</time>
      </trkpt>
      <trkpt lat="34.071234" lon="110.105891">
        <time>2026-08-11T11:28:36Z</time>
      </trkpt>
      <trkpt lat="34.071183" lon="110.105731">
        <time>2026-08-11T11:28:41Z</time>
      </trkpt>
      <trkpt lat="34.071142" lon="110.105588">
        <time>2026-08-11T11:28:46Z</time>
      </trkpt>
      <trkpt lat="34.071108" lon="110.105468">
        <time>2026-08-11T11:28:56Z</time>
      </trkpt>
    </trkseg>
  </trk>
</gpx>