<?xml version="1.0" encoding="UTF-8"?>
<gpx xmlns="http://www.topografix.com/GPX/1/1" xmlns:gpxtpx="http://www.garmin.com/xmlschemas/TrackPointExtension/v1" xmlns:xsi="http://www.w3.org/2001/XMLSchema-instance" xsi:schemaLocation="http://www.topografix.com/GPX/1/1 http://www.topografix.com/GPX/1/1/gpx.xsd" version="1.1" creator="gpx.py -- https://github.com/tkrajina/gpxpy">
  <trk>
    <name>gpx from joyrun</name>
    <trkseg>
      <trkpt lat="34.081848" lon="110.123115">
        <time>2026-08-10T22:51:47Z</time>
      </trkpt>
      <trkpt lat="34.081747" lon="110.123164">
        <time>2026-08-10T22:51:52Z</time>
      </trkpt>
      <trkpt lat="34.081652" lon="110.12327">
        <time>2026-08-10T22:51:57Z</time>
      </trkpt>
      <trkpt lat="34.081601" lon="110.1234">
        <time>2026-08-10T22:52:02Z</time>
      </trkpt>
      <trkpt lat="34.081592" lon="110.123537">
        <time>2026-08-10T22:52:07Z</time>
      </trkpt>
      <trkpt lat="34.081622" lon="110.123669">
        <time>2026-08-10T22:52:12Z</time>
      </trkpt>
      <trkpt lat="34.081691" lon="110.123785">
        <time>2026-08-10T22:52:17Z</time>
      </trkpt>
      <trkpt lat="34.081793" lon="110.123865">
        <time>2026-08-10T22:52:22Z</time>
      </trkpt>
      <trkpt lat="34.081915" lon="110.123894">
        <time>2026-08-10T22:52:27Z</time>
      </trkpt>
      <trkpt lat="34.082032" lon="110.12387">
        <time>2026-08-10T22:52:32Z</time>
      </trkpt>
      <trkpt lat="34.082149" lon="110.123829">
        <time>2026-08-10T22:52:37Z</time>
      </trkpt>
      <trkpt lat="34.082266" lon="110.123787">
        <time>2026-08-10T22:52:42Z</time>
      </trkpt>
      <trkpt lat="34.082379" lon="110.123748">
        <time>2026-08-10T22:52:47Z</time>
      </trkpt>
      <trkpt lat="34.082498" lon="110.123706">
        <time>2026-08-10T22:52:52Z</time>
      </trkpt>
      <trkpt lat="34.08262" lon="110.123663">
        <time>2026-08-10T22:52:57Z</time>
      </trkpt>
      <trkpt lat="34.082737" lon="110.123622">
        <time>2026-08-10T22:53:02Z</time>
      </trkpt>
      <trkpt lat="34.082844" lon="110.123563">
        <time>2026-08-10T22:53:07Z</time>
      </trkpt>
      <trkpt lat="34.082921" lon="110.123471">
        <time>2026-08-10T22:53:12Z</time>
      </trkpt>
      <trkpt lat="34.082971" lon="110.123348">
        <time>2026-08-10T22:53:17Z</time>
      </trkpt>
      <trkpt lat="34.082983" lon="110.123219">
        <time>2026-08-10T22:53:22Z</time>
      </trkpt>
      <trkpt lat="34.082963" lon="110.123102">
        <time>2026-08-10T22:53:27Z</time>
      </trkpt>
      <trkpt lat="34.082906" lon="110.122985">
        <time>2026-08-10T22:53:32Z</time>
      </trkpt>
      <trkpt lat="34.082811" lon="110.122892">
        <time>2026-08-10T22:53:37Z</time>
      </trkpt>
      <trkpt lat="34.082701" lon="110.122849">
        <time>2026-08-10T22:53:42Z</time>
      </trkpt>
      <trkpt lat="34.082591" lon="110.122854">
        <time>2026-08-10T22:53:47Z</time>
      </trkpt>
      <trkpt lat="34.082487" lon="110.12289">
        <time>2026-08-10T22:53:52Z</time>
      </trkpt>
      <trkpt lat="34.082388" lon="110.122924">
        <time>2026-08-10T22:53:57Z</time>
      </trkpt>
      <trkpt lat="34.082275" lon="110.122964">
        <time>2026-08-10T22:54:02Z</time>
      </trkpt>
      <trkpt lat="34.082156" lon="110.123006">
        <time>2026-08-10T22:54:07Z</time>
      </trkpt>
      <trkpt lat="34.082046" lon="110.123045">
        <time>2026-08-10T22:54:12Z</time>
      </trkpt>
      <trkpt lat="34.08193" lon="110.123086">
        <time>2026-08-10T22:54:17Z</time>
      </trkpt>
      <trkpt lat="34.08182" lon="110.123124">
        <time>2026-08-10T22:54:22Z</time>
      </trkpt>
      <trkpt lat="34.081712" lon="110.123194">
        <time>2026-08-10T22:54:27Z</time>
      </trkpt>
      <trkpt lat="34.081638" lon="110.123295">
        <time>2026-08-10T22:54:32Z</time>
      </trkpt>
      <trkpt lat="34.081597" lon="110.123424">
        <time>2026-08-10T22:54:37Z</time>
      </trkpt>
      <trkpt lat="34.081594" lon="110.123559">
        <time>2026-08-10T22:54:42Z</time>
      </trkpt>
      <trkpt lat="34.081632" lon="110.123691">
        <time>2026-08-10T22:54:47Z</time>
      </trkpt>
      <trkpt lat="34.081711" lon="110.123806">
        <time>2026-08-10T22:54:52Z</time>
      </trkpt>
      <trkpt lat="34.081816" lon="110.123875">
        <time>2026-08-10T22:54:57Z</time>
      </trkpt>
      <trkpt lat="34.081928" lon="110.123894">
        <time>2026-08-10T22:55:02Z</time>
      </trkpt>
      <trkpt lat="34.08204" lon="110.123867">
        <time>2026-08-10T22:55:07Z</time>
      </trkpt>
      <trkpt lat="34.082151" lon="110.123828">
        <time>2026-08-10T22:55:12Z</time>
      </trkpt>
      <trkpt lat="34.082264" lon="110.123788">
        <time>2026-08-10T22:55:17Z</time>
      </trkpt>
      <trkpt lat="34.082378" lon="110.123748">
        <time>2026-08-10T22:55:22Z</time>
      </trkpt>
      <trkpt lat="34.082494" lon="110.123707">
        <time>2026-08-10T22:55:27Z</time>
      </trkpt>
      <trkpt lat="34.082606" lon="110.123668">
        <time>2026-08-10T22:55:32Z</time>
      </trkpt>
      <trkpt lat="34.082714" lon="110.12363">
        <time>2026-08-10T22:55:37Z</time>
      </trkpt>
      <trkpt lat="34.082822" lon="110.12358">
        <time>2026-08-10T22:55:42Z</time>
      </trkpt>
      <trkpt lat="34.082913" lon="110.123485">
        <time>2026-08-10T22:55:47Z</time>
      </trkpt>
      <trkpt lat="34.082969" lon="110.123355">
        <time>2026-08-10T22:55:52Z</time>
      </trkpt>
      <trkpt lat="34.082982" lon="110.123206">
        <time>2026-08-10T22:55:57Z</time>
      </trkpt>
      <trkpt lat="34.082946" lon="110.123057">
        <time>2026-08-10T22:56:02Z</time>
      </trkpt>
      <trkpt lat="34.082873" lon="110.122944">
        <time>2026-08-10T22:56:07Z</time>
      </trkpt>
      <trkpt lat="34.082773" lon="110.122871">
        <time>2026-08-10T22:56:12Z</time>
      </trkpt>
      <trkpt lat="34.082653" lon="110.122846">
        <time>2026-08-10T22:56:17Z</time>
      </trkpt>
      <trkpt lat="34.082531" lon="110.122874">
        <time>2026-08-10T22:56:22Z</time>
      </trkpt>
      <trkpt lat="34.082412" lon="110.122916">
        <time>2026-08-10T22:56:27Z</time>
      </trkpt>
      <trkpt lat="34.082298" lon="110.122956">
        <time>2026-08-10T22:56:32Z</time>
      </trkpt>
      <trkpt lat="34.082186" lon="110.122996">
        <time>2026-08-10T22:56:37Z</time>
      </trkpt>
      <trkpt lat="34.08207" lon="110.123037">
        <time>2026-08-10T22:56:42Z</time>
      </trkpt>
      <trkpt lat="34.081952" lon="110.123078">
        <time>2026-08-10T22:56:47Z</time>
      </trkpt>
      <trkpt lat="34.081842" lon="110.123117">
        <time>2026-08-10T22:56:52Z</time>
      </trkpt>
      <trkpt lat="34.081726" lon="110.123181">
        <time>2026-08-10T22:56:57Z</time>
      </trkpt>
      <trkpt lat="34.081643" lon="110.123287">
        <time>2026-08-10T22:57:02Z</time>
      </trkpt>
      <trkpt lat="34.081598" lon="110.123416">
        <time>2026-08-10T22:57:07Z</time>
      </trkpt>
      <trkpt lat="34.081594" lon="110.123552">
        <time>2026-08-10T22:57:12Z</time>
      </trkpt>
      <trkpt lat="34.081626" lon="110.123678">
        <time>2026-08-10T22:57:17Z</time>
      </trkpt>
      <trkpt lat="34.081691" lon="110.123784">
        <time>2026-08-10T22:57:22Z</time>
      </trkpt>
      <trkpt lat="34.081791" lon="110.123863">
        <time>2026-08-10T22:57:27Z</time>
      </trkpt>
      <trkpt lat="34.081898" lon="110.123893">
        <time>2026-08-10T22:57:32Z</time>
      </trkpt>
      <trkpt lat="34.082" lon="110.123881">
        <time>2026-08-10T22:57:37Z</time>
      </trkpt>
      <trkpt lat="34.082112" lon="110.123842">
        <time>2026-08-10T22:57:42Z</time>
      </trkpt>
      <trkpt lat="34.082217" lon="110.123805">
        <time>2026-08-10T22:57:47Z</time>
      </trkpt>
      <trkpt lat="34.082329" lon="110.123765">
        <time>2026-08-10T22:57:52Z</time>
      </trkpt>
      <trkpt lat="34.082435" lon="110.123728">
        <time>2026-08-10T22:57:57Z</time>
      </trkpt>
      <trkpt lat="34.082546" lon="110.123689">
        <time>2026-08-10T22:58:02Z</time>
      </trkpt>
      <trkpt lat="34.08265" lon="110.123652">
        <time>2026-08-10T22:58:07Z</time>
      </trkpt>
      <trkpt lat="34.082752" lon="110.123616">
        <time>2026-08-10T22:58:12Z</time>
      </trkpt>
      <trkpt lat="34.082836" lon="110.123569">
        <time>2026-08-10T22:58:17Z</time>
      </trkpt>
      <trkpt lat="34.082908" lon="110.123491">
        <time>2026-08-10T22:58:22Z</time>
      </trkpt>
      <trkpt lat="34.082963" lon="110.123376">
        <time>2026-08-10T22:58:27Z</time>
      </trkpt>
      <trkpt lat="34.082983" lon="110.12324">
        <time>2026-08-10T22:58:32Z</time>
      </trkpt>
      <trkpt lat="34.082965" lon="110.123109">
        <time>2026-08-10T22:58:37Z</time>
      </trkpt>
      <trkpt lat="34.082905" lon="110.122984">
        <time>2026-08-10T22:58:42Z</time>
      </trkpt>
      <trkpt lat="34.082846" lon="110.122918">
        <time>2026-08-10T22:58:47Z</time>
      </trkpt>
      <trkpt lat="34.082784" lon="110.122877">
        <time>2026-08-10T22:58:52Z</time>
      </trkpt>
      <trkpt lat="34.082724" lon="110.122854">
        <time>2026-08-10T22:58:57Z</time>
      </trkpt>
      <trkpt lat="34.082652" lon="110.122846">
        <time>2026-08-10T22:59:02Z</time>
      </trkpt>
      <trkpt lat="34.082583" lon="110.122856">
        <time>2026-08-10T22:59:07Z</time>
      </trkpt>
      <trkpt lat="34.082522" lon="110.122877">
        <time>2026-08-10T22:59:12Z</time>
      </trkpt>
      <trkpt lat="34.082461" lon="110.122899">
        <time>2026-08-10T22:59:17Z</time>
      </trkpt>
      <trkpt lat="34.082402" lon="110.12292">
        <time>2026-08-10T22:59:22Z</time>
      </trkpt>
      <trkpt lat="34.082339" lon="110.122942">
        <time>2026-08-10T22:59:27Z</time>
      </trkpt>
      <trkpt lat="34.082275" lon="110.122964">
        <time>2026-08-10T22:59:32Z</time>
      </trkpt>
      <trkpt lat="34.082213" lon="110.122986">
        <time>2026-08-10T22:59:37Z</time>
      </trkpt>
      <trkpt lat="34.082153" lon="110.123008">
        <time>2026-08-10T22:59:42Z</time>
      </trkpt>
      <trkpt lat="34.082091" lon="110.123029">
        <time>2026-08-10T22:59:47Z</time>
      </trkpt>
      <trkpt lat="34.082031" lon="110.12305">
        <time>2026-08-10T22:59:52Z</time>
      </trkpt>
      <trkpt lat="34.081972" lon="110.123071">
        <time>2026-08-10T22:59:57Z</time>
      </trkpt>
      <trkpt lat="34.081918" lon="110.12309">
        <time>2026-08-10T23:00:02Z</time>
      </trkpt>
      <trkpt lat="34.081862" lon="110.12311">
        <time>2026-08-10T23:00:07Z</time>
      </trkpt>
      <trkpt lat="34.081801" lon="110.123132">
        <time>2026-08-10T23:00:12Z</time>
      </trkpt>
      <trkpt lat="34.081708" lon="110.123198">
        <time>2026-08-10T23:00:17Z</time>
      </trkpt>
      <trkpt lat="34.081637" lon="110.123298">
        <time>2026-08-10T23:00:22Z</time>
      </trkpt>
      <trkpt lat="34.081599" lon="110.123415">
        <time>2026-08-10T23:00:27Z</time>
      </trkpt>
      <trkpt lat="34.081592" lon="110.123532">
        <time>2026-08-10T23:00:32Z</time>
      </trkpt>
      <trkpt lat="34.081615" lon="110.12365">
        <time>2026-08-10T23:00:37Z</time>
      </trkpt>
      <trkpt lat="34.081668" lon="110.123755">
        <time>2026-08-10T23:00:42Z</time>
      </trkpt>
      <trkpt lat="34.081762" lon="110.123846">
        <time>2026-08-10T23:00:47Z</time>
      </trkpt>
      <trkpt lat="34.081877" lon="110.123891">
        <time>2026-08-10T23:00:52Z</time>
      </trkpt>
      <trkpt lat="34.081995" lon="110.123882">
        <time>2026-08-10T23:00:57Z</time>
      </trkpt>
      <trkpt lat="34.082123" lon="110.123838">
        <time>2026-08-10T23:01:02Z</time>
      </trkpt>
      <trkpt lat="34.082251" lon="110.123793">
        <time>2026-08-10T23:01:07Z</time>
      </trkpt>
      <trkpt lat="34.082372" lon="110.12375">
        <time>2026-08-10T23:01:12Z</time>
      </trkpt>
      <trkpt lat="34.082492" lon="110.123708">
        <time>2026-08-10T23:01:17Z</time>
      </trkpt>
      <trkpt lat="34.082614" lon="110.123665">
        <time>2026-08-10T23:01:22Z</time>
      </trkpt>
      <trkpt lat="34.082728" lon="110.123625">
        <time>2026-08-10T23:01:27Z</time>
      </trkpt>
      <trkpt lat="34.082837" lon="110.123568">
        <time>2026-08-10T23:01:32Z</time>
      </trkpt>
      <trkpt lat="34.082915" lon="110.12348">
        <time>2026-08-10T23:01:37Z</time>
      </trkpt>
      <trkpt lat="34.082968" lon="110.123359">
        <time>2026-08-10T23:01:42Z</time>
      </trkpt>
      <trkpt lat="34.082982" lon="110.123207">
        <time>2026-08-10T23:01:47Z</time>
      </trkpt>
      <trkpt lat="34.082943" lon="110.123049">
        <time>2026-08-10T23:01:52Z</time>
      </trkpt>
      <trkpt lat="34.082853" lon="110.122925">
        <time>2026-08-10T23:01:57Z</time>
      </trkpt>
      <trkpt lat="34.082732" lon="110.122856">
        <time>2026-08-10T23:02:02Z</time>
      </trkpt>
      <trkpt lat="34.082605" lon="110.122851">
        <time>2026-08-10T23:02:07Z</time>
      </trkpt>
      <trkpt lat="34.082484" lon="110.122891">
        <time>2026-08-10T23:02:12Z</time>
      </trkpt>
      <trkpt lat="34.082376" lon="110.122929">
        <time>2026-08-10T23:02:17Z</time>
      </trkpt>
      <trkpt lat="34.082265" lon="110.122968">
        <time>2026-08-10T23:02:22Z</time>
      </trkpt>
      <trkpt lat="34.082157" lon="110.123006">
        <time>2026-08-10T23:02:27Z</time>
      </trkpt>
      <trkpt lat="34.082047" lon="110.123045">
        <time>2026-08-10T23:02:32Z</time>
      </trkpt>
      <trkpt lat="34.081943" lon="110.123081">
        <time>2026-08-10T23:02:37Z</time>
      </trkpt>
      <trkpt lat="34.081831" lon="110.123121">
        <time>2026-08-10T23:02:42Z</time>
      </trkpt>
      <trkpt lat="34.081726" lon="110.123181">
        <time>2026-08-10T23:02:47Z</time>
      </trkpt>
      <trkpt lat="34.081648" lon="110.123278">
        <time>2026-08-10T23:02:52Z</time>
      </trkpt>
      <trkpt lat="34.081604" lon="110.12339">
        <time>2026-08-10T23:02:57Z</time>
      </trkpt>
      <trkpt lat="34.081591" lon="110.123505">
        <time>2026-08-10T23:03:02Z</time>
      </trkpt>
      <trkpt lat="34.081605" lon="110.123614">
        <time>2026-08-10T23:03:07Z</time>
      </trkpt>
      <trkpt lat="34.081648" lon="110.123723">
        <time>2026-08-10T23:03:12Z</time>
      </trkpt>
      <trkpt lat="34.081721" lon="110.123815">
        <time>2026-08-10T23:03:17Z</time>
      </trkpt>
      <trkpt lat="34.081814" lon="110.123874">
        <time>2026-08-10T23:03:22Z</time>
      </trkpt>
      <trkpt lat="34.081909" lon="110.123894">
        <time>2026-08-10T23:03:27Z</time>
      </trkpt>
      <trkpt lat="34.082001" lon="110.12388">
        <time>2026-08-10T23:03:32Z</time>
      </trkpt>
      <trkpt lat="34.082098" lon="110.123847">
        <time>2026-08-10T23:03:37Z</time>
      </trkpt>
      <trkpt lat="34.082193" lon="110.123813">
        <time>2026-08-10T23:03:42Z</time>
      </trkpt>
      <trkpt lat="34.0823" lon="110.123775">
        <time>2026-08-10T23:03:47Z</time>
      </trkpt>
      <trkpt lat="34.082411" lon="110.123736">
        <time>2026-08-10T23:03:52Z</time>
      </trkpt>
      <trkpt lat="34.082524" lon="110.123696">
        <time>2026-08-10T23:03:57Z</time>
      </trkpt>
      <trkpt lat="34.082629" lon="110.12366">
        <time>2026-08-10T23:04:02Z</time>
      </trkpt>
      <trkpt lat="34.082695" lon="110.123637">
        <time>2026-08-10T23:04:07Z</time>
      </trkpt>
      <trkpt lat="34.082751" lon="110.123617">
        <time>2026-08-10T23:04:12Z</time>
      </trkpt>
      <trkpt lat="34.0828" lon="110.123594">
        <time>2026-08-10T23:04:17Z</time>
      </trkpt>
      <trkpt lat="34.08285" lon="110.123557">
        <time>2026-08-10T23:04:22Z</time>
      </trkpt>
      <trkpt lat="34.082894" lon="110.12351">
        <time>2026-08-10T23:04:27Z</time>
      </trkpt>
      <trkpt lat="34.082933" lon="110.123451">
        <time>2026-08-10T23:04:32Z</time>
      </trkpt>
      <trkpt lat="34.082962" lon="110.12338">
        <time>2026-08-10T23:04:37Z</time>
      </trkpt>
      <trkpt lat="34.082979" lon="110.123306">
        <time>2026-08-10T23:04:42Z</time>
      </trkpt>
      <trkpt lat="34.082983" lon="110.123225">
        <time>2026-08-10T23:04:47Z</time>
      </trkpt>
      <trkpt lat="34.082974" lon="110.123147">
        <time>2026-08-10T23:04:52Z</time>
      </trkpt>
      <trkpt lat="34.082953" lon="110.123072">
        <time>2026-08-10T23:04:57Z</time>
      </trkpt>
      <trkpt lat="34.082919" lon="110.123004">
        <time>2026-08-10T23:05:02Z</time>
      </trkpt>
      <trkpt lat="34.082872" lon="110.122943">
        <time>2026-08-10T23:05:07Z</time>
      </trkpt>
      <trkpt lat="34.082813" lon="110.122893">
        <time>2026-08-10T23:05:12Z</time>
      </trkpt>
      <trkpt lat="34.082747" lon="110.122861">
        <time>2026-08-10T23:05:17Z</time>
      </trkpt>
      <trkpt lat="34.082676" lon="110.122847">
        <time>2026-08-10T23:05:22Z</time>
      </trkpt>
      <trkpt lat="34.082606" lon="110.122851">
        <time>2026-08-10T23:05:27Z</time>
      </trkpt>
      <trkpt lat="34.082543" lon="110.12287">
        <time>2026-08-10T23:05:32Z</time>
      </trkpt>
      <trkpt lat="34.082486" lon="110.12289">
        <time>2026-08-10T23:05:37Z</time>
      </trkpt>
      <trkpt lat="34.082426" lon="110.122911">
        <time>2026-08-10T23:05:42Z</time>
      </trkpt>
      <trkpt lat="34.082369" lon="110.122931">
        <time>2026-08-10T23:05:47Z</time>
      </trkpt>
      <trkpt lat="34.08231" lon="110.122952">
        <time>2026-08-10T23:05:52Z</time>
      </trkpt>
      <trkpt lat="34.082252" lon="110.122973">
        <time>2026-08-10T23:05:57Z</time>
      </trkpt>
      <trkpt lat="34.082195" lon="110.122993">
        <time>2026-08-10T23:06:02Z</time>
      </trkpt>
      <trkpt lat="34.082137" lon="110.123013">
        <time>2026-08-10T23:06:07Z</time>
      </trkpt>
      <trkpt lat="34.082082" lon="110.123033">
        <time>2026-08-10T23:06:12Z</time>
      </trkpt>
      <trkpt lat="34.082027" lon="110.123052">
        <time>2026-08-10T23:06:17Z</time>
      </trkpt>
      <trkpt lat="34.081976" lon="110.12307">
        <time>2026-08-10T23:06:24Z</time>
      </trkpt>
    </trkseg>
  </trk>
</gpx>