<?xml version="1.0" encoding="UTF-8"?>
<gpx xmlns="http://www.topografix.com/GPX/1/1" xmlns:gpxtpx="http://www.garmin.com/xmlschemas/TrackPointExtension/v1" xmlns:xsi="http://www.w3.org/2001/XMLSchema-instance" xsi:schemaLocation="http://www.topografix.com/GPX/1/1 http://www.topografix.com/GPX/1/1/gpx.xsd" version="1.1" creator="gpx.py -- https://github.com/tkrajina/gpxpy">
  <trk>
    <name>gpx from joyrun</name>
    <trkseg>
      <trkpt lat="34.145771" lon="109.968248">
        <time>2026-08-17T07:15:41Z</time>
      </trkpt>
      <trkpt lat="34.145701" lon="109.96873">
        <time>2026-08-17T07:15:46Z</time>
      </trkpt>
      <trkpt lat="34.145656" lon="109.975653">
        <time>2026-08-17T07:15:51Z</time>
      </trkpt>
      <trkpt lat="34.145656" lon="109.975653">
        <time>2026-08-17T07:15:56Z</time>
      </trkpt>
      <trkpt lat="34.145656" lon="109.975653">
        <time>2026-08-17T07:16:01Z</time>
      </trkpt>
      <trkpt lat="34.145656" lon="109.975653">
        <time>2026-08-17T07:16:06Z</time>
      </trkpt>
      <trkpt lat="34.145656" lon="109.975653">
        <time>2026-08-17T07:16:11Z</time>
      </trkpt>
      <trkpt lat="34.145643" lon="109.976094">
        <time>2026-08-17T07:16:16Z</time>
      </trkpt>
      <trkpt lat="34.145643" lon="109.976918">
        <time>2026-08-17T07:16:21Z</time>
      </trkpt>
      <trkpt lat="34.145276" lon="109.979969">
        <time>2026-08-17T07:16:26Z</time>
      </trkpt>
      <trkpt lat="34.145276" lon="109.979969">
        <time>2026-08-17T07:16:31Z</time>
      </trkpt>
      <trkpt lat="34.145276" lon="109.979969">
        <time>2026-08-17T07:16:36Z</time>
      </trkpt>
      <trkpt lat="34.145201" lon="109.980585">
        <time>2026-08-17T07:16:41Z</time>
      </trkpt>
      <trkpt lat="34.144301" lon="109.985993">
        <time>2026-08-17T07:16:46Z</time>
      </trkpt>
      <trkpt lat="34.144301" lon="109.985993">
        <time>2026-08-17T07:16:51Z</time>
      </trkpt>
      <trkpt lat="34.144301" lon="109.985993">
        <time>2026-08-17T07:16:56Z</time>
      </trkpt>
      <trkpt lat="34.144301" lon="109.985993">
        <time>2026-08-17T07:17:01Z</time>
      </trkpt>
      <trkpt lat="34.144301" lon="109.985993">
        <time>2026-08-17T07:17:06Z</time>
      </trkpt>
      <trkpt lat="34.144301" lon="109.985993">
        <time>2026-08-17T07:17:11Z</time>
      </trkpt>
      <trkpt lat="34.144301" lon="109.985993">
        <time>2026-08-17T07:17:16Z</time>
      </trkpt>
      <trkpt lat="34.144301" lon="109.985993">
        <time>2026-08-17T07:17:21Z</time>
      </trkpt>
      <trkpt lat="34.144301" lon="109.985993">
        <time>2026-08-17T07:17:26Z</time>
      </trkpt>
      <trkpt lat="34.144301" lon="109.985993">
        <time>2026-08-17T07:17:31Z</time>
      </trkpt>
      <trkpt lat="34.144301" lon="109.985993">
        <time>2026-08-17T07:17:36Z</time>
      </trkpt>
      <trkpt lat="34.144301" lon="109.985993">
        <time>2026-08-17T07:17:41Z</time>
      </trkpt>
      <trkpt lat="34.144207" lon="109.986296">
        <time>2026-08-17T07:17:46Z</time>
      </trkpt>
      <trkpt lat="34.144147" lon="109.98637">
        <time>2026-08-17T07:17:51Z</time>
      </trkpt>
      <trkpt lat="34.143929" lon="109.986534">
        <time>2026-08-17T07:17:56Z</time>
      </trkpt>
      <trkpt lat="34.143929" lon="109.986534">
        <time>2026-08-17T07:18:01Z</time>
      </trkpt>
      <trkpt lat="34.143929" lon="109.986534">
        <time>2026-08-17T07:18:06Z</time>
      </trkpt>
      <trkpt lat="34.143929" lon="109.986534">
        <time>2026-08-17T07:18:11Z</time>
      </trkpt>
      <trkpt lat="34.143929" lon="109.986534">
        <time>2026-08-17T07:18:16Z</time>
      </trkpt>
      <trkpt lat="34.143929" lon="109.986534">
        <time>2026-08-17T07:18:21Z</time>
      </trkpt>
      <trkpt lat="34.143929" lon="109.986534">
        <time>2026-08-17T07:18:26Z</time>
      </trkpt>
      <trkpt lat="34.143929" lon="109.986534">
        <time>2026-08-17T07:18:31Z</time>
      </trkpt>
      <trkpt lat="34.143929" lon="109.986534">
        <time>2026-08-17T07:18:36Z</time>
      </trkpt>
      <trkpt lat="34.143929" lon="109.986534">
        <time>2026-08-17T07:18:41Z</time>
      </trkpt>
      <trkpt lat="34.143921" lon="109.986537">
        <time>2026-08-17T07:18:46Z</time>
      </trkpt>
      <trkpt lat="34.143908" lon="109.986529">
        <time>2026-08-17T07:18:51Z</time>
      </trkpt>
      <trkpt lat="34.143899" lon="109.986518">
        <time>2026-08-17T07:18:56Z</time>
      </trkpt>
      <trkpt lat="34.143863" lon="109.986506">
        <time>2026-08-17T07:19:01Z</time>
      </trkpt>
      <trkpt lat="34.143816" lon="109.986511">
        <time>2026-08-17T07:19:06Z</time>
      </trkpt>
      <trkpt lat="34.143789" lon="109.986534">
        <time>2026-08-17T07:19:11Z</time>
      </trkpt>
      <trkpt lat="34.14378" lon="109.986541">
        <time>2026-08-17T07:19:16Z</time>
      </trkpt>
      <trkpt lat="34.143782" lon="109.986541">
        <time>2026-08-17T07:19:21Z</time>
      </trkpt>
      <trkpt lat="34.143785" lon="109.986541">
        <time>2026-08-17T07:19:26Z</time>
      </trkpt>
      <trkpt lat="34.143703" lon="109.986562">
        <time>2026-08-17T07:19:31Z</time>
      </trkpt>
      <trkpt lat="34.143703" lon="109.986562">
        <time>2026-08-17T07:19:36Z</time>
      </trkpt>
      <trkpt lat="34.143576" lon="109.986545">
        <time>2026-08-17T07:19:41Z</time>
      </trkpt>
      <trkpt lat="34.143576" lon="109.986545">
        <time>2026-08-17T07:19:46Z</time>
      </trkpt>
      <trkpt lat="34.143576" lon="109.986545">
        <time>2026-08-17T07:19:51Z</time>
      </trkpt>
      <trkpt lat="34.143576" lon="109.986545">
        <time>2026-08-17T07:19:56Z</time>
      </trkpt>
      <trkpt lat="34.143576" lon="109.986545">
        <time>2026-08-17T07:20:01Z</time>
      </trkpt>
      <trkpt lat="34.143576" lon="109.986545">
        <time>2026-08-17T07:20:06Z</time>
      </trkpt>
      <trkpt lat="34.143576" lon="109.986545">
        <time>2026-08-17T07:20:11Z</time>
      </trkpt>
      <trkpt lat="34.143576" lon="109.986545">
        <time>2026-08-17T07:20:16Z</time>
      </trkpt>
      <trkpt lat="34.143576" lon="109.986545">
        <time>2026-08-17T07:20:21Z</time>
      </trkpt>
      <trkpt lat="34.143562" lon="109.986546">
        <time>2026-08-17T07:20:26Z</time>
      </trkpt>
      <trkpt lat="34.143562" lon="109.986545">
        <time>2026-08-17T07:20:31Z</time>
      </trkpt>
      <trkpt lat="34.143554" lon="109.98653">
        <time>2026-08-17T07:20:36Z</time>
      </trkpt>
      <trkpt lat="34.143552" lon="109.986516">
        <time>2026-08-17T07:20:41Z</time>
      </trkpt>
      <trkpt lat="34.143553" lon="109.986482">
        <time>2026-08-17T07:20:46Z</time>
      </trkpt>
      <trkpt lat="34.143548" lon="109.986443">
        <time>2026-08-17T07:20:51Z</time>
      </trkpt>
      <trkpt lat="34.143541" lon="109.986407">
        <time>2026-08-17T07:20:56Z</time>
      </trkpt>
      <trkpt lat="34.14352" lon="109.9864">
        <time>2026-08-17T07:21:01Z</time>
      </trkpt>
      <trkpt lat="34.14352" lon="109.9864">
        <time>2026-08-17T07:21:06Z</time>
      </trkpt>
      <trkpt lat="34.14352" lon="109.9864">
        <time>2026-08-17T07:21:11Z</time>
      </trkpt>
      <trkpt lat="34.143504" lon="109.986399">
        <time>2026-08-17T07:21:16Z</time>
      </trkpt>
      <trkpt lat="34.143523" lon="109.986325">
        <time>2026-08-17T07:21:21Z</time>
      </trkpt>
      <trkpt lat="34.143523" lon="109.986325">
        <time>2026-08-17T07:21:26Z</time>
      </trkpt>
      <trkpt lat="34.143523" lon="109.986325">
        <time>2026-08-17T07:21:31Z</time>
      </trkpt>
      <trkpt lat="34.143523" lon="109.986325">
        <time>2026-08-17T07:21:36Z</time>
      </trkpt>
      <trkpt lat="34.143523" lon="109.986325">
        <time>2026-08-17T07:21:41Z</time>
      </trkpt>
      <trkpt lat="34.143523" lon="109.986325">
        <time>2026-08-17T07:21:46Z</time>
      </trkpt>
      <trkpt lat="34.143523" lon="109.986325">
        <time>2026-08-17T07:21:51Z</time>
      </trkpt>
      <trkpt lat="34.143523" lon="109.986325">
        <time>2026-08-17T07:21:56Z</time>
      </trkpt>
      <trkpt lat="34.143523" lon="109.986325">
        <time>2026-08-17T07:22:01Z</time>
      </trkpt>
      <trkpt lat="34.143523" lon="109.986325">
        <time>2026-08-17T07:22:06Z</time>
      </trkpt>
      <trkpt lat="34.143523" lon="109.986325">
        <time>2026-08-17T07:22:11Z</time>
      </trkpt>
      <trkpt lat="34.143523" lon="109.986325">
        <time>2026-08-17T07:22:16Z</time>
      </trkpt>
      <trkpt lat="34.143523" lon="109.986325">
        <time>2026-08-17T07:22:21Z</time>
      </trkpt>
      <trkpt lat="34.143523" lon="109.986325">
        <time>2026-08-17T07:22:26Z</time>
      </trkpt>
      <trkpt lat="34.143523" lon="109.986325">
        <time>2026-08-17T07:22:31Z</time>
      </trkpt>
      <trkpt lat="34.143523" lon="109.986325">
        <time>2026-08-17T07:22:36Z</time>
      </trkpt>
      <trkpt lat="34.143523" lon="109.986325">
        <time>2026-08-17T07:22:41Z</time>
      </trkpt>
      <trkpt lat="34.143523" lon="109.986325">
        <time>2026-08-17T07:22:46Z</time>
      </trkpt>
      <trkpt lat="34.143523" lon="109.986325">
        <time>2026-08-17T07:22:51Z</time>
      </trkpt>
      <trkpt lat="34.143523" lon="109.986325">
        <time>2026-08-17T07:22:56Z</time>
      </trkpt>
      <trkpt lat="34.143523" lon="109.986325">
        <time>2026-08-17T07:23:01Z</time>
      </trkpt>
      <trkpt lat="34.143523" lon="109.986325">
        <time>2026-08-17T07:23:06Z</time>
      </trkpt>
      <trkpt lat="34.143523" lon="109.986325">
        <time>2026-08-17T07:23:11Z</time>
      </trkpt>
      <trkpt lat="34.143523" lon="109.986325">
        <time>2026-08-17T07:23:16Z</time>
      </trkpt>
      <trkpt lat="34.143523" lon="109.986325">
        <time>2026-08-17T07:23:21Z</time>
      </trkpt>
      <trkpt lat="34.143523" lon="109.986325">
        <time>2026-08-17T07:23:26Z</time>
      </trkpt>
      <trkpt lat="34.143535" lon="109.986288">
        <time>2026-08-17T07:23:31Z</time>
      </trkpt>
      <trkpt lat="34.143535" lon="109.986288">
        <time>2026-08-17T07:23:36Z</time>
      </trkpt>
      <trkpt lat="34.143535" lon="109.986288">
        <time>2026-08-17T07:23:41Z</time>
      </trkpt>
      <trkpt lat="34.143535" lon="109.986288">
        <time>2026-08-17T07:23:46Z</time>
      </trkpt>
      <trkpt lat="34.143536" lon="109.98628">
        <time>2026-08-17T07:23:51Z</time>
      </trkpt>
      <trkpt lat="34.143621" lon="109.986189">
        <time>2026-08-17T07:23:56Z</time>
      </trkpt>
      <trkpt lat="34.143621" lon="109.986189">
        <time>2026-08-17T07:24:01Z</time>
      </trkpt>
      <trkpt lat="34.143621" lon="109.986189">
        <time>2026-08-17T07:24:06Z</time>
      </trkpt>
      <trkpt lat="34.143621" lon="109.986189">
        <time>2026-08-17T07:24:11Z</time>
      </trkpt>
      <trkpt lat="34.143621" lon="109.986189">
        <time>2026-08-17T07:24:16Z</time>
      </trkpt>
      <trkpt lat="34.143621" lon="109.986189">
        <time>2026-08-17T07:24:21Z</time>
      </trkpt>
      <trkpt lat="34.143621" lon="109.986189">
        <time>2026-08-17T07:24:26Z</time>
      </trkpt>
      <trkpt lat="34.143621" lon="109.986189">
        <time>2026-08-17T07:24:31Z</time>
      </trkpt>
      <trkpt lat="34.143621" lon="109.986189">
        <time>2026-08-17T07:24:36Z</time>
      </trkpt>
      <trkpt lat="34.143621" lon="109.986189">
        <time>2026-08-17T07:24:41Z</time>
      </trkpt>
      <trkpt lat="34.143621" lon="109.986189">
        <time>2026-08-17T07:24:46Z</time>
      </trkpt>
      <trkpt lat="34.143621" lon="109.986189">
        <time>2026-08-17T07:24:51Z</time>
      </trkpt>
      <trkpt lat="34.143621" lon="109.986189">
        <time>2026-08-17T07:24:56Z</time>
      </trkpt>
      <trkpt lat="34.143621" lon="109.986189">
        <time>2026-08-17T07:25:01Z</time>
      </trkpt>
      <trkpt lat="34.143621" lon="109.986189">
        <time>2026-08-17T07:25:06Z</time>
      </trkpt>
      <trkpt lat="34.143621" lon="109.986189">
        <time>2026-08-17T07:25:11Z</time>
      </trkpt>
      <trkpt lat="34.143621" lon="109.986189">
        <time>2026-08-17T07:25:16Z</time>
      </trkpt>
      <trkpt lat="34.143621" lon="109.986189">
        <time>2026-08-17T07:25:21Z</time>
      </trkpt>
      <trkpt lat="34.143621" lon="109.986189">
        <time>2026-08-17T07:25:26Z</time>
      </trkpt>
      <trkpt lat="34.143621" lon="109.986189">
        <time>2026-08-17T07:25:31Z</time>
      </trkpt>
      <trkpt lat="34.143621" lon="109.986189">
        <time>2026-08-17T07:25:36Z</time>
      </trkpt>
      <trkpt lat="34.143621" lon="109.986189">
        <time>2026-08-17T07:25:41Z</time>
      </trkpt>
      <trkpt lat="34.143621" lon="109.986189">
        <time>2026-08-17T07:25:46Z</time>
      </trkpt>
      <trkpt lat="34.143621" lon="109.986189">
        <time>2026-08-17T07:25:51Z</time>
      </trkpt>
      <trkpt lat="34.143621" lon="109.986189">
        <time>2026-08-17T07:25:56Z</time>
      </trkpt>
      <trkpt lat="34.143621" lon="109.986189">
        <time>2026-08-17T07:26:01Z</time>
      </trkpt>
      <trkpt lat="34.143621" lon="109.986189">
        <time>2026-08-17T07:26:06Z</time>
      </trkpt>
      <trkpt lat="34.143621" lon="109.986189">
        <time>2026-08-17T07:26:11Z</time>
      </trkpt>
      <trkpt lat="34.143624" lon="109.986183">
        <time>2026-08-17T07:26:16Z</time>
      </trkpt>
      <trkpt lat="34.143624" lon="109.986183">
        <time>2026-08-17T07:26:21Z</time>
      </trkpt>
      <trkpt lat="34.143623" lon="109.98616">
        <time>2026-08-17T07:26:26Z</time>
      </trkpt>
      <trkpt lat="34.143623" lon="109.98616">
        <time>2026-08-17T07:26:31Z</time>
      </trkpt>
      <trkpt lat="34.143645" lon="109.986174">
        <time>2026-08-17T07:26:36Z</time>
      </trkpt>
      <trkpt lat="34.143645" lon="109.986174">
        <time>2026-08-17T07:26:41Z</time>
      </trkpt>
      <trkpt lat="34.143645" lon="109.986174">
        <time>2026-08-17T07:26:46Z</time>
      </trkpt>
      <trkpt lat="34.143645" lon="109.986174">
        <time>2026-08-17T07:26:51Z</time>
      </trkpt>
      <trkpt lat="34.143641" lon="109.986163">
        <time>2026-08-17T07:26:56Z</time>
      </trkpt>
      <trkpt lat="34.143643" lon="109.986163">
        <time>2026-08-17T07:27:01Z</time>
      </trkpt>
      <trkpt lat="34.143643" lon="109.986163">
        <time>2026-08-17T07:27:06Z</time>
      </trkpt>
      <trkpt lat="34.143643" lon="109.986163">
        <time>2026-08-17T07:27:11Z</time>
      </trkpt>
      <trkpt lat="34.143646" lon="109.986177">
        <time>2026-08-17T07:27:16Z</time>
      </trkpt>
      <trkpt lat="34.143646" lon="109.986177">
        <time>2026-08-17T07:27:21Z</time>
      </trkpt>
      <trkpt lat="34.143648" lon="109.986179">
        <time>2026-08-17T07:27:26Z</time>
      </trkpt>
      <trkpt lat="34.143647" lon="109.986174">
        <time>2026-08-17T07:27:31Z</time>
      </trkpt>
      <trkpt lat="34.143651" lon="109.98616">
        <time>2026-08-17T07:27:36Z</time>
      </trkpt>
      <trkpt lat="34.143656" lon="109.986154">
        <time>2026-08-17T07:27:41Z</time>
      </trkpt>
      <trkpt lat="34.14365" lon="109.986147">
        <time>2026-08-17T07:27:46Z</time>
      </trkpt>
      <trkpt lat="34.143632" lon="109.98613">
        <time>2026-08-17T07:27:51Z</time>
      </trkpt>
      <trkpt lat="34.143606" lon="109.986102">
        <time>2026-08-17T07:27:56Z</time>
      </trkpt>
      <trkpt lat="34.14358" lon="109.986084">
        <time>2026-08-17T07:28:01Z</time>
      </trkpt>
      <trkpt lat="34.143557" lon="109.986075">
        <time>2026-08-17T07:28:06Z</time>
      </trkpt>
      <trkpt lat="34.143541" lon="109.986064">
        <time>2026-08-17T07:28:11Z</time>
      </trkpt>
      <trkpt lat="34.143539" lon="109.986059">
        <time>2026-08-17T07:28:16Z</time>
      </trkpt>
      <trkpt lat="34.143548" lon="109.986047">
        <time>2026-08-17T07:28:21Z</time>
      </trkpt>
      <trkpt lat="34.143548" lon="109.986047">
        <time>2026-08-17T07:28:26Z</time>
      </trkpt>
      <trkpt lat="34.143583" lon="109.98599">
        <time>2026-08-17T07:28:31Z</time>
      </trkpt>
      <trkpt lat="34.143583" lon="109.98599">
        <time>2026-08-17T07:28:36Z</time>
      </trkpt>
      <trkpt lat="34.143583" lon="109.98599">
        <time>2026-08-17T07:28:41Z</time>
      </trkpt>
      <trkpt lat="34.143583" lon="109.98599">
        <time>2026-08-17T07:28:46Z</time>
      </trkpt>
      <trkpt lat="34.143583" lon="109.98599">
        <time>2026-08-17T07:28:51Z</time>
      </trkpt>
      <trkpt lat="34.143583" lon="109.98599">
        <time>2026-08-17T07:28:56Z</time>
      </trkpt>
      <trkpt lat="34.143602" lon="109.985969">
        <time>2026-08-17T07:29:01Z</time>
      </trkpt>
      <trkpt lat="34.143605" lon="109.985962">
        <time>2026-08-17T07:29:06Z</time>
      </trkpt>
      <trkpt lat="34.143605" lon="109.985962">
        <time>2026-08-17T07:29:11Z</time>
      </trkpt>
      <trkpt lat="34.143584" lon="109.985969">
        <time>2026-08-17T07:29:16Z</time>
      </trkpt>
      <trkpt lat="34.143573" lon="109.985985">
        <time>2026-08-17T07:29:21Z</time>
      </trkpt>
      <trkpt lat="34.143584" lon="109.985976">
        <time>2026-08-17T07:29:26Z</time>
      </trkpt>
      <trkpt lat="34.143584" lon="109.985976">
        <time>2026-08-17T07:29:31Z</time>
      </trkpt>
      <trkpt lat="34.143584" lon="109.985976">
        <time>2026-08-17T07:29:36Z</time>
      </trkpt>
      <trkpt lat="34.143586" lon="109.985978">
        <time>2026-08-17T07:29:41Z</time>
      </trkpt>
      <trkpt lat="34.143576" lon="109.985973">
        <time>2026-08-17T07:29:46Z</time>
      </trkpt>
      <trkpt lat="34.143564" lon="109.985969">
        <time>2026-08-17T07:29:51Z</time>
      </trkpt>
      <trkpt lat="34.143593" lon="109.985903">
        <time>2026-08-17T07:29:56Z</time>
      </trkpt>
      <trkpt lat="34.143593" lon="109.985903">
        <time>2026-08-17T07:30:01Z</time>
      </trkpt>
      <trkpt lat="34.143593" lon="109.985903">
        <time>2026-08-17T07:30:06Z</time>
      </trkpt>
      <trkpt lat="34.143593" lon="109.985903">
        <time>2026-08-17T07:30:11Z</time>
      </trkpt>
      <trkpt lat="34.143593" lon="109.985903">
        <time>2026-08-17T07:30:16Z</time>
      </trkpt>
      <trkpt lat="34.143593" lon="109.985903">
        <time>2026-08-17T07:30:21Z</time>
      </trkpt>
      <trkpt lat="34.143593" lon="109.985903">
        <time>2026-08-17T07:30:26Z</time>
      </trkpt>
      <trkpt lat="34.143593" lon="109.985903">
        <time>2026-08-17T07:30:31Z</time>
      </trkpt>
      <trkpt lat="34.143593" lon="109.985903">
        <time>2026-08-17T07:30:36Z</time>
      </trkpt>
      <trkpt lat="34.143593" lon="109.985903">
        <time>2026-08-17T07:30:41Z</time>
      </trkpt>
      <trkpt lat="34.143593" lon="109.985903">
        <time>2026-08-17T07:30:46Z</time>
      </trkpt>
      <trkpt lat="34.143593" lon="109.985903">
        <time>2026-08-17T07:30:51Z</time>
      </trkpt>
      <trkpt lat="34.143593" lon="109.985903">
        <time>2026-08-17T07:30:56Z</time>
      </trkpt>
      <trkpt lat="34.143593" lon="109.985903">
        <time>2026-08-17T07:31:01Z</time>
      </trkpt>
      <trkpt lat="34.143593" lon="109.985903">
        <time>2026-08-17T07:31:06Z</time>
      </trkpt>
      <trkpt lat="34.143593" lon="109.985903">
        <time>2026-08-17T07:31:11Z</time>
      </trkpt>
      <trkpt lat="34.143593" lon="109.985903">
        <time>2026-08-17T07:31:16Z</time>
      </trkpt>
      <trkpt lat="34.143593" lon="109.985903">
        <time>2026-08-17T07:31:21Z</time>
      </trkpt>
      <trkpt lat="34.143593" lon="109.985903">
        <time>2026-08-17T07:31:26Z</time>
      </trkpt>
      <trkpt lat="34.143593" lon="109.985903">
        <time>2026-08-17T07:31:31Z</time>
      </trkpt>
      <trkpt lat="34.143593" lon="109.985903">
        <time>2026-08-17T07:31:36Z</time>
      </trkpt>
      <trkpt lat="34.143593" lon="109.985903">
        <time>2026-08-17T07:31:41Z</time>
      </trkpt>
      <trkpt lat="34.143593" lon="109.985903">
        <time>2026-08-17T07:31:46Z</time>
      </trkpt>
      <trkpt lat="34.143593" lon="109.985903">
        <time>2026-08-17T07:31:51Z</time>
      </trkpt>
      <trkpt lat="34.143593" lon="109.985903">
        <time>2026-08-17T07:31:56Z</time>
      </trkpt>
      <trkpt lat="34.143593" lon="109.985903">
        <time>2026-08-17T07:32:01Z</time>
      </trkpt>
      <trkpt lat="34.143593" lon="109.985903">
        <time>2026-08-17T07:32:06Z</time>
      </trkpt>
      <trkpt lat="34.143593" lon="109.985903">
        <time>2026-08-17T07:32:11Z</time>
      </trkpt>
      <trkpt lat="34.143593" lon="109.985903">
        <time>2026-08-17T07:32:16Z</time>
      </trkpt>
      <trkpt lat="34.143593" lon="109.985903">
        <time>2026-08-17T07:32:21Z</time>
      </trkpt>
      <trkpt lat="34.143593" lon="109.985903">
        <time>2026-08-17T07:32:26Z</time>
      </trkpt>
      <trkpt lat="34.143602" lon="109.985901">
        <time>2026-08-17T07:32:31Z</time>
      </trkpt>
      <trkpt lat="34.143635" lon="109.985892">
        <time>2026-08-17T07:32:36Z</time>
      </trkpt>
      <trkpt lat="34.143643" lon="109.985893">
        <time>2026-08-17T07:32:41Z</time>
      </trkpt>
      <trkpt lat="34.143686" lon="109.985894">
        <time>2026-08-17T07:32:46Z</time>
      </trkpt>
      <trkpt lat="34.143734" lon="109.985896">
        <time>2026-08-17T07:32:51Z</time>
      </trkpt>
      <trkpt lat="34.14377" lon="109.985891">
        <time>2026-08-17T07:32:56Z</time>
      </trkpt>
      <trkpt lat="34.143784" lon="109.985892">
        <time>2026-08-17T07:33:01Z</time>
      </trkpt>
      <trkpt lat="34.143793" lon="109.985894">
        <time>2026-08-17T07:33:06Z</time>
      </trkpt>
      <trkpt lat="34.143807" lon="109.985899">
        <time>2026-08-17T07:33:11Z</time>
      </trkpt>
      <trkpt lat="34.143809" lon="109.985899">
        <time>2026-08-17T07:33:16Z</time>
      </trkpt>
      <trkpt lat="34.143789" lon="109.985911">
        <time>2026-08-17T07:33:21Z</time>
      </trkpt>
      <trkpt lat="34.143789" lon="109.985911">
        <time>2026-08-17T07:33:26Z</time>
      </trkpt>
      <trkpt lat="34.143789" lon="109.985911">
        <time>2026-08-17T07:33:31Z</time>
      </trkpt>
      <trkpt lat="34.143753" lon="109.985908">
        <time>2026-08-17T07:33:36Z</time>
      </trkpt>
      <trkpt lat="34.143707" lon="109.985904">
        <time>2026-08-17T07:33:41Z</time>
      </trkpt>
      <trkpt lat="34.14366" lon="109.985904">
        <time>2026-08-17T07:33:46Z</time>
      </trkpt>
      <trkpt lat="34.143626" lon="109.985903">
        <time>2026-08-17T07:33:51Z</time>
      </trkpt>
      <trkpt lat="34.143357" lon="109.986087">
        <time>2026-08-17T07:33:56Z</time>
      </trkpt>
      <trkpt lat="34.143357" lon="109.986087">
        <time>2026-08-17T07:34:01Z</time>
      </trkpt>
      <trkpt lat="34.143357" lon="109.986087">
        <time>2026-08-17T07:34:06Z</time>
      </trkpt>
      <trkpt lat="34.143357" lon="109.986087">
        <time>2026-08-17T07:34:11Z</time>
      </trkpt>
      <trkpt lat="34.143357" lon="109.986087">
        <time>2026-08-17T07:34:16Z</time>
      </trkpt>
      <trkpt lat="34.143357" lon="109.986087">
        <time>2026-08-17T07:34:21Z</time>
      </trkpt>
      <trkpt lat="34.143357" lon="109.986087">
        <time>2026-08-17T07:34:26Z</time>
      </trkpt>
      <trkpt lat="34.143357" lon="109.986087">
        <time>2026-08-17T07:34:31Z</time>
      </trkpt>
      <trkpt lat="34.143357" lon="109.986087">
        <time>2026-08-17T07:34:36Z</time>
      </trkpt>
      <trkpt lat="34.143357" lon="109.986087">
        <time>2026-08-17T07:34:41Z</time>
      </trkpt>
      <trkpt lat="34.143357" lon="109.986087">
        <time>2026-08-17T07:34:46Z</time>
      </trkpt>
      <trkpt lat="34.143357" lon="109.986087">
        <time>2026-08-17T07:34:51Z</time>
      </trkpt>
      <trkpt lat="34.143357" lon="109.986087">
        <time>2026-08-17T07:34:56Z</time>
      </trkpt>
      <trkpt lat="34.143357" lon="109.986087">
        <time>2026-08-17T07:35:01Z</time>
      </trkpt>
      <trkpt lat="34.143357" lon="109.986087">
        <time>2026-08-17T07:35:06Z</time>
      </trkpt>
      <trkpt lat="34.143357" lon="109.986087">
        <time>2026-08-17T07:35:11Z</time>
      </trkpt>
      <trkpt lat="34.143357" lon="109.986087">
        <time>2026-08-17T07:35:16Z</time>
      </trkpt>
      <trkpt lat="34.143357" lon="109.986087">
        <time>2026-08-17T07:35:21Z</time>
      </trkpt>
      <trkpt lat="34.143357" lon="109.986087">
        <time>2026-08-17T07:35:26Z</time>
      </trkpt>
      <trkpt lat="34.143357" lon="109.986087">
        <time>2026-08-17T07:35:31Z</time>
      </trkpt>
      <trkpt lat="34.143357" lon="109.986087">
        <time>2026-08-17T07:35:36Z</time>
      </trkpt>
      <trkpt lat="34.143357" lon="109.986087">
        <time>2026-08-17T07:35:41Z</time>
      </trkpt>
      <trkpt lat="34.143357" lon="109.986087">
        <time>2026-08-17T07:35:46Z</time>
      </trkpt>
      <trkpt lat="34.143357" lon="109.986087">
        <time>2026-08-17T07:35:51Z</time>
      </trkpt>
      <trkpt lat="34.143357" lon="109.986087">
        <time>2026-08-17T07:35:56Z</time>
      </trkpt>
      <trkpt lat="34.143357" lon="109.986087">
        <time>2026-08-17T07:36:01Z</time>
      </trkpt>
      <trkpt lat="34.143357" lon="109.986087">
        <time>2026-08-17T07:36:06Z</time>
      </trkpt>
      <trkpt lat="34.143357" lon="109.986087">
        <time>2026-08-17T07:36:11Z</time>
      </trkpt>
      <trkpt lat="34.143357" lon="109.986087">
        <time>2026-08-17T07:36:16Z</time>
      </trkpt>
      <trkpt lat="34.143357" lon="109.986087">
        <time>2026-08-17T07:36:21Z</time>
      </trkpt>
      <trkpt lat="34.143357" lon="109.986087">
        <time>2026-08-17T07:36:26Z</time>
      </trkpt>
      <trkpt lat="34.143357" lon="109.986087">
        <time>2026-08-17T07:36:31Z</time>
      </trkpt>
      <trkpt lat="34.143357" lon="109.986087">
        <time>2026-08-17T07:36:36Z</time>
      </trkpt>
      <trkpt lat="34.143357" lon="109.986087">
        <time>2026-08-17T07:36:41Z</time>
      </trkpt>
      <trkpt lat="34.143357" lon="109.986087">
        <time>2026-08-17T07:36:46Z</time>
      </trkpt>
      <trkpt lat="34.143357" lon="109.986087">
        <time>2026-08-17T07:36:51Z</time>
      </trkpt>
      <trkpt lat="34.143357" lon="109.986087">
        <time>2026-08-17T07:36:56Z</time>
      </trkpt>
      <trkpt lat="34.143357" lon="109.986087">
        <time>2026-08-17T07:37:01Z</time>
      </trkpt>
      <trkpt lat="34.143357" lon="109.986087">
        <time>2026-08-17T07:37:06Z</time>
      </trkpt>
      <trkpt lat="34.143348" lon="109.986094">
        <time>2026-08-17T07:37:11Z</time>
      </trkpt>
      <trkpt lat="34.14332" lon="109.986101">
        <time>2026-08-17T07:37:16Z</time>
      </trkpt>
      <trkpt lat="34.14332" lon="109.986101">
        <time>2026-08-17T07:37:21Z</time>
      </trkpt>
      <trkpt lat="34.14332" lon="109.986101">
        <time>2026-08-17T07:37:26Z</time>
      </trkpt>
      <trkpt lat="34.143294" lon="109.986092">
        <time>2026-08-17T07:37:31Z</time>
      </trkpt>
      <trkpt lat="34.143294" lon="109.986092">
        <time>2026-08-17T07:37:36Z</time>
      </trkpt>
      <trkpt lat="34.143294" lon="109.986092">
        <time>2026-08-17T07:37:41Z</time>
      </trkpt>
      <trkpt lat="34.143294" lon="109.986092">
        <time>2026-08-17T07:37:46Z</time>
      </trkpt>
      <trkpt lat="34.143294" lon="109.986092">
        <time>2026-08-17T07:37:51Z</time>
      </trkpt>
      <trkpt lat="34.143294" lon="109.986092">
        <time>2026-08-17T07:37:56Z</time>
      </trkpt>
      <trkpt lat="34.143294" lon="109.986092">
        <time>2026-08-17T07:38:01Z</time>
      </trkpt>
      <trkpt lat="34.143294" lon="109.986092">
        <time>2026-08-17T07:38:06Z</time>
      </trkpt>
      <trkpt lat="34.143294" lon="109.986092">
        <time>2026-08-17T07:38:11Z</time>
      </trkpt>
      <trkpt lat="34.143294" lon="109.986092">
        <time>2026-08-17T07:38:16Z</time>
      </trkpt>
      <trkpt lat="34.143294" lon="109.986092">
        <time>2026-08-17T07:38:21Z</time>
      </trkpt>
      <trkpt lat="34.143294" lon="109.986092">
        <time>2026-08-17T07:38:26Z</time>
      </trkpt>
      <trkpt lat="34.143294" lon="109.986092">
        <time>2026-08-17T07:38:31Z</time>
      </trkpt>
      <trkpt lat="34.143294" lon="109.986092">
        <time>2026-08-17T07:38:36Z</time>
      </trkpt>
      <trkpt lat="34.143294" lon="109.986092">
        <time>2026-08-17T07:38:41Z</time>
      </trkpt>
      <trkpt lat="34.143294" lon="109.986092">
        <time>2026-08-17T07:38:46Z</time>
      </trkpt>
      <trkpt lat="34.143254" lon="109.986096">
        <time>2026-08-17T07:38:51Z</time>
      </trkpt>
      <trkpt lat="34.143213" lon="109.986114">
        <time>2026-08-17T07:38:56Z</time>
      </trkpt>
      <trkpt lat="34.143171" lon="109.986112">
        <time>2026-08-17T07:39:01Z</time>
      </trkpt>
      <trkpt lat="34.143169" lon="109.986043">
        <time>2026-08-17T07:39:06Z</time>
      </trkpt>
      <trkpt lat="34.14318" lon="109.985967">
        <time>2026-08-17T07:39:14Z</time>
      </trkpt>
    </trkseg>
  </trk>
</gpx>