<?xml version="1.0" encoding="UTF-8"?>
<gpx xmlns="http://www.topografix.com/GPX/1/1" xmlns:gpxtpx="http://www.garmin.com/xmlschemas/TrackPointExtension/v1" xmlns:xsi="http://www.w3.org/2001/XMLSchema-instance" xsi:schemaLocation="http://www.topografix.com/GPX/1/1 http://www.topografix.com/GPX/1/1/gpx.xsd" version="1.1" creator="gpx.py -- https://github.com/tkrajina/gpxpy">
  <trk>
    <name>gpx from joyrun</name>
    <trkseg>
      <trkpt lat="34.079744" lon="110.125637">
        <time>2026-08-20T11:33:01Z</time>
      </trkpt>
      <trkpt lat="34.07974" lon="110.125542">
        <time>2026-08-20T11:33:06Z</time>
      </trkpt>
      <trkpt lat="34.079727" lon="110.12537">
        <time>2026-08-20T11:33:11Z</time>
      </trkpt>
      <trkpt lat="34.079712" lon="110.125177">
        <time>2026-08-20T11:33:16Z</time>
      </trkpt>
      <trkpt lat="34.079701" lon="110.124993">
        <time>2026-08-20T11:33:21Z</time>
      </trkpt>
      <trkpt lat="34.0797" lon="110.124823">
        <time>2026-08-20T11:33:26Z</time>
      </trkpt>
      <trkpt lat="34.079697" lon="110.124665">
        <time>2026-08-20T11:33:31Z</time>
      </trkpt>
      <trkpt lat="34.079693" lon="110.124515">
        <time>2026-08-20T11:33:36Z</time>
      </trkpt>
      <trkpt lat="34.079689" lon="110.124363">
        <time>2026-08-20T11:33:41Z</time>
      </trkpt>
      <trkpt lat="34.079689" lon="110.124206">
        <time>2026-08-20T11:33:46Z</time>
      </trkpt>
      <trkpt lat="34.07969" lon="110.124046">
        <time>2026-08-20T11:33:51Z</time>
      </trkpt>
      <trkpt lat="34.079694" lon="110.123894">
        <time>2026-08-20T11:33:56Z</time>
      </trkpt>
      <trkpt lat="34.079701" lon="110.123748">
        <time>2026-08-20T11:34:01Z</time>
      </trkpt>
      <trkpt lat="34.079703" lon="110.123629">
        <time>2026-08-20T11:34:06Z</time>
      </trkpt>
      <trkpt lat="34.079692" lon="110.123555">
        <time>2026-08-20T11:34:11Z</time>
      </trkpt>
      <trkpt lat="34.079677" lon="110.123483">
        <time>2026-08-20T11:34:16Z</time>
      </trkpt>
      <trkpt lat="34.079663" lon="110.123417">
        <time>2026-08-20T11:34:21Z</time>
      </trkpt>
      <trkpt lat="34.079643" lon="110.123339">
        <time>2026-08-20T11:34:26Z</time>
      </trkpt>
      <trkpt lat="34.079653" lon="110.123256">
        <time>2026-08-20T11:34:31Z</time>
      </trkpt>
      <trkpt lat="34.079665" lon="110.123178">
        <time>2026-08-20T11:34:36Z</time>
      </trkpt>
      <trkpt lat="34.079667" lon="110.123106">
        <time>2026-08-20T11:34:41Z</time>
      </trkpt>
      <trkpt lat="34.079651" lon="110.123026">
        <time>2026-08-20T11:34:46Z</time>
      </trkpt>
      <trkpt lat="34.079621" lon="110.122944">
        <time>2026-08-20T11:34:51Z</time>
      </trkpt>
      <trkpt lat="34.079626" lon="110.12288">
        <time>2026-08-20T11:34:56Z</time>
      </trkpt>
      <trkpt lat="34.079643" lon="110.12283">
        <time>2026-08-20T11:35:01Z</time>
      </trkpt>
      <trkpt lat="34.079647" lon="110.122764">
        <time>2026-08-20T11:35:06Z</time>
      </trkpt>
      <trkpt lat="34.079639" lon="110.12269">
        <time>2026-08-20T11:35:11Z</time>
      </trkpt>
      <trkpt lat="34.079635" lon="110.122626">
        <time>2026-08-20T11:35:16Z</time>
      </trkpt>
      <trkpt lat="34.079645" lon="110.12257">
        <time>2026-08-20T11:35:21Z</time>
      </trkpt>
      <trkpt lat="34.079657" lon="110.122467">
        <time>2026-08-20T11:35:26Z</time>
      </trkpt>
      <trkpt lat="34.079651" lon="110.122297">
        <time>2026-08-20T11:35:31Z</time>
      </trkpt>
      <trkpt lat="34.079633" lon="110.122097">
        <time>2026-08-20T11:35:36Z</time>
      </trkpt>
      <trkpt lat="34.079622" lon="110.121907">
        <time>2026-08-20T11:35:41Z</time>
      </trkpt>
      <trkpt lat="34.07963" lon="110.121726">
        <time>2026-08-20T11:35:46Z</time>
      </trkpt>
      <trkpt lat="34.079635" lon="110.121549">
        <time>2026-08-20T11:35:51Z</time>
      </trkpt>
      <trkpt lat="34.079628" lon="110.121374">
        <time>2026-08-20T11:35:56Z</time>
      </trkpt>
      <trkpt lat="34.079623" lon="110.121234">
        <time>2026-08-20T11:36:01Z</time>
      </trkpt>
      <trkpt lat="34.079627" lon="110.121089">
        <time>2026-08-20T11:36:06Z</time>
      </trkpt>
      <trkpt lat="34.079627" lon="110.120972">
        <time>2026-08-20T11:36:11Z</time>
      </trkpt>
      <trkpt lat="34.07964" lon="110.120907">
        <time>2026-08-20T11:36:16Z</time>
      </trkpt>
      <trkpt lat="34.079674" lon="110.12087">
        <time>2026-08-20T11:36:21Z</time>
      </trkpt>
      <trkpt lat="34.079685" lon="110.120812">
        <time>2026-08-20T11:36:26Z</time>
      </trkpt>
      <trkpt lat="34.079669" lon="110.120742">
        <time>2026-08-20T11:36:31Z</time>
      </trkpt>
      <trkpt lat="34.079653" lon="110.120667">
        <time>2026-08-20T11:36:36Z</time>
      </trkpt>
      <trkpt lat="34.079654" lon="110.120592">
        <time>2026-08-20T11:36:41Z</time>
      </trkpt>
      <trkpt lat="34.079655" lon="110.120519">
        <time>2026-08-20T11:36:46Z</time>
      </trkpt>
      <trkpt lat="34.079658" lon="110.120437">
        <time>2026-08-20T11:36:51Z</time>
      </trkpt>
      <trkpt lat="34.079663" lon="110.120358">
        <time>2026-08-20T11:36:56Z</time>
      </trkpt>
      <trkpt lat="34.079662" lon="110.120278">
        <time>2026-08-20T11:37:01Z</time>
      </trkpt>
      <trkpt lat="34.079651" lon="110.120204">
        <time>2026-08-20T11:37:06Z</time>
      </trkpt>
      <trkpt lat="34.079648" lon="110.12013">
        <time>2026-08-20T11:37:11Z</time>
      </trkpt>
      <trkpt lat="34.079657" lon="110.120067">
        <time>2026-08-20T11:37:16Z</time>
      </trkpt>
      <trkpt lat="34.079662" lon="110.120004">
        <time>2026-08-20T11:37:21Z</time>
      </trkpt>
      <trkpt lat="34.079652" lon="110.119914">
        <time>2026-08-20T11:37:26Z</time>
      </trkpt>
      <trkpt lat="34.079665" lon="110.119836">
        <time>2026-08-20T11:37:31Z</time>
      </trkpt>
      <trkpt lat="34.079653" lon="110.119711">
        <time>2026-08-20T11:37:36Z</time>
      </trkpt>
      <trkpt lat="34.079638" lon="110.119533">
        <time>2026-08-20T11:37:41Z</time>
      </trkpt>
      <trkpt lat="34.079631" lon="110.119346">
        <time>2026-08-20T11:37:46Z</time>
      </trkpt>
      <trkpt lat="34.07964" lon="110.11916">
        <time>2026-08-20T11:37:51Z</time>
      </trkpt>
      <trkpt lat="34.07964" lon="110.118969">
        <time>2026-08-20T11:37:56Z</time>
      </trkpt>
      <trkpt lat="34.079646" lon="110.118794">
        <time>2026-08-20T11:38:01Z</time>
      </trkpt>
      <trkpt lat="34.079645" lon="110.118619">
        <time>2026-08-20T11:38:06Z</time>
      </trkpt>
      <trkpt lat="34.07965" lon="110.118446">
        <time>2026-08-20T11:38:11Z</time>
      </trkpt>
      <trkpt lat="34.079646" lon="110.118315">
        <time>2026-08-20T11:38:16Z</time>
      </trkpt>
      <trkpt lat="34.079635" lon="110.118232">
        <time>2026-08-20T11:38:21Z</time>
      </trkpt>
      <trkpt lat="34.079632" lon="110.118147">
        <time>2026-08-20T11:38:26Z</time>
      </trkpt>
      <trkpt lat="34.079634" lon="110.118058">
        <time>2026-08-20T11:38:31Z</time>
      </trkpt>
      <trkpt lat="34.079642" lon="110.117975">
        <time>2026-08-20T11:38:36Z</time>
      </trkpt>
      <trkpt lat="34.079647" lon="110.117893">
        <time>2026-08-20T11:38:41Z</time>
      </trkpt>
      <trkpt lat="34.079649" lon="110.117812">
        <time>2026-08-20T11:38:46Z</time>
      </trkpt>
      <trkpt lat="34.079652" lon="110.11773">
        <time>2026-08-20T11:38:51Z</time>
      </trkpt>
      <trkpt lat="34.079658" lon="110.11765">
        <time>2026-08-20T11:38:56Z</time>
      </trkpt>
      <trkpt lat="34.079645" lon="110.117552">
        <time>2026-08-20T11:39:01Z</time>
      </trkpt>
      <trkpt lat="34.079642" lon="110.117476">
        <time>2026-08-20T11:39:06Z</time>
      </trkpt>
      <trkpt lat="34.07964" lon="110.117397">
        <time>2026-08-20T11:39:11Z</time>
      </trkpt>
      <trkpt lat="34.079646" lon="110.117319">
        <time>2026-08-20T11:39:16Z</time>
      </trkpt>
      <trkpt lat="34.079651" lon="110.117254">
        <time>2026-08-20T11:39:21Z</time>
      </trkpt>
      <trkpt lat="34.079656" lon="110.117182">
        <time>2026-08-20T11:39:26Z</time>
      </trkpt>
      <trkpt lat="34.079664" lon="110.117102">
        <time>2026-08-20T11:39:31Z</time>
      </trkpt>
      <trkpt lat="34.079695" lon="110.117024">
        <time>2026-08-20T11:39:36Z</time>
      </trkpt>
      <trkpt lat="34.079727" lon="110.116949">
        <time>2026-08-20T11:39:41Z</time>
      </trkpt>
      <trkpt lat="34.079739" lon="110.116873">
        <time>2026-08-20T11:39:46Z</time>
      </trkpt>
      <trkpt lat="34.079736" lon="110.116788">
        <time>2026-08-20T11:39:51Z</time>
      </trkpt>
      <trkpt lat="34.079729" lon="110.116709">
        <time>2026-08-20T11:39:56Z</time>
      </trkpt>
      <trkpt lat="34.079716" lon="110.11663">
        <time>2026-08-20T11:40:01Z</time>
      </trkpt>
      <trkpt lat="34.079705" lon="110.116545">
        <time>2026-08-20T11:40:06Z</time>
      </trkpt>
      <trkpt lat="34.079695" lon="110.116468">
        <time>2026-08-20T11:40:11Z</time>
      </trkpt>
      <trkpt lat="34.079691" lon="110.116385">
        <time>2026-08-20T11:40:16Z</time>
      </trkpt>
      <trkpt lat="34.079681" lon="110.116295">
        <time>2026-08-20T11:40:21Z</time>
      </trkpt>
      <trkpt lat="34.079666" lon="110.116217">
        <time>2026-08-20T11:40:26Z</time>
      </trkpt>
      <trkpt lat="34.079665" lon="110.116135">
        <time>2026-08-20T11:40:31Z</time>
      </trkpt>
      <trkpt lat="34.079659" lon="110.116061">
        <time>2026-08-20T11:40:36Z</time>
      </trkpt>
      <trkpt lat="34.079641" lon="110.11598">
        <time>2026-08-20T11:40:41Z</time>
      </trkpt>
      <trkpt lat="34.079608" lon="110.115888">
        <time>2026-08-20T11:40:46Z</time>
      </trkpt>
      <trkpt lat="34.079536" lon="110.115744">
        <time>2026-08-20T11:40:51Z</time>
      </trkpt>
      <trkpt lat="34.079476" lon="110.115572">
        <time>2026-08-20T11:40:56Z</time>
      </trkpt>
      <trkpt lat="34.07944" lon="110.115396">
        <time>2026-08-20T11:41:01Z</time>
      </trkpt>
      <trkpt lat="34.079396" lon="110.115224">
        <time>2026-08-20T11:41:06Z</time>
      </trkpt>
      <trkpt lat="34.079345" lon="110.115054">
        <time>2026-08-20T11:41:11Z</time>
      </trkpt>
      <trkpt lat="34.079299" lon="110.114896">
        <time>2026-08-20T11:41:16Z</time>
      </trkpt>
      <trkpt lat="34.079279" lon="110.114799">
        <time>2026-08-20T11:41:21Z</time>
      </trkpt>
      <trkpt lat="34.07924" lon="110.114727">
        <time>2026-08-20T11:41:26Z</time>
      </trkpt>
      <trkpt lat="34.079197" lon="110.114655">
        <time>2026-08-20T11:41:31Z</time>
      </trkpt>
      <trkpt lat="34.079173" lon="110.114584">
        <time>2026-08-20T11:41:36Z</time>
      </trkpt>
      <trkpt lat="34.07915" lon="110.114516">
        <time>2026-08-20T11:41:41Z</time>
      </trkpt>
      <trkpt lat="34.079089" lon="110.11444">
        <time>2026-08-20T11:41:46Z</time>
      </trkpt>
      <trkpt lat="34.079059" lon="110.114368">
        <time>2026-08-20T11:41:51Z</time>
      </trkpt>
      <trkpt lat="34.079034" lon="110.114302">
        <time>2026-08-20T11:41:56Z</time>
      </trkpt>
      <trkpt lat="34.079014" lon="110.114242">
        <time>2026-08-20T11:42:01Z</time>
      </trkpt>
      <trkpt lat="34.079002" lon="110.114185">
        <time>2026-08-20T11:42:06Z</time>
      </trkpt>
      <trkpt lat="34.078975" lon="110.114115">
        <time>2026-08-20T11:42:11Z</time>
      </trkpt>
      <trkpt lat="34.078936" lon="110.114043">
        <time>2026-08-20T11:42:16Z</time>
      </trkpt>
      <trkpt lat="34.078884" lon="110.113925">
        <time>2026-08-20T11:42:21Z</time>
      </trkpt>
      <trkpt lat="34.078814" lon="110.113786">
        <time>2026-08-20T11:42:26Z</time>
      </trkpt>
      <trkpt lat="34.078749" lon="110.113643">
        <time>2026-08-20T11:42:31Z</time>
      </trkpt>
      <trkpt lat="34.078702" lon="110.113508">
        <time>2026-08-20T11:42:36Z</time>
      </trkpt>
      <trkpt lat="34.078645" lon="110.113369">
        <time>2026-08-20T11:42:41Z</time>
      </trkpt>
      <trkpt lat="34.07861" lon="110.113272">
        <time>2026-08-20T11:42:46Z</time>
      </trkpt>
      <trkpt lat="34.07857" lon="110.113224">
        <time>2026-08-20T11:42:51Z</time>
      </trkpt>
      <trkpt lat="34.078535" lon="110.11318">
        <time>2026-08-20T11:42:56Z</time>
      </trkpt>
      <trkpt lat="34.078502" lon="110.113132">
        <time>2026-08-20T11:43:01Z</time>
      </trkpt>
      <trkpt lat="34.078462" lon="110.113076">
        <time>2026-08-20T11:43:06Z</time>
      </trkpt>
      <trkpt lat="34.078435" lon="110.113035">
        <time>2026-08-20T11:43:11Z</time>
      </trkpt>
      <trkpt lat="34.078396" lon="110.112993">
        <time>2026-08-20T11:43:16Z</time>
      </trkpt>
      <trkpt lat="34.078383" lon="110.11296">
        <time>2026-08-20T11:43:21Z</time>
      </trkpt>
      <trkpt lat="34.07837" lon="110.112912">
        <time>2026-08-20T11:43:26Z</time>
      </trkpt>
      <trkpt lat="34.078334" lon="110.112848">
        <time>2026-08-20T11:43:31Z</time>
      </trkpt>
      <trkpt lat="34.078287" lon="110.112772">
        <time>2026-08-20T11:43:36Z</time>
      </trkpt>
      <trkpt lat="34.078248" lon="110.11271">
        <time>2026-08-20T11:43:41Z</time>
      </trkpt>
      <trkpt lat="34.078204" lon="110.112643">
        <time>2026-08-20T11:43:46Z</time>
      </trkpt>
      <trkpt lat="34.078132" lon="110.112526">
        <time>2026-08-20T11:43:51Z</time>
      </trkpt>
      <trkpt lat="34.078035" lon="110.112371">
        <time>2026-08-20T11:43:56Z</time>
      </trkpt>
      <trkpt lat="34.077941" lon="110.112227">
        <time>2026-08-20T11:44:01Z</time>
      </trkpt>
      <trkpt lat="34.077888" lon="110.112139">
        <time>2026-08-20T11:44:06Z</time>
      </trkpt>
      <trkpt lat="34.077842" lon="110.112089">
        <time>2026-08-20T11:44:11Z</time>
      </trkpt>
      <trkpt lat="34.077817" lon="110.112036">
        <time>2026-08-20T11:44:16Z</time>
      </trkpt>
      <trkpt lat="34.077799" lon="110.111958">
        <time>2026-08-20T11:44:21Z</time>
      </trkpt>
      <trkpt lat="34.077771" lon="110.111898">
        <time>2026-08-20T11:44:26Z</time>
      </trkpt>
      <trkpt lat="34.077733" lon="110.11186">
        <time>2026-08-20T11:44:31Z</time>
      </trkpt>
      <trkpt lat="34.077694" lon="110.111809">
        <time>2026-08-20T11:44:36Z</time>
      </trkpt>
      <trkpt lat="34.077642" lon="110.111764">
        <time>2026-08-20T11:44:41Z</time>
      </trkpt>
      <trkpt lat="34.077614" lon="110.111704">
        <time>2026-08-20T11:44:46Z</time>
      </trkpt>
      <trkpt lat="34.077593" lon="110.111649">
        <time>2026-08-20T11:44:51Z</time>
      </trkpt>
      <trkpt lat="34.077566" lon="110.111603">
        <time>2026-08-20T11:44:56Z</time>
      </trkpt>
      <trkpt lat="34.077538" lon="110.111545">
        <time>2026-08-20T11:45:01Z</time>
      </trkpt>
      <trkpt lat="34.077497" lon="110.111481">
        <time>2026-08-20T11:45:06Z</time>
      </trkpt>
      <trkpt lat="34.077454" lon="110.11144">
        <time>2026-08-20T11:45:11Z</time>
      </trkpt>
      <trkpt lat="34.077419" lon="110.111399">
        <time>2026-08-20T11:45:16Z</time>
      </trkpt>
      <trkpt lat="34.077391" lon="110.111353">
        <time>2026-08-20T11:45:21Z</time>
      </trkpt>
      <trkpt lat="34.077372" lon="110.111298">
        <time>2026-08-20T11:45:26Z</time>
      </trkpt>
      <trkpt lat="34.077349" lon="110.111245">
        <time>2026-08-20T11:45:31Z</time>
      </trkpt>
      <trkpt lat="34.077327" lon="110.111187">
        <time>2026-08-20T11:45:36Z</time>
      </trkpt>
      <trkpt lat="34.077301" lon="110.111129">
        <time>2026-08-20T11:45:41Z</time>
      </trkpt>
      <trkpt lat="34.077269" lon="110.111075">
        <time>2026-08-20T11:45:46Z</time>
      </trkpt>
      <trkpt lat="34.07724" lon="110.111028">
        <time>2026-08-20T11:45:51Z</time>
      </trkpt>
      <trkpt lat="34.077213" lon="110.11099">
        <time>2026-08-20T11:45:56Z</time>
      </trkpt>
      <trkpt lat="34.077179" lon="110.110926">
        <time>2026-08-20T11:46:01Z</time>
      </trkpt>
      <trkpt lat="34.077123" lon="110.110821">
        <time>2026-08-20T11:46:06Z</time>
      </trkpt>
      <trkpt lat="34.077072" lon="110.110715">
        <time>2026-08-20T11:46:11Z</time>
      </trkpt>
      <trkpt lat="34.07702" lon="110.110627">
        <time>2026-08-20T11:46:16Z</time>
      </trkpt>
      <trkpt lat="34.076991" lon="110.110571">
        <time>2026-08-20T11:46:21Z</time>
      </trkpt>
      <trkpt lat="34.076993" lon="110.110545">
        <time>2026-08-20T11:46:26Z</time>
      </trkpt>
      <trkpt lat="34.077005" lon="110.110544">
        <time>2026-08-20T11:46:31Z</time>
      </trkpt>
      <trkpt lat="34.077027" lon="110.110521">
        <time>2026-08-20T11:46:36Z</time>
      </trkpt>
      <trkpt lat="34.077061" lon="110.110488">
        <time>2026-08-20T11:46:41Z</time>
      </trkpt>
      <trkpt lat="34.077099" lon="110.110459">
        <time>2026-08-20T11:46:46Z</time>
      </trkpt>
      <trkpt lat="34.077114" lon="110.110443">
        <time>2026-08-20T11:46:51Z</time>
      </trkpt>
      <trkpt lat="34.077138" lon="110.110408">
        <time>2026-08-20T11:46:56Z</time>
      </trkpt>
      <trkpt lat="34.077183" lon="110.110361">
        <time>2026-08-20T11:47:01Z</time>
      </trkpt>
      <trkpt lat="34.077232" lon="110.110312">
        <time>2026-08-20T11:47:06Z</time>
      </trkpt>
      <trkpt lat="34.077281" lon="110.110258">
        <time>2026-08-20T11:47:11Z</time>
      </trkpt>
      <trkpt lat="34.077338" lon="110.110209">
        <time>2026-08-20T11:47:16Z</time>
      </trkpt>
      <trkpt lat="34.077393" lon="110.110155">
        <time>2026-08-20T11:47:21Z</time>
      </trkpt>
      <trkpt lat="34.077442" lon="110.110097">
        <time>2026-08-20T11:47:26Z</time>
      </trkpt>
      <trkpt lat="34.077492" lon="110.110044">
        <time>2026-08-20T11:47:31Z</time>
      </trkpt>
      <trkpt lat="34.077546" lon="110.110012">
        <time>2026-08-20T11:47:36Z</time>
      </trkpt>
      <trkpt lat="34.077584" lon="110.109986">
        <time>2026-08-20T11:47:41Z</time>
      </trkpt>
      <trkpt lat="34.077634" lon="110.109932">
        <time>2026-08-20T11:47:46Z</time>
      </trkpt>
      <trkpt lat="34.077733" lon="110.109836">
        <time>2026-08-20T11:47:51Z</time>
      </trkpt>
      <trkpt lat="34.077835" lon="110.109739">
        <time>2026-08-20T11:47:56Z</time>
      </trkpt>
      <trkpt lat="34.07793" lon="110.109645">
        <time>2026-08-20T11:48:01Z</time>
      </trkpt>
      <trkpt lat="34.078026" lon="110.109548">
        <time>2026-08-20T11:48:06Z</time>
      </trkpt>
      <trkpt lat="34.078112" lon="110.109452">
        <time>2026-08-20T11:48:11Z</time>
      </trkpt>
      <trkpt lat="34.078197" lon="110.109354">
        <time>2026-08-20T11:48:16Z</time>
      </trkpt>
      <trkpt lat="34.078284" lon="110.109255">
        <time>2026-08-20T11:48:21Z</time>
      </trkpt>
      <trkpt lat="34.078376" lon="110.109161">
        <time>2026-08-20T11:48:26Z</time>
      </trkpt>
      <trkpt lat="34.078467" lon="110.109067">
        <time>2026-08-20T11:48:31Z</time>
      </trkpt>
      <trkpt lat="34.078566" lon="110.108976">
        <time>2026-08-20T11:48:36Z</time>
      </trkpt>
      <trkpt lat="34.078671" lon="110.108901">
        <time>2026-08-20T11:48:41Z</time>
      </trkpt>
      <trkpt lat="34.078722" lon="110.10885">
        <time>2026-08-20T11:48:46Z</time>
      </trkpt>
      <trkpt lat="34.078707" lon="110.108774">
        <time>2026-08-20T11:48:51Z</time>
      </trkpt>
      <trkpt lat="34.078692" lon="110.108727">
        <time>2026-08-20T11:48:56Z</time>
      </trkpt>
      <trkpt lat="34.078658" lon="110.10874">
        <time>2026-08-20T11:49:01Z</time>
      </trkpt>
    </trkseg>
  </trk>
</gpx>