<?xml version="1.0" encoding="UTF-8"?>
<gpx xmlns="http://www.topografix.com/GPX/1/1" xmlns:gpxtpx="http://www.garmin.com/xmlschemas/TrackPointExtension/v1" xmlns:xsi="http://www.w3.org/2001/XMLSchema-instance" xsi:schemaLocation="http://www.topografix.com/GPX/1/1 http://www.topografix.com/GPX/1/1/gpx.xsd" version="1.1" creator="gpx.py -- https://github.com/tkrajina/gpxpy">
  <trk>
    <name>gpx from joyrun</name>
    <trkseg>
      <trkpt lat="34.043788" lon="110.102361">
        <time>2026-08-21T10:21:01Z</time>
      </trkpt>
      <trkpt lat="34.043809" lon="110.10236">
        <time>2026-08-21T10:21:06Z</time>
      </trkpt>
      <trkpt lat="34.043856" lon="110.102364">
        <time>2026-08-21T10:21:11Z</time>
      </trkpt>
      <trkpt lat="34.043937" lon="110.102373">
        <time>2026-08-21T10:21:16Z</time>
      </trkpt>
      <trkpt lat="34.04406" lon="110.102386">
        <time>2026-08-21T10:21:21Z</time>
      </trkpt>
      <trkpt lat="34.044189" lon="110.102398">
        <time>2026-08-21T10:21:26Z</time>
      </trkpt>
      <trkpt lat="34.044317" lon="110.102403">
        <time>2026-08-21T10:21:31Z</time>
      </trkpt>
      <trkpt lat="34.044452" lon="110.102421">
        <time>2026-08-21T10:21:36Z</time>
      </trkpt>
      <trkpt lat="34.044584" lon="110.102444">
        <time>2026-08-21T10:21:41Z</time>
      </trkpt>
      <trkpt lat="34.044698" lon="110.102452">
        <time>2026-08-21T10:21:46Z</time>
      </trkpt>
      <trkpt lat="34.044822" lon="110.10246">
        <time>2026-08-21T10:21:51Z</time>
      </trkpt>
      <trkpt lat="34.044949" lon="110.102467">
        <time>2026-08-21T10:21:56Z</time>
      </trkpt>
      <trkpt lat="34.045066" lon="110.102475">
        <time>2026-08-21T10:22:01Z</time>
      </trkpt>
      <trkpt lat="34.04518" lon="110.102488">
        <time>2026-08-21T10:22:06Z</time>
      </trkpt>
      <trkpt lat="34.045288" lon="110.102505">
        <time>2026-08-21T10:22:11Z</time>
      </trkpt>
      <trkpt lat="34.045386" lon="110.102509">
        <time>2026-08-21T10:22:16Z</time>
      </trkpt>
      <trkpt lat="34.045498" lon="110.102523">
        <time>2026-08-21T10:22:21Z</time>
      </trkpt>
      <trkpt lat="34.045616" lon="110.102536">
        <time>2026-08-21T10:22:26Z</time>
      </trkpt>
      <trkpt lat="34.045723" lon="110.102551">
        <time>2026-08-21T10:22:31Z</time>
      </trkpt>
      <trkpt lat="34.04583" lon="110.102556">
        <time>2026-08-21T10:22:36Z</time>
      </trkpt>
      <trkpt lat="34.045936" lon="110.102584">
        <time>2026-08-21T10:22:41Z</time>
      </trkpt>
      <trkpt lat="34.046001" lon="110.102609">
        <time>2026-08-21T10:22:46Z</time>
      </trkpt>
      <trkpt lat="34.046039" lon="110.102601">
        <time>2026-08-21T10:22:51Z</time>
      </trkpt>
      <trkpt lat="34.046086" lon="110.102603">
        <time>2026-08-21T10:22:56Z</time>
      </trkpt>
      <trkpt lat="34.046125" lon="110.102624">
        <time>2026-08-21T10:23:01Z</time>
      </trkpt>
      <trkpt lat="34.046158" lon="110.10264">
        <time>2026-08-21T10:23:06Z</time>
      </trkpt>
      <trkpt lat="34.046204" lon="110.10266">
        <time>2026-08-21T10:23:11Z</time>
      </trkpt>
      <trkpt lat="34.046264" lon="110.102669">
        <time>2026-08-21T10:23:16Z</time>
      </trkpt>
      <trkpt lat="34.046325" lon="110.102675">
        <time>2026-08-21T10:23:21Z</time>
      </trkpt>
      <trkpt lat="34.046388" lon="110.102681">
        <time>2026-08-21T10:23:26Z</time>
      </trkpt>
      <trkpt lat="34.046456" lon="110.102687">
        <time>2026-08-21T10:23:31Z</time>
      </trkpt>
      <trkpt lat="34.046516" lon="110.102701">
        <time>2026-08-21T10:23:36Z</time>
      </trkpt>
      <trkpt lat="34.046574" lon="110.102717">
        <time>2026-08-21T10:23:41Z</time>
      </trkpt>
      <trkpt lat="34.046626" lon="110.102719">
        <time>2026-08-21T10:23:46Z</time>
      </trkpt>
      <trkpt lat="34.046685" lon="110.102713">
        <time>2026-08-21T10:23:51Z</time>
      </trkpt>
      <trkpt lat="34.046744" lon="110.102718">
        <time>2026-08-21T10:23:56Z</time>
      </trkpt>
      <trkpt lat="34.046802" lon="110.10272">
        <time>2026-08-21T10:24:01Z</time>
      </trkpt>
      <trkpt lat="34.046865" lon="110.10273">
        <time>2026-08-21T10:24:06Z</time>
      </trkpt>
      <trkpt lat="34.046924" lon="110.102733">
        <time>2026-08-21T10:24:11Z</time>
      </trkpt>
      <trkpt lat="34.047036" lon="110.102747">
        <time>2026-08-21T10:24:16Z</time>
      </trkpt>
      <trkpt lat="34.047175" lon="110.102756">
        <time>2026-08-21T10:24:21Z</time>
      </trkpt>
      <trkpt lat="34.0473" lon="110.102772">
        <time>2026-08-21T10:24:26Z</time>
      </trkpt>
      <trkpt lat="34.047423" lon="110.10278">
        <time>2026-08-21T10:24:31Z</time>
      </trkpt>
      <trkpt lat="34.04756" lon="110.102796">
        <time>2026-08-21T10:24:36Z</time>
      </trkpt>
      <trkpt lat="34.047676" lon="110.102808">
        <time>2026-08-21T10:24:41Z</time>
      </trkpt>
      <trkpt lat="34.047781" lon="110.102816">
        <time>2026-08-21T10:24:46Z</time>
      </trkpt>
      <trkpt lat="34.047897" lon="110.102825">
        <time>2026-08-21T10:24:51Z</time>
      </trkpt>
      <trkpt lat="34.048013" lon="110.102837">
        <time>2026-08-21T10:24:56Z</time>
      </trkpt>
      <trkpt lat="34.048136" lon="110.102854">
        <time>2026-08-21T10:25:01Z</time>
      </trkpt>
      <trkpt lat="34.048257" lon="110.102866">
        <time>2026-08-21T10:25:06Z</time>
      </trkpt>
      <trkpt lat="34.048379" lon="110.102881">
        <time>2026-08-21T10:25:11Z</time>
      </trkpt>
      <trkpt lat="34.048498" lon="110.102896">
        <time>2026-08-21T10:25:16Z</time>
      </trkpt>
      <trkpt lat="34.048607" lon="110.102915">
        <time>2026-08-21T10:25:21Z</time>
      </trkpt>
      <trkpt lat="34.048725" lon="110.10292">
        <time>2026-08-21T10:25:26Z</time>
      </trkpt>
      <trkpt lat="34.048841" lon="110.102927">
        <time>2026-08-21T10:25:31Z</time>
      </trkpt>
      <trkpt lat="34.048957" lon="110.102929">
        <time>2026-08-21T10:25:36Z</time>
      </trkpt>
      <trkpt lat="34.049067" lon="110.102928">
        <time>2026-08-21T10:25:41Z</time>
      </trkpt>
      <trkpt lat="34.049118" lon="110.102931">
        <time>2026-08-21T10:25:46Z</time>
      </trkpt>
      <trkpt lat="34.049166" lon="110.102922">
        <time>2026-08-21T10:25:51Z</time>
      </trkpt>
      <trkpt lat="34.049216" lon="110.102928">
        <time>2026-08-21T10:25:56Z</time>
      </trkpt>
      <trkpt lat="34.049284" lon="110.102942">
        <time>2026-08-21T10:26:01Z</time>
      </trkpt>
      <trkpt lat="34.049344" lon="110.10295">
        <time>2026-08-21T10:26:06Z</time>
      </trkpt>
      <trkpt lat="34.049403" lon="110.102961">
        <time>2026-08-21T10:26:11Z</time>
      </trkpt>
      <trkpt lat="34.049469" lon="110.102971">
        <time>2026-08-21T10:26:16Z</time>
      </trkpt>
      <trkpt lat="34.049523" lon="110.102967">
        <time>2026-08-21T10:26:21Z</time>
      </trkpt>
      <trkpt lat="34.049575" lon="110.10297">
        <time>2026-08-21T10:26:26Z</time>
      </trkpt>
      <trkpt lat="34.049628" lon="110.102975">
        <time>2026-08-21T10:26:31Z</time>
      </trkpt>
      <trkpt lat="34.049684" lon="110.102973">
        <time>2026-08-21T10:26:36Z</time>
      </trkpt>
      <trkpt lat="34.049735" lon="110.102976">
        <time>2026-08-21T10:26:42Z</time>
      </trkpt>
    </trkseg>
  </trk>
</gpx>