<?xml version="1.0" encoding="UTF-8"?>
<gpx xmlns="http://www.topografix.com/GPX/1/1" xmlns:gpxtpx="http://www.garmin.com/xmlschemas/TrackPointExtension/v1" xmlns:xsi="http://www.w3.org/2001/XMLSchema-instance" xsi:schemaLocation="http://www.topografix.com/GPX/1/1 http://www.topografix.com/GPX/1/1/gpx.xsd" version="1.1" creator="gpx.py -- https://github.com/tkrajina/gpxpy">
  <trk>
    <name>gpx from joyrun</name>
    <trkseg>
      <trkpt lat="34.082146" lon="110.123054">
        <time>2026-08-27T12:36:24Z</time>
      </trkpt>
      <trkpt lat="34.082107" lon="110.123063">
        <time>2026-08-27T12:36:29Z</time>
      </trkpt>
      <trkpt lat="34.081974" lon="110.123094">
        <time>2026-08-27T12:36:34Z</time>
      </trkpt>
      <trkpt lat="34.081821" lon="110.123135">
        <time>2026-08-27T12:36:39Z</time>
      </trkpt>
      <trkpt lat="34.081727" lon="110.1232">
        <time>2026-08-27T12:36:44Z</time>
      </trkpt>
      <trkpt lat="34.081655" lon="110.123301">
        <time>2026-08-27T12:36:49Z</time>
      </trkpt>
      <trkpt lat="34.08161" lon="110.123463">
        <time>2026-08-27T12:36:54Z</time>
      </trkpt>
      <trkpt lat="34.081622" lon="110.123619">
        <time>2026-08-27T12:36:59Z</time>
      </trkpt>
      <trkpt lat="34.081676" lon="110.123745">
        <time>2026-08-27T12:37:04Z</time>
      </trkpt>
      <trkpt lat="34.081768" lon="110.123843">
        <time>2026-08-27T12:37:09Z</time>
      </trkpt>
      <trkpt lat="34.081884" lon="110.123893">
        <time>2026-08-27T12:37:14Z</time>
      </trkpt>
      <trkpt lat="34.082013" lon="110.123887">
        <time>2026-08-27T12:37:19Z</time>
      </trkpt>
      <trkpt lat="34.082145" lon="110.123856">
        <time>2026-08-27T12:37:24Z</time>
      </trkpt>
      <trkpt lat="34.082283" lon="110.123824">
        <time>2026-08-27T12:37:29Z</time>
      </trkpt>
      <trkpt lat="34.082413" lon="110.123793">
        <time>2026-08-27T12:37:34Z</time>
      </trkpt>
      <trkpt lat="34.082551" lon="110.123761">
        <time>2026-08-27T12:37:39Z</time>
      </trkpt>
      <trkpt lat="34.082684" lon="110.123729">
        <time>2026-08-27T12:37:44Z</time>
      </trkpt>
      <trkpt lat="34.082821" lon="110.123688">
        <time>2026-08-27T12:37:49Z</time>
      </trkpt>
      <trkpt lat="34.082932" lon="110.123593">
        <time>2026-08-27T12:37:54Z</time>
      </trkpt>
      <trkpt lat="34.082995" lon="110.123473">
        <time>2026-08-27T12:37:59Z</time>
      </trkpt>
      <trkpt lat="34.083018" lon="110.123344">
        <time>2026-08-27T12:38:04Z</time>
      </trkpt>
      <trkpt lat="34.082996" lon="110.123184">
        <time>2026-08-27T12:38:09Z</time>
      </trkpt>
      <trkpt lat="34.08291" lon="110.123034">
        <time>2026-08-27T12:38:14Z</time>
      </trkpt>
      <trkpt lat="34.0828" lon="110.122955">
        <time>2026-08-27T12:38:19Z</time>
      </trkpt>
      <trkpt lat="34.082683" lon="110.122933">
        <time>2026-08-27T12:38:24Z</time>
      </trkpt>
      <trkpt lat="34.082568" lon="110.122955">
        <time>2026-08-27T12:38:29Z</time>
      </trkpt>
      <trkpt lat="34.082435" lon="110.122986">
        <time>2026-08-27T12:38:34Z</time>
      </trkpt>
      <trkpt lat="34.082308" lon="110.123016">
        <time>2026-08-27T12:38:39Z</time>
      </trkpt>
      <trkpt lat="34.082176" lon="110.123047">
        <time>2026-08-27T12:38:44Z</time>
      </trkpt>
      <trkpt lat="34.082046" lon="110.123077">
        <time>2026-08-27T12:38:49Z</time>
      </trkpt>
      <trkpt lat="34.081907" lon="110.12311">
        <time>2026-08-27T12:38:54Z</time>
      </trkpt>
      <trkpt lat="34.081763" lon="110.12317">
        <time>2026-08-27T12:38:59Z</time>
      </trkpt>
      <trkpt lat="34.081659" lon="110.123294">
        <time>2026-08-27T12:39:04Z</time>
      </trkpt>
      <trkpt lat="34.081614" lon="110.123427">
        <time>2026-08-27T12:39:09Z</time>
      </trkpt>
      <trkpt lat="34.081611" lon="110.123559">
        <time>2026-08-27T12:39:14Z</time>
      </trkpt>
      <trkpt lat="34.081643" lon="110.123682">
        <time>2026-08-27T12:39:19Z</time>
      </trkpt>
      <trkpt lat="34.08172" lon="110.123802">
        <time>2026-08-27T12:39:24Z</time>
      </trkpt>
      <trkpt lat="34.081817" lon="110.123872">
        <time>2026-08-27T12:39:29Z</time>
      </trkpt>
      <trkpt lat="34.081943" lon="110.123898">
        <time>2026-08-27T12:39:34Z</time>
      </trkpt>
      <trkpt lat="34.082063" lon="110.123875">
        <time>2026-08-27T12:39:39Z</time>
      </trkpt>
      <trkpt lat="34.082172" lon="110.12385">
        <time>2026-08-27T12:39:44Z</time>
      </trkpt>
      <trkpt lat="34.082282" lon="110.123824">
        <time>2026-08-27T12:39:49Z</time>
      </trkpt>
      <trkpt lat="34.08238" lon="110.123801">
        <time>2026-08-27T12:39:54Z</time>
      </trkpt>
      <trkpt lat="34.082458" lon="110.123783">
        <time>2026-08-27T12:39:59Z</time>
      </trkpt>
      <trkpt lat="34.082525" lon="110.123767">
        <time>2026-08-27T12:40:04Z</time>
      </trkpt>
      <trkpt lat="34.082588" lon="110.123752">
        <time>2026-08-27T12:40:09Z</time>
      </trkpt>
      <trkpt lat="34.08265" lon="110.123738">
        <time>2026-08-27T12:40:14Z</time>
      </trkpt>
      <trkpt lat="34.082712" lon="110.123723">
        <time>2026-08-27T12:40:19Z</time>
      </trkpt>
      <trkpt lat="34.082783" lon="110.123704">
        <time>2026-08-27T12:40:24Z</time>
      </trkpt>
      <trkpt lat="34.082865" lon="110.123661">
        <time>2026-08-27T12:40:29Z</time>
      </trkpt>
      <trkpt lat="34.082979" lon="110.123515">
        <time>2026-08-27T12:40:34Z</time>
      </trkpt>
      <trkpt lat="34.083018" lon="110.123342">
        <time>2026-08-27T12:40:39Z</time>
      </trkpt>
      <trkpt lat="34.083001" lon="110.1232">
        <time>2026-08-27T12:40:44Z</time>
      </trkpt>
      <trkpt lat="34.082946" lon="110.12308">
        <time>2026-08-27T12:40:49Z</time>
      </trkpt>
      <trkpt lat="34.082866" lon="110.122994">
        <time>2026-08-27T12:40:54Z</time>
      </trkpt>
      <trkpt lat="34.082765" lon="110.122943">
        <time>2026-08-27T12:40:59Z</time>
      </trkpt>
      <trkpt lat="34.082667" lon="110.122934">
        <time>2026-08-27T12:41:04Z</time>
      </trkpt>
      <trkpt lat="34.082561" lon="110.122957">
        <time>2026-08-27T12:41:09Z</time>
      </trkpt>
      <trkpt lat="34.082436" lon="110.122986">
        <time>2026-08-27T12:41:14Z</time>
      </trkpt>
      <trkpt lat="34.08232" lon="110.123013">
        <time>2026-08-27T12:41:19Z</time>
      </trkpt>
      <trkpt lat="34.082208" lon="110.123039">
        <time>2026-08-27T12:41:24Z</time>
      </trkpt>
      <trkpt lat="34.082095" lon="110.123066">
        <time>2026-08-27T12:41:29Z</time>
      </trkpt>
      <trkpt lat="34.082022" lon="110.123083">
        <time>2026-08-27T12:41:34Z</time>
      </trkpt>
      <trkpt lat="34.081963" lon="110.123097">
        <time>2026-08-27T12:41:39Z</time>
      </trkpt>
      <trkpt lat="34.081901" lon="110.123111">
        <time>2026-08-27T12:41:44Z</time>
      </trkpt>
      <trkpt lat="34.081836" lon="110.123129">
        <time>2026-08-27T12:41:49Z</time>
      </trkpt>
      <trkpt lat="34.081777" lon="110.12316">
        <time>2026-08-27T12:41:54Z</time>
      </trkpt>
      <trkpt lat="34.081729" lon="110.123198">
        <time>2026-08-27T12:41:59Z</time>
      </trkpt>
      <trkpt lat="34.081693" lon="110.12324">
        <time>2026-08-27T12:42:04Z</time>
      </trkpt>
      <trkpt lat="34.081663" lon="110.123286">
        <time>2026-08-27T12:42:09Z</time>
      </trkpt>
      <trkpt lat="34.081641" lon="110.123333">
        <time>2026-08-27T12:42:14Z</time>
      </trkpt>
      <trkpt lat="34.081623" lon="110.123386">
        <time>2026-08-27T12:42:19Z</time>
      </trkpt>
      <trkpt lat="34.081609" lon="110.123469">
        <time>2026-08-27T12:42:24Z</time>
      </trkpt>
      <trkpt lat="34.081618" lon="110.123601">
        <time>2026-08-27T12:42:29Z</time>
      </trkpt>
      <trkpt lat="34.081672" lon="110.123738">
        <time>2026-08-27T12:42:34Z</time>
      </trkpt>
      <trkpt lat="34.081774" lon="110.123847">
        <time>2026-08-27T12:42:39Z</time>
      </trkpt>
      <trkpt lat="34.081901" lon="110.123896">
        <time>2026-08-27T12:42:44Z</time>
      </trkpt>
      <trkpt lat="34.082043" lon="110.12388">
        <time>2026-08-27T12:42:49Z</time>
      </trkpt>
      <trkpt lat="34.082197" lon="110.123844">
        <time>2026-08-27T12:42:54Z</time>
      </trkpt>
      <trkpt lat="34.082362" lon="110.123805">
        <time>2026-08-27T12:42:59Z</time>
      </trkpt>
      <trkpt lat="34.082521" lon="110.123768">
        <time>2026-08-27T12:43:04Z</time>
      </trkpt>
      <trkpt lat="34.082672" lon="110.123732">
        <time>2026-08-27T12:43:09Z</time>
      </trkpt>
      <trkpt lat="34.082796" lon="110.1237">
        <time>2026-08-27T12:43:14Z</time>
      </trkpt>
      <trkpt lat="34.082871" lon="110.123656">
        <time>2026-08-27T12:43:19Z</time>
      </trkpt>
      <trkpt lat="34.082925" lon="110.123602">
        <time>2026-08-27T12:43:24Z</time>
      </trkpt>
      <trkpt lat="34.082969" lon="110.123535">
        <time>2026-08-27T12:43:29Z</time>
      </trkpt>
      <trkpt lat="34.082998" lon="110.123464">
        <time>2026-08-27T12:43:34Z</time>
      </trkpt>
      <trkpt lat="34.083016" lon="110.123373">
        <time>2026-08-27T12:43:39Z</time>
      </trkpt>
      <trkpt lat="34.083016" lon="110.123285">
        <time>2026-08-27T12:43:44Z</time>
      </trkpt>
      <trkpt lat="34.083003" lon="110.123207">
        <time>2026-08-27T12:43:49Z</time>
      </trkpt>
      <trkpt lat="34.082977" lon="110.123136">
        <time>2026-08-27T12:43:54Z</time>
      </trkpt>
      <trkpt lat="34.082934" lon="110.123062">
        <time>2026-08-27T12:43:59Z</time>
      </trkpt>
      <trkpt lat="34.08289" lon="110.123013">
        <time>2026-08-27T12:44:04Z</time>
      </trkpt>
      <trkpt lat="34.082848" lon="110.122981">
        <time>2026-08-27T12:44:09Z</time>
      </trkpt>
      <trkpt lat="34.082793" lon="110.122952">
        <time>2026-08-27T12:44:14Z</time>
      </trkpt>
      <trkpt lat="34.082736" lon="110.122937">
        <time>2026-08-27T12:44:19Z</time>
      </trkpt>
      <trkpt lat="34.082696" lon="110.122933">
        <time>2026-08-27T12:44:24Z</time>
      </trkpt>
      <trkpt lat="34.082643" lon="110.122938">
        <time>2026-08-27T12:44:29Z</time>
      </trkpt>
      <trkpt lat="34.082573" lon="110.122954">
        <time>2026-08-27T12:44:34Z</time>
      </trkpt>
      <trkpt lat="34.082502" lon="110.12297">
        <time>2026-08-27T12:44:39Z</time>
      </trkpt>
      <trkpt lat="34.082435" lon="110.122986">
        <time>2026-08-27T12:44:44Z</time>
      </trkpt>
      <trkpt lat="34.082377" lon="110.123">
        <time>2026-08-27T12:44:49Z</time>
      </trkpt>
      <trkpt lat="34.082316" lon="110.123014">
        <time>2026-08-27T12:44:54Z</time>
      </trkpt>
      <trkpt lat="34.082248" lon="110.12303">
        <time>2026-08-27T12:44:59Z</time>
      </trkpt>
      <trkpt lat="34.082151" lon="110.123053">
        <time>2026-08-27T12:45:04Z</time>
      </trkpt>
      <trkpt lat="34.082107" lon="110.123063">
        <time>2026-08-27T12:45:09Z</time>
      </trkpt>
      <trkpt lat="34.082062" lon="110.123074">
        <time>2026-08-27T12:45:14Z</time>
      </trkpt>
      <trkpt lat="34.082016" lon="110.123084">
        <time>2026-08-27T12:45:19Z</time>
      </trkpt>
      <trkpt lat="34.081975" lon="110.123094">
        <time>2026-08-27T12:45:24Z</time>
      </trkpt>
      <trkpt lat="34.08193" lon="110.123105">
        <time>2026-08-27T12:45:29Z</time>
      </trkpt>
      <trkpt lat="34.081864" lon="110.12312">
        <time>2026-08-27T12:45:34Z</time>
      </trkpt>
      <trkpt lat="34.081791" lon="110.123151">
        <time>2026-08-27T12:45:39Z</time>
      </trkpt>
      <trkpt lat="34.081678" lon="110.123262">
        <time>2026-08-27T12:45:44Z</time>
      </trkpt>
      <trkpt lat="34.081612" lon="110.12345">
        <time>2026-08-27T12:45:49Z</time>
      </trkpt>
      <trkpt lat="34.081634" lon="110.123657">
        <time>2026-08-27T12:45:54Z</time>
      </trkpt>
      <trkpt lat="34.081722" lon="110.123803">
        <time>2026-08-27T12:45:59Z</time>
      </trkpt>
      <trkpt lat="34.081857" lon="110.123887">
        <time>2026-08-27T12:46:04Z</time>
      </trkpt>
      <trkpt lat="34.082019" lon="110.123885">
        <time>2026-08-27T12:46:09Z</time>
      </trkpt>
      <trkpt lat="34.082206" lon="110.123842">
        <time>2026-08-27T12:46:14Z</time>
      </trkpt>
      <trkpt lat="34.082402" lon="110.123796">
        <time>2026-08-27T12:46:19Z</time>
      </trkpt>
      <trkpt lat="34.082597" lon="110.12375">
        <time>2026-08-27T12:46:24Z</time>
      </trkpt>
      <trkpt lat="34.082783" lon="110.123705">
        <time>2026-08-27T12:46:29Z</time>
      </trkpt>
      <trkpt lat="34.082935" lon="110.12359">
        <time>2026-08-27T12:46:34Z</time>
      </trkpt>
      <trkpt lat="34.083014" lon="110.123392">
        <time>2026-08-27T12:46:39Z</time>
      </trkpt>
      <trkpt lat="34.082996" lon="110.123184">
        <time>2026-08-27T12:46:44Z</time>
      </trkpt>
      <trkpt lat="34.082899" lon="110.123022">
        <time>2026-08-27T12:46:49Z</time>
      </trkpt>
      <trkpt lat="34.082754" lon="110.12294">
        <time>2026-08-27T12:46:54Z</time>
      </trkpt>
      <trkpt lat="34.082606" lon="110.122946">
        <time>2026-08-27T12:46:59Z</time>
      </trkpt>
      <trkpt lat="34.082436" lon="110.122986">
        <time>2026-08-27T12:47:04Z</time>
      </trkpt>
      <trkpt lat="34.082274" lon="110.123024">
        <time>2026-08-27T12:47:09Z</time>
      </trkpt>
      <trkpt lat="34.082109" lon="110.123063">
        <time>2026-08-27T12:47:14Z</time>
      </trkpt>
      <trkpt lat="34.081959" lon="110.123098">
        <time>2026-08-27T12:47:19Z</time>
      </trkpt>
      <trkpt lat="34.081839" lon="110.123128">
        <time>2026-08-27T12:47:24Z</time>
      </trkpt>
      <trkpt lat="34.081793" lon="110.12315">
        <time>2026-08-27T12:47:29Z</time>
      </trkpt>
      <trkpt lat="34.081764" lon="110.123169">
        <time>2026-08-27T12:47:34Z</time>
      </trkpt>
      <trkpt lat="34.081739" lon="110.123189">
        <time>2026-08-27T12:47:39Z</time>
      </trkpt>
      <trkpt lat="34.081718" lon="110.123209">
        <time>2026-08-27T12:47:47Z</time>
      </trkpt>
    </trkseg>
  </trk>
</gpx>