<?xml version="1.0" encoding="UTF-8"?>
<gpx xmlns="http://www.topografix.com/GPX/1/1" xmlns:gpxtpx="http://www.garmin.com/xmlschemas/TrackPointExtension/v1" xmlns:xsi="http://www.w3.org/2001/XMLSchema-instance" xsi:schemaLocation="http://www.topografix.com/GPX/1/1 http://www.topografix.com/GPX/1/1/gpx.xsd" version="1.1" creator="gpx.py -- https://github.com/tkrajina/gpxpy">
  <trk>
    <name>gpx from joyrun</name>
    <trkseg>
      <trkpt lat="34.077242" lon="110.119181">
        <time>2026-09-23T13:26:08Z</time>
      </trkpt>
      <trkpt lat="34.077281" lon="110.119282">
        <time>2026-09-23T13:26:13Z</time>
      </trkpt>
      <trkpt lat="34.077345" lon="110.119433">
        <time>2026-09-23T13:26:18Z</time>
      </trkpt>
      <trkpt lat="34.077396" lon="110.119552">
        <time>2026-09-23T13:26:23Z</time>
      </trkpt>
      <trkpt lat="34.077438" lon="110.119624">
        <time>2026-09-23T13:26:28Z</time>
      </trkpt>
      <trkpt lat="34.077468" lon="110.119691">
        <time>2026-09-23T13:26:33Z</time>
      </trkpt>
      <trkpt lat="34.07751" lon="110.119767">
        <time>2026-09-23T13:26:38Z</time>
      </trkpt>
      <trkpt lat="34.077534" lon="110.119844">
        <time>2026-09-23T13:26:43Z</time>
      </trkpt>
      <trkpt lat="34.077556" lon="110.119922">
        <time>2026-09-23T13:26:48Z</time>
      </trkpt>
      <trkpt lat="34.077579" lon="110.119992">
        <time>2026-09-23T13:26:53Z</time>
      </trkpt>
      <trkpt lat="34.077602" lon="110.120064">
        <time>2026-09-23T13:26:58Z</time>
      </trkpt>
      <trkpt lat="34.07761" lon="110.12015">
        <time>2026-09-23T13:27:03Z</time>
      </trkpt>
      <trkpt lat="34.077635" lon="110.12023">
        <time>2026-09-23T13:27:08Z</time>
      </trkpt>
      <trkpt lat="34.077656" lon="110.120313">
        <time>2026-09-23T13:27:13Z</time>
      </trkpt>
      <trkpt lat="34.077676" lon="110.120387">
        <time>2026-09-23T13:27:18Z</time>
      </trkpt>
      <trkpt lat="34.077692" lon="110.120454">
        <time>2026-09-23T13:27:23Z</time>
      </trkpt>
      <trkpt lat="34.077714" lon="110.120512">
        <time>2026-09-23T13:27:28Z</time>
      </trkpt>
      <trkpt lat="34.077742" lon="110.120587">
        <time>2026-09-23T13:27:33Z</time>
      </trkpt>
      <trkpt lat="34.077775" lon="110.120666">
        <time>2026-09-23T13:27:38Z</time>
      </trkpt>
      <trkpt lat="34.077796" lon="110.120729">
        <time>2026-09-23T13:27:43Z</time>
      </trkpt>
      <trkpt lat="34.077819" lon="110.120788">
        <time>2026-09-23T13:27:48Z</time>
      </trkpt>
      <trkpt lat="34.07784" lon="110.120852">
        <time>2026-09-23T13:27:53Z</time>
      </trkpt>
      <trkpt lat="34.077858" lon="110.120917">
        <time>2026-09-23T13:27:58Z</time>
      </trkpt>
      <trkpt lat="34.077884" lon="110.12099">
        <time>2026-09-23T13:28:03Z</time>
      </trkpt>
      <trkpt lat="34.077906" lon="110.121084">
        <time>2026-09-23T13:28:08Z</time>
      </trkpt>
      <trkpt lat="34.077933" lon="110.121146">
        <time>2026-09-23T13:28:13Z</time>
      </trkpt>
      <trkpt lat="34.077949" lon="110.121195">
        <time>2026-09-23T13:28:18Z</time>
      </trkpt>
      <trkpt lat="34.07799" lon="110.121247">
        <time>2026-09-23T13:28:23Z</time>
      </trkpt>
      <trkpt lat="34.078018" lon="110.121292">
        <time>2026-09-23T13:28:28Z</time>
      </trkpt>
      <trkpt lat="34.078036" lon="110.121339">
        <time>2026-09-23T13:28:33Z</time>
      </trkpt>
      <trkpt lat="34.078058" lon="110.121388">
        <time>2026-09-23T13:28:38Z</time>
      </trkpt>
      <trkpt lat="34.078062" lon="110.121443">
        <time>2026-09-23T13:28:43Z</time>
      </trkpt>
      <trkpt lat="34.078061" lon="110.121511">
        <time>2026-09-23T13:28:48Z</time>
      </trkpt>
      <trkpt lat="34.078082" lon="110.121572">
        <time>2026-09-23T13:28:53Z</time>
      </trkpt>
      <trkpt lat="34.078113" lon="110.121642">
        <time>2026-09-23T13:28:58Z</time>
      </trkpt>
      <trkpt lat="34.078133" lon="110.121714">
        <time>2026-09-23T13:29:03Z</time>
      </trkpt>
      <trkpt lat="34.078147" lon="110.121804">
        <time>2026-09-23T13:29:08Z</time>
      </trkpt>
      <trkpt lat="34.07817" lon="110.121892">
        <time>2026-09-23T13:29:13Z</time>
      </trkpt>
      <trkpt lat="34.078205" lon="110.121974">
        <time>2026-09-23T13:29:18Z</time>
      </trkpt>
      <trkpt lat="34.078252" lon="110.122068">
        <time>2026-09-23T13:29:23Z</time>
      </trkpt>
      <trkpt lat="34.078321" lon="110.122149">
        <time>2026-09-23T13:29:28Z</time>
      </trkpt>
      <trkpt lat="34.078367" lon="110.12223">
        <time>2026-09-23T13:29:33Z</time>
      </trkpt>
      <trkpt lat="34.078399" lon="110.122315">
        <time>2026-09-23T13:29:38Z</time>
      </trkpt>
      <trkpt lat="34.078418" lon="110.122381">
        <time>2026-09-23T13:29:43Z</time>
      </trkpt>
      <trkpt lat="34.078437" lon="110.122445">
        <time>2026-09-23T13:29:48Z</time>
      </trkpt>
      <trkpt lat="34.07847" lon="110.122519">
        <time>2026-09-23T13:29:53Z</time>
      </trkpt>
      <trkpt lat="34.078513" lon="110.122604">
        <time>2026-09-23T13:29:58Z</time>
      </trkpt>
      <trkpt lat="34.078499" lon="110.122695">
        <time>2026-09-23T13:30:03Z</time>
      </trkpt>
      <trkpt lat="34.078496" lon="110.122764">
        <time>2026-09-23T13:30:08Z</time>
      </trkpt>
      <trkpt lat="34.078526" lon="110.122824">
        <time>2026-09-23T13:30:13Z</time>
      </trkpt>
      <trkpt lat="34.07854" lon="110.1229">
        <time>2026-09-23T13:30:18Z</time>
      </trkpt>
      <trkpt lat="34.078554" lon="110.122979">
        <time>2026-09-23T13:30:23Z</time>
      </trkpt>
      <trkpt lat="34.078583" lon="110.123044">
        <time>2026-09-23T13:30:28Z</time>
      </trkpt>
      <trkpt lat="34.078602" lon="110.123104">
        <time>2026-09-23T13:30:33Z</time>
      </trkpt>
      <trkpt lat="34.078619" lon="110.123172">
        <time>2026-09-23T13:30:38Z</time>
      </trkpt>
      <trkpt lat="34.078629" lon="110.123249">
        <time>2026-09-23T13:30:43Z</time>
      </trkpt>
      <trkpt lat="34.078635" lon="110.123315">
        <time>2026-09-23T13:30:48Z</time>
      </trkpt>
      <trkpt lat="34.078629" lon="110.123387">
        <time>2026-09-23T13:30:53Z</time>
      </trkpt>
      <trkpt lat="34.078648" lon="110.123442">
        <time>2026-09-23T13:30:58Z</time>
      </trkpt>
      <trkpt lat="34.07868" lon="110.123511">
        <time>2026-09-23T13:31:03Z</time>
      </trkpt>
      <trkpt lat="34.078692" lon="110.123607">
        <time>2026-09-23T13:31:08Z</time>
      </trkpt>
      <trkpt lat="34.078711" lon="110.123698">
        <time>2026-09-23T13:31:13Z</time>
      </trkpt>
      <trkpt lat="34.078739" lon="110.123793">
        <time>2026-09-23T13:31:18Z</time>
      </trkpt>
      <trkpt lat="34.078771" lon="110.123866">
        <time>2026-09-23T13:31:23Z</time>
      </trkpt>
      <trkpt lat="34.078791" lon="110.123943">
        <time>2026-09-23T13:31:28Z</time>
      </trkpt>
      <trkpt lat="34.078805" lon="110.124031">
        <time>2026-09-23T13:31:33Z</time>
      </trkpt>
      <trkpt lat="34.078816" lon="110.124117">
        <time>2026-09-23T13:31:38Z</time>
      </trkpt>
      <trkpt lat="34.078839" lon="110.124189">
        <time>2026-09-23T13:31:43Z</time>
      </trkpt>
      <trkpt lat="34.078859" lon="110.124259">
        <time>2026-09-23T13:31:48Z</time>
      </trkpt>
      <trkpt lat="34.078885" lon="110.124329">
        <time>2026-09-23T13:31:53Z</time>
      </trkpt>
      <trkpt lat="34.078906" lon="110.124401">
        <time>2026-09-23T13:31:58Z</time>
      </trkpt>
      <trkpt lat="34.078927" lon="110.124478">
        <time>2026-09-23T13:32:03Z</time>
      </trkpt>
      <trkpt lat="34.078951" lon="110.124555">
        <time>2026-09-23T13:32:08Z</time>
      </trkpt>
      <trkpt lat="34.078974" lon="110.124627">
        <time>2026-09-23T13:32:13Z</time>
      </trkpt>
      <trkpt lat="34.078996" lon="110.124702">
        <time>2026-09-23T13:32:18Z</time>
      </trkpt>
      <trkpt lat="34.07902" lon="110.12477">
        <time>2026-09-23T13:32:23Z</time>
      </trkpt>
      <trkpt lat="34.079037" lon="110.124834">
        <time>2026-09-23T13:32:28Z</time>
      </trkpt>
      <trkpt lat="34.079052" lon="110.124882">
        <time>2026-09-23T13:32:33Z</time>
      </trkpt>
      <trkpt lat="34.079105" lon="110.124907">
        <time>2026-09-23T13:32:38Z</time>
      </trkpt>
      <trkpt lat="34.079182" lon="110.124939">
        <time>2026-09-23T13:32:43Z</time>
      </trkpt>
      <trkpt lat="34.079242" lon="110.125004">
        <time>2026-09-23T13:32:48Z</time>
      </trkpt>
      <trkpt lat="34.079281" lon="110.125012">
        <time>2026-09-23T13:32:57Z</time>
      </trkpt>
    </trkseg>
  </trk>
</gpx>